datetime,datetime_traffic,weekday,speed,travel_time,link_name,AQI_PM2.5,AQI_OZONE,Minimum Temperature,Maximum Temperature,Temperature,Dew Point,Relative Humidity,Wind Speed,Wind Direction,Precipitation,Precipitation Cover,Snow Depth,Visibility,Cloud Cover,Sea Level Pressure,Conditions
2021-07-24 13:00:00,2021-07-24T13:03:06,Saturday,7.45,747,LINCOLN TUNNEL E SOUTH TUBE - NJ - NY,26.0,39.0,93.0,93.0,93.0,74.5,55.12,6.3,232.0,0.0,,,9.9,24.9,1014.5,Clear
2021-07-24 13:00:00,2021-07-24T13:03:06,Saturday,13.67,395,LINCOLN TUNNEL E CENTER TUBE NJ - NY,26.0,39.0,93.0,93.0,93.0,74.5,55.12,6.3,232.0,0.0,,,9.9,24.9,1014.5,Clear
2021-07-24 13:00:00,2021-07-24T13:03:06,Saturday,0.0,0,LINCOLN TUNNEL W CENTER TUBE NY - NJ,26.0,39.0,93.0,93.0,93.0,74.5,55.12,6.3,232.0,0.0,,,9.9,24.9,1014.5,Clear
2021-07-24 13:00:00,2021-07-24T13:04:03,Saturday,14.29,347,LINCOLN TUNNEL W NORTH TUBE NY - NJ,26.0,39.0,93.0,93.0,93.0,74.5,55.12,6.3,232.0,0.0,,,9.9,24.9,1014.5,Clear
2021-07-24 13:00:00,2021-07-24T13:04:03,Saturday,37.9,62,FDR N - TBB E 116TH STREET - MANHATTAN TRUSS,26.0,39.0,93.0,93.0,93.0,74.5,55.12,6.3,232.0,0.0,,,9.9,24.9,1014.5,Clear
2021-07-24 13:00:00,2021-07-24T13:04:03,Saturday,39.14,181,BBT W Toll Plaza - Manhattan Portal,26.0,39.0,93.0,93.0,93.0,74.5,55.12,6.3,232.0,0.0,,,9.9,24.9,1014.5,Clear
2021-07-24 13:00:00,2021-07-24T13:04:03,Saturday,39.76,179,BBT E Manhattan Portal - Toll Plaza,26.0,39.0,93.0,93.0,93.0,74.5,55.12,6.3,232.0,0.0,,,9.9,24.9,1014.5,Clear
2021-07-24 13:00:00,2021-07-24T13:04:03,Saturday,36.03,152,QMT E Manhattan Side - Toll Plaza,26.0,39.0,93.0,93.0,93.0,74.5,55.12,6.3,232.0,0.0,,,9.9,24.9,1014.5,Clear
2021-07-24 13:00:00,2021-07-24T13:04:03,Saturday,41.63,177,GWB E LOWER LEVEL PLAZA - CBE E LOWER LEVEL AMSTERDAM AVE,26.0,39.0,93.0,93.0,93.0,74.5,55.12,6.3,232.0,0.0,,,9.9,24.9,1014.5,Clear
2021-07-24 13:00:00,2021-07-24T13:04:03,Saturday,12.42,1572,Westside Hwy N 57th St - GWB,26.0,39.0,93.0,93.0,93.0,74.5,55.12,6.3,232.0,0.0,,,9.9,24.9,1014.5,Clear
2021-07-24 13:00:00,2021-07-24T13:04:04,Saturday,31.06,77,TBB W - FDR S MANHATTAN TRUSS - E116TH STREET,26.0,39.0,93.0,93.0,93.0,74.5,55.12,6.3,232.0,0.0,,,9.9,24.9,1014.5,Clear
2021-07-24 13:00:00,2021-07-24T13:04:04,Saturday,0.0,0,West St S Spring St - BBT Manhattan Portal outbound,26.0,39.0,93.0,93.0,93.0,74.5,55.12,6.3,232.0,0.0,,,9.9,24.9,1014.5,Clear
2021-07-24 13:00:00,2021-07-24T13:04:04,Saturday,17.39,410,BQE N Atlantic Ave - BKN Bridge Manhattan Side,26.0,39.0,93.0,93.0,93.0,74.5,55.12,6.3,232.0,0.0,,,9.9,24.9,1014.5,Clear
2021-07-24 13:00:00,2021-07-24T13:04:04,Saturday,19.88,478,BQE N Atlantic Ave - MAN Bridge Manhattan Side,26.0,39.0,93.0,93.0,93.0,74.5,55.12,6.3,232.0,0.0,,,9.9,24.9,1014.5,Clear
2021-07-24 13:00:00,2021-07-24T13:04:04,Saturday,49.7,398,Westside Hwy S GWB - 57th St,26.0,39.0,93.0,93.0,93.0,74.5,55.12,6.3,232.0,0.0,,,9.9,24.9,1014.5,Clear
2021-07-24 13:00:00,2021-07-24T13:04:11,Saturday,2.48,857,12th Ave S 57th St - 45th St,26.0,39.0,93.0,93.0,93.0,74.5,55.12,6.3,232.0,0.0,,,9.9,24.9,1014.5,Clear
2021-07-24 13:00:00,2021-07-24T13:04:11,Saturday,4.34,1346,12th ave @ 45th - 11 ave ganservoort st,26.0,39.0,93.0,93.0,93.0,74.5,55.12,6.3,232.0,0.0,,,9.9,24.9,1014.5,Clear
2021-07-24 13:00:00,2021-07-24T13:04:11,Saturday,0.0,0,11th ave s ganservoort - west st @ spring st,26.0,39.0,93.0,93.0,93.0,74.5,55.12,6.3,232.0,0.0,,,9.9,24.9,1014.5,Clear
2021-07-24 13:00:00,2021-07-24T13:04:11,Saturday,19.88,504,FDR N Catherine Slip - 25th St,26.0,39.0,93.0,93.0,93.0,74.5,55.12,6.3,232.0,0.0,,,9.9,24.9,1014.5,Clear
2021-07-24 13:00:00,2021-07-24T13:04:11,Saturday,19.88,338,FDR N 25th - 63rd St,26.0,39.0,93.0,93.0,93.0,74.5,55.12,6.3,232.0,0.0,,,9.9,24.9,1014.5,Clear
2021-07-24 13:00:00,2021-07-24T13:04:11,Saturday,33.55,202,FDR S 63rd - 25th St,26.0,39.0,93.0,93.0,93.0,74.5,55.12,6.3,232.0,0.0,,,9.9,24.9,1014.5,Clear
2021-07-24 13:00:00,2021-07-24T13:04:11,Saturday,33.55,301,FDR S 25th St - Catherine Slip,26.0,39.0,93.0,93.0,93.0,74.5,55.12,6.3,232.0,0.0,,,9.9,24.9,1014.5,Clear
2021-07-24 13:00:00,2021-07-24T13:04:11,Saturday,3.72,1254,11th ave n ganservoort - 12th ave @ 40th st,26.0,39.0,93.0,93.0,93.0,74.5,55.12,6.3,232.0,0.0,,,9.9,24.9,1014.5,Clear
2021-07-24 13:00:00,2021-07-24T13:04:11,Saturday,3.72,759,12th Ave N 40th - 57th St,26.0,39.0,93.0,93.0,93.0,74.5,55.12,6.3,232.0,0.0,,,9.9,24.9,1014.5,Clear
2021-07-24 13:00:00,2021-07-24T13:04:11,Saturday,33.55,78,FDR S Catherine Slip - BKN Bridge Manhattan Side,26.0,39.0,93.0,93.0,93.0,74.5,55.12,6.3,232.0,0.0,,,9.9,24.9,1014.5,Clear
2021-07-24 13:00:00,2021-07-24T13:04:11,Saturday,19.88,129,BKN Bridge Manhattan Side - FDR N Catherine Slip,26.0,39.0,93.0,93.0,93.0,74.5,55.12,6.3,232.0,0.0,,,9.9,24.9,1014.5,Clear
2021-07-24 13:00:00,2021-07-24T13:09:03,Saturday,14.29,349,LINCOLN TUNNEL W NORTH TUBE NY - NJ,26.0,39.0,93.0,93.0,93.0,74.5,55.12,6.3,232.0,0.0,,,9.9,24.9,1014.5,Clear
2021-07-24 13:00:00,2021-07-24T13:09:03,Saturday,36.66,64,FDR N - TBB E 116TH STREET - MANHATTAN TRUSS,26.0,39.0,93.0,93.0,93.0,74.5,55.12,6.3,232.0,0.0,,,9.9,24.9,1014.5,Clear
2021-07-24 13:00:00,2021-07-24T13:09:03,Saturday,36.66,195,BBT W Toll Plaza - Manhattan Portal,26.0,39.0,93.0,93.0,93.0,74.5,55.12,6.3,232.0,0.0,,,9.9,24.9,1014.5,Clear
2021-07-24 13:00:00,2021-07-24T13:09:03,Saturday,39.14,180,BBT E Manhattan Portal - Toll Plaza,26.0,39.0,93.0,93.0,93.0,74.5,55.12,6.3,232.0,0.0,,,9.9,24.9,1014.5,Clear
2021-07-24 13:00:00,2021-07-24T13:09:03,Saturday,36.03,151,QMT E Manhattan Side - Toll Plaza,26.0,39.0,93.0,93.0,93.0,74.5,55.12,6.3,232.0,0.0,,,9.9,24.9,1014.5,Clear
2021-07-24 13:00:00,2021-07-24T13:09:03,Saturday,42.87,172,GWB E LOWER LEVEL PLAZA - CBE E LOWER LEVEL AMSTERDAM AVE,26.0,39.0,93.0,93.0,93.0,74.5,55.12,6.3,232.0,0.0,,,9.9,24.9,1014.5,Clear
2021-07-24 13:00:00,2021-07-24T13:09:03,Saturday,10.56,1829,Westside Hwy N 57th St - GWB,26.0,39.0,93.0,93.0,93.0,74.5,55.12,6.3,232.0,0.0,,,9.9,24.9,1014.5,Clear
2021-07-24 13:00:00,2021-07-24T13:09:04,Saturday,28.58,84,TBB W - FDR S MANHATTAN TRUSS - E116TH STREET,26.0,39.0,93.0,93.0,93.0,74.5,55.12,6.3,232.0,0.0,,,9.9,24.9,1014.5,Clear
2021-07-24 13:00:00,2021-07-24T13:09:04,Saturday,0.0,0,West St S Spring St - BBT Manhattan Portal outbound,26.0,39.0,93.0,93.0,93.0,74.5,55.12,6.3,232.0,0.0,,,9.9,24.9,1014.5,Clear
2021-07-24 13:00:00,2021-07-24T13:09:04,Saturday,16.77,416,BQE N Atlantic Ave - BKN Bridge Manhattan Side,26.0,39.0,93.0,93.0,93.0,74.5,55.12,6.3,232.0,0.0,,,9.9,24.9,1014.5,Clear
2021-07-24 13:00:00,2021-07-24T13:09:04,Saturday,23.61,405,BQE N Atlantic Ave - MAN Bridge Manhattan Side,26.0,39.0,93.0,93.0,93.0,74.5,55.12,6.3,232.0,0.0,,,9.9,24.9,1014.5,Clear
2021-07-24 13:00:00,2021-07-24T13:09:04,Saturday,49.08,402,Westside Hwy S GWB - 57th St,26.0,39.0,93.0,93.0,93.0,74.5,55.12,6.3,232.0,0.0,,,9.9,24.9,1014.5,Clear
2021-07-24 13:00:00,2021-07-24T13:09:05,Saturday,6.83,804,LINCOLN TUNNEL E SOUTH TUBE - NJ - NY,26.0,39.0,93.0,93.0,93.0,74.5,55.12,6.3,232.0,0.0,,,9.9,24.9,1014.5,Clear
2021-07-24 13:00:00,2021-07-24T13:09:05,Saturday,13.04,421,LINCOLN TUNNEL E CENTER TUBE NJ - NY,26.0,39.0,93.0,93.0,93.0,74.5,55.12,6.3,232.0,0.0,,,9.9,24.9,1014.5,Clear
2021-07-24 13:00:00,2021-07-24T13:09:05,Saturday,0.0,0,LINCOLN TUNNEL W CENTER TUBE NY - NJ,26.0,39.0,93.0,93.0,93.0,74.5,55.12,6.3,232.0,0.0,,,9.9,24.9,1014.5,Clear
2021-07-24 13:00:00,2021-07-24T13:09:10,Saturday,21.12,124,BKN Bridge Manhattan Side - FDR N Catherine Slip,26.0,39.0,93.0,93.0,93.0,74.5,55.12,6.3,232.0,0.0,,,9.9,24.9,1014.5,Clear
2021-07-24 13:00:00,2021-07-24T13:09:10,Saturday,2.48,848,12th Ave S 57th St - 45th St,26.0,39.0,93.0,93.0,93.0,74.5,55.12,6.3,232.0,0.0,,,9.9,24.9,1014.5,Clear
2021-07-24 13:00:00,2021-07-24T13:09:10,Saturday,4.34,1398,12th ave @ 45th - 11 ave ganservoort st,26.0,39.0,93.0,93.0,93.0,74.5,55.12,6.3,232.0,0.0,,,9.9,24.9,1014.5,Clear
2021-07-24 13:00:00,2021-07-24T13:09:10,Saturday,0.0,0,11th ave s ganservoort - west st @ spring st,26.0,39.0,93.0,93.0,93.0,74.5,55.12,6.3,232.0,0.0,,,9.9,24.9,1014.5,Clear
2021-07-24 13:00:00,2021-07-24T13:09:10,Saturday,21.12,485,FDR N Catherine Slip - 25th St,26.0,39.0,93.0,93.0,93.0,74.5,55.12,6.3,232.0,0.0,,,9.9,24.9,1014.5,Clear
2021-07-24 13:00:00,2021-07-24T13:09:10,Saturday,21.12,325,FDR N 25th - 63rd St,26.0,39.0,93.0,93.0,93.0,74.5,55.12,6.3,232.0,0.0,,,9.9,24.9,1014.5,Clear
2021-07-24 13:00:00,2021-07-24T13:09:10,Saturday,30.44,222,FDR S 63rd - 25th St,26.0,39.0,93.0,93.0,93.0,74.5,55.12,6.3,232.0,0.0,,,9.9,24.9,1014.5,Clear
2021-07-24 13:00:00,2021-07-24T13:09:10,Saturday,30.44,331,FDR S 25th St - Catherine Slip,26.0,39.0,93.0,93.0,93.0,74.5,55.12,6.3,232.0,0.0,,,9.9,24.9,1014.5,Clear
2021-07-24 13:00:00,2021-07-24T13:09:10,Saturday,2.48,1761,11th ave n ganservoort - 12th ave @ 40th st,26.0,39.0,93.0,93.0,93.0,74.5,55.12,6.3,232.0,0.0,,,9.9,24.9,1014.5,Clear
2021-07-24 13:00:00,2021-07-24T13:09:10,Saturday,2.48,1066,12th Ave N 40th - 57th St,26.0,39.0,93.0,93.0,93.0,74.5,55.12,6.3,232.0,0.0,,,9.9,24.9,1014.5,Clear
2021-07-24 13:00:00,2021-07-24T13:09:10,Saturday,30.44,86,FDR S Catherine Slip - BKN Bridge Manhattan Side,26.0,39.0,93.0,93.0,93.0,74.5,55.12,6.3,232.0,0.0,,,9.9,24.9,1014.5,Clear
2021-07-24 13:00:00,2021-07-24T13:13:06,Saturday,5.59,944,LINCOLN TUNNEL E SOUTH TUBE - NJ - NY,26.0,39.0,93.0,93.0,93.0,74.5,55.12,6.3,232.0,0.0,,,9.9,24.9,1014.5,Clear
2021-07-24 13:00:00,2021-07-24T13:13:06,Saturday,13.67,397,LINCOLN TUNNEL E CENTER TUBE NJ - NY,26.0,39.0,93.0,93.0,93.0,74.5,55.12,6.3,232.0,0.0,,,9.9,24.9,1014.5,Clear
2021-07-24 13:00:00,2021-07-24T13:13:06,Saturday,0.0,0,LINCOLN TUNNEL W CENTER TUBE NY - NJ,26.0,39.0,93.0,93.0,93.0,74.5,55.12,6.3,232.0,0.0,,,9.9,24.9,1014.5,Clear
2021-07-24 13:00:00,2021-07-24T13:14:03,Saturday,14.29,344,LINCOLN TUNNEL W NORTH TUBE NY - NJ,26.0,39.0,93.0,93.0,93.0,74.5,55.12,6.3,232.0,0.0,,,9.9,24.9,1014.5,Clear
2021-07-24 13:00:00,2021-07-24T13:14:03,Saturday,37.28,64,FDR N - TBB E 116TH STREET - MANHATTAN TRUSS,26.0,39.0,93.0,93.0,93.0,74.5,55.12,6.3,232.0,0.0,,,9.9,24.9,1014.5,Clear
2021-07-24 13:00:00,2021-07-24T13:14:03,Saturday,31.68,76,TBB W - FDR S MANHATTAN TRUSS - E116TH STREET,26.0,39.0,93.0,93.0,93.0,74.5,55.12,6.3,232.0,0.0,,,9.9,24.9,1014.5,Clear
2021-07-24 13:00:00,2021-07-24T13:14:03,Saturday,38.52,185,BBT W Toll Plaza - Manhattan Portal,26.0,39.0,93.0,93.0,93.0,74.5,55.12,6.3,232.0,0.0,,,9.9,24.9,1014.5,Clear
2021-07-24 13:00:00,2021-07-24T13:14:03,Saturday,39.76,178,BBT E Manhattan Portal - Toll Plaza,26.0,39.0,93.0,93.0,93.0,74.5,55.12,6.3,232.0,0.0,,,9.9,24.9,1014.5,Clear
2021-07-24 13:00:00,2021-07-24T13:14:03,Saturday,36.66,149,QMT E Manhattan Side - Toll Plaza,26.0,39.0,93.0,93.0,93.0,74.5,55.12,6.3,232.0,0.0,,,9.9,24.9,1014.5,Clear
2021-07-24 13:00:00,2021-07-24T13:14:03,Saturday,16.15,437,BQE N Atlantic Ave - BKN Bridge Manhattan Side,26.0,39.0,93.0,93.0,93.0,74.5,55.12,6.3,232.0,0.0,,,9.9,24.9,1014.5,Clear
2021-07-24 13:00:00,2021-07-24T13:14:03,Saturday,23.61,400,BQE N Atlantic Ave - MAN Bridge Manhattan Side,26.0,39.0,93.0,93.0,93.0,74.5,55.12,6.3,232.0,0.0,,,9.9,24.9,1014.5,Clear
2021-07-24 13:00:00,2021-07-24T13:14:03,Saturday,49.08,402,Westside Hwy S GWB - 57th St,26.0,39.0,93.0,93.0,93.0,74.5,55.12,6.3,232.0,0.0,,,9.9,24.9,1014.5,Clear
2021-07-24 13:00:00,2021-07-24T13:14:03,Saturday,24.85,296,GWB E LOWER LEVEL PLAZA - CBE E LOWER LEVEL AMSTERDAM AVE,26.0,39.0,93.0,93.0,93.0,74.5,55.12,6.3,232.0,0.0,,,9.9,24.9,1014.5,Clear
2021-07-24 13:00:00,2021-07-24T13:14:03,Saturday,9.94,1900,Westside Hwy N 57th St - GWB,26.0,39.0,93.0,93.0,93.0,74.5,55.12,6.3,232.0,0.0,,,9.9,24.9,1014.5,Clear
2021-07-24 13:00:00,2021-07-24T13:14:04,Saturday,0.0,0,West St S Spring St - BBT Manhattan Portal outbound,26.0,39.0,93.0,93.0,93.0,74.5,55.12,6.3,232.0,0.0,,,9.9,24.9,1014.5,Clear
2021-07-24 13:00:00,2021-07-24T13:14:10,Saturday,2.48,760,12th Ave S 57th St - 45th St,26.0,39.0,93.0,93.0,93.0,74.5,55.12,6.3,232.0,0.0,,,9.9,24.9,1014.5,Clear
2021-07-24 13:00:00,2021-07-24T13:14:10,Saturday,6.21,993,12th ave @ 45th - 11 ave ganservoort st,26.0,39.0,93.0,93.0,93.0,74.5,55.12,6.3,232.0,0.0,,,9.9,24.9,1014.5,Clear
2021-07-24 13:00:00,2021-07-24T13:14:10,Saturday,0.0,0,11th ave s ganservoort - west st @ spring st,26.0,39.0,93.0,93.0,93.0,74.5,55.12,6.3,232.0,0.0,,,9.9,24.9,1014.5,Clear
2021-07-24 13:00:00,2021-07-24T13:14:10,Saturday,20.5,500,FDR N Catherine Slip - 25th St,26.0,39.0,93.0,93.0,93.0,74.5,55.12,6.3,232.0,0.0,,,9.9,24.9,1014.5,Clear
2021-07-24 13:00:00,2021-07-24T13:14:10,Saturday,20.5,336,FDR N 25th - 63rd St,26.0,39.0,93.0,93.0,93.0,74.5,55.12,6.3,232.0,0.0,,,9.9,24.9,1014.5,Clear
2021-07-24 13:00:00,2021-07-24T13:14:10,Saturday,21.74,314,FDR S 63rd - 25th St,26.0,39.0,93.0,93.0,93.0,74.5,55.12,6.3,232.0,0.0,,,9.9,24.9,1014.5,Clear
2021-07-24 13:00:00,2021-07-24T13:14:10,Saturday,21.74,468,FDR S 25th St - Catherine Slip,26.0,39.0,93.0,93.0,93.0,74.5,55.12,6.3,232.0,0.0,,,9.9,24.9,1014.5,Clear
2021-07-24 13:00:00,2021-07-24T13:14:10,Saturday,2.48,1859,11th ave n ganservoort - 12th ave @ 40th st,26.0,39.0,93.0,93.0,93.0,74.5,55.12,6.3,232.0,0.0,,,9.9,24.9,1014.5,Clear
2021-07-24 13:00:00,2021-07-24T13:14:10,Saturday,2.48,1125,12th Ave N 40th - 57th St,26.0,39.0,93.0,93.0,93.0,74.5,55.12,6.3,232.0,0.0,,,9.9,24.9,1014.5,Clear
2021-07-24 13:00:00,2021-07-24T13:14:10,Saturday,21.74,121,FDR S Catherine Slip - BKN Bridge Manhattan Side,26.0,39.0,93.0,93.0,93.0,74.5,55.12,6.3,232.0,0.0,,,9.9,24.9,1014.5,Clear
2021-07-24 13:00:00,2021-07-24T13:14:10,Saturday,20.5,128,BKN Bridge Manhattan Side - FDR N Catherine Slip,26.0,39.0,93.0,93.0,93.0,74.5,55.12,6.3,232.0,0.0,,,9.9,24.9,1014.5,Clear
2021-07-24 13:00:00,2021-07-24T13:18:07,Saturday,0.0,0,LINCOLN TUNNEL E CENTER TUBE NJ - NY,26.0,39.0,93.0,93.0,93.0,74.5,55.12,6.3,232.0,0.0,,,9.9,24.9,1014.5,Clear
2021-07-24 13:00:00,2021-07-24T13:18:07,Saturday,0.0,0,LINCOLN TUNNEL W CENTER TUBE NY - NJ,26.0,39.0,93.0,93.0,93.0,74.5,55.12,6.3,232.0,0.0,,,9.9,24.9,1014.5,Clear
2021-07-24 13:00:00,2021-07-24T13:19:02,Saturday,36.03,65,FDR N - TBB E 116TH STREET - MANHATTAN TRUSS,26.0,39.0,93.0,93.0,93.0,74.5,55.12,6.3,232.0,0.0,,,9.9,24.9,1014.5,Clear
2021-07-24 13:00:00,2021-07-24T13:19:02,Saturday,41.01,174,BBT W Toll Plaza - Manhattan Portal,26.0,39.0,93.0,93.0,93.0,74.5,55.12,6.3,232.0,0.0,,,9.9,24.9,1014.5,Clear
2021-07-24 13:00:00,2021-07-24T13:19:02,Saturday,38.52,185,BBT E Manhattan Portal - Toll Plaza,26.0,39.0,93.0,93.0,93.0,74.5,55.12,6.3,232.0,0.0,,,9.9,24.9,1014.5,Clear
2021-07-24 13:00:00,2021-07-24T13:19:02,Saturday,36.66,150,QMT E Manhattan Side - Toll Plaza,26.0,39.0,93.0,93.0,93.0,74.5,55.12,6.3,232.0,0.0,,,9.9,24.9,1014.5,Clear
2021-07-24 13:00:00,2021-07-24T13:19:03,Saturday,14.29,339,LINCOLN TUNNEL W NORTH TUBE NY - NJ,26.0,39.0,93.0,93.0,93.0,74.5,55.12,6.3,232.0,0.0,,,9.9,24.9,1014.5,Clear
2021-07-24 13:00:00,2021-07-24T13:19:03,Saturday,27.96,85,TBB W - FDR S MANHATTAN TRUSS - E116TH STREET,26.0,39.0,93.0,93.0,93.0,74.5,55.12,6.3,232.0,0.0,,,9.9,24.9,1014.5,Clear
2021-07-24 13:00:00,2021-07-24T13:19:03,Saturday,14.91,473,BQE N Atlantic Ave - BKN Bridge Manhattan Side,26.0,39.0,93.0,93.0,93.0,74.5,55.12,6.3,232.0,0.0,,,9.9,24.9,1014.5,Clear
2021-07-24 13:00:00,2021-07-24T13:19:03,Saturday,22.99,419,BQE N Atlantic Ave - MAN Bridge Manhattan Side,26.0,39.0,93.0,93.0,93.0,74.5,55.12,6.3,232.0,0.0,,,9.9,24.9,1014.5,Clear
2021-07-24 13:00:00,2021-07-24T13:19:03,Saturday,49.08,404,Westside Hwy S GWB - 57th St,26.0,39.0,93.0,93.0,93.0,74.5,55.12,6.3,232.0,0.0,,,9.9,24.9,1014.5,Clear
2021-07-24 13:00:00,2021-07-24T13:19:03,Saturday,28.58,259,GWB E LOWER LEVEL PLAZA - CBE E LOWER LEVEL AMSTERDAM AVE,26.0,39.0,93.0,93.0,93.0,74.5,55.12,6.3,232.0,0.0,,,9.9,24.9,1014.5,Clear
2021-07-24 13:00:00,2021-07-24T13:19:03,Saturday,9.94,1978,Westside Hwy N 57th St - GWB,26.0,39.0,93.0,93.0,93.0,74.5,55.12,6.3,232.0,0.0,,,9.9,24.9,1014.5,Clear
2021-07-24 13:00:00,2021-07-24T13:19:04,Saturday,0.0,0,West St S Spring St - BBT Manhattan Portal outbound,26.0,39.0,93.0,93.0,93.0,74.5,55.12,6.3,232.0,0.0,,,9.9,24.9,1014.5,Clear
2021-07-24 13:00:00,2021-07-24T13:19:06,Saturday,6.83,750,LINCOLN TUNNEL E SOUTH TUBE - NJ - NY,26.0,39.0,93.0,93.0,93.0,74.5,55.12,6.3,232.0,0.0,,,9.9,24.9,1014.5,Clear
2021-07-24 13:00:00,2021-07-24T13:19:10,Saturday,2.48,742,12th Ave S 57th St - 45th St,26.0,39.0,93.0,93.0,93.0,74.5,55.12,6.3,232.0,0.0,,,9.9,24.9,1014.5,Clear
2021-07-24 13:00:00,2021-07-24T13:19:10,Saturday,4.97,1195,12th ave @ 45th - 11 ave ganservoort st,26.0,39.0,93.0,93.0,93.0,74.5,55.12,6.3,232.0,0.0,,,9.9,24.9,1014.5,Clear
2021-07-24 13:00:00,2021-07-24T13:19:10,Saturday,0.0,0,11th ave s ganservoort - west st @ spring st,26.0,39.0,93.0,93.0,93.0,74.5,55.12,6.3,232.0,0.0,,,9.9,24.9,1014.5,Clear
2021-07-24 13:00:00,2021-07-24T13:19:10,Saturday,20.5,492,FDR N Catherine Slip - 25th St,26.0,39.0,93.0,93.0,93.0,74.5,55.12,6.3,232.0,0.0,,,9.9,24.9,1014.5,Clear
2021-07-24 13:00:00,2021-07-24T13:19:10,Saturday,20.5,330,FDR N 25th - 63rd St,26.0,39.0,93.0,93.0,93.0,74.5,55.12,6.3,232.0,0.0,,,9.9,24.9,1014.5,Clear
2021-07-24 13:00:00,2021-07-24T13:19:10,Saturday,22.36,306,FDR S 63rd - 25th St,26.0,39.0,93.0,93.0,93.0,74.5,55.12,6.3,232.0,0.0,,,9.9,24.9,1014.5,Clear
2021-07-24 13:00:00,2021-07-24T13:19:10,Saturday,22.36,456,FDR S 25th St - Catherine Slip,26.0,39.0,93.0,93.0,93.0,74.5,55.12,6.3,232.0,0.0,,,9.9,24.9,1014.5,Clear
2021-07-24 13:00:00,2021-07-24T13:19:10,Saturday,3.1,1517,11th ave n ganservoort - 12th ave @ 40th st,26.0,39.0,93.0,93.0,93.0,74.5,55.12,6.3,232.0,0.0,,,9.9,24.9,1014.5,Clear
2021-07-24 13:00:00,2021-07-24T13:19:10,Saturday,3.1,918,12th Ave N 40th - 57th St,26.0,39.0,93.0,93.0,93.0,74.5,55.12,6.3,232.0,0.0,,,9.9,24.9,1014.5,Clear
2021-07-24 13:00:00,2021-07-24T13:19:10,Saturday,22.36,118,FDR S Catherine Slip - BKN Bridge Manhattan Side,26.0,39.0,93.0,93.0,93.0,74.5,55.12,6.3,232.0,0.0,,,9.9,24.9,1014.5,Clear
2021-07-24 13:00:00,2021-07-24T13:19:10,Saturday,20.5,125,BKN Bridge Manhattan Side - FDR N Catherine Slip,26.0,39.0,93.0,93.0,93.0,74.5,55.12,6.3,232.0,0.0,,,9.9,24.9,1014.5,Clear
2021-07-24 13:00:00,2021-07-24T13:23:08,Saturday,0.0,0,LINCOLN TUNNEL W CENTER TUBE NY - NJ,26.0,39.0,93.0,93.0,93.0,74.5,55.12,6.3,232.0,0.0,,,9.9,24.9,1014.5,Clear
2021-07-24 13:00:00,2021-07-24T13:23:08,Saturday,6.83,761,LINCOLN TUNNEL E SOUTH TUBE - NJ - NY,26.0,39.0,93.0,93.0,93.0,74.5,55.12,6.3,232.0,0.0,,,9.9,24.9,1014.5,Clear
2021-07-24 13:00:00,2021-07-24T13:23:08,Saturday,8.07,648,LINCOLN TUNNEL E CENTER TUBE NJ - NY,26.0,39.0,93.0,93.0,93.0,74.5,55.12,6.3,232.0,0.0,,,9.9,24.9,1014.5,Clear
2021-07-24 13:00:00,2021-07-24T13:24:03,Saturday,14.91,334,LINCOLN TUNNEL W NORTH TUBE NY - NJ,26.0,39.0,93.0,93.0,93.0,74.5,55.12,6.3,232.0,0.0,,,9.9,24.9,1014.5,Clear
2021-07-24 13:00:00,2021-07-24T13:24:03,Saturday,36.03,66,FDR N - TBB E 116TH STREET - MANHATTAN TRUSS,26.0,39.0,93.0,93.0,93.0,74.5,55.12,6.3,232.0,0.0,,,9.9,24.9,1014.5,Clear
2021-07-24 13:00:00,2021-07-24T13:24:03,Saturday,22.36,108,TBB W - FDR S MANHATTAN TRUSS - E116TH STREET,26.0,39.0,93.0,93.0,93.0,74.5,55.12,6.3,232.0,0.0,,,9.9,24.9,1014.5,Clear
2021-07-24 13:00:00,2021-07-24T13:24:03,Saturday,40.38,176,BBT W Toll Plaza - Manhattan Portal,26.0,39.0,93.0,93.0,93.0,74.5,55.12,6.3,232.0,0.0,,,9.9,24.9,1014.5,Clear
2021-07-24 13:00:00,2021-07-24T13:24:03,Saturday,39.14,181,BBT E Manhattan Portal - Toll Plaza,26.0,39.0,93.0,93.0,93.0,74.5,55.12,6.3,232.0,0.0,,,9.9,24.9,1014.5,Clear
2021-07-24 13:00:00,2021-07-24T13:24:03,Saturday,34.17,160,QMT E Manhattan Side - Toll Plaza,26.0,39.0,93.0,93.0,93.0,74.5,55.12,6.3,232.0,0.0,,,9.9,24.9,1014.5,Clear
2021-07-24 13:00:00,2021-07-24T13:24:03,Saturday,14.91,471,BQE N Atlantic Ave - BKN Bridge Manhattan Side,26.0,39.0,93.0,93.0,93.0,74.5,55.12,6.3,232.0,0.0,,,9.9,24.9,1014.5,Clear
2021-07-24 13:00:00,2021-07-24T13:24:03,Saturday,22.99,421,BQE N Atlantic Ave - MAN Bridge Manhattan Side,26.0,39.0,93.0,93.0,93.0,74.5,55.12,6.3,232.0,0.0,,,9.9,24.9,1014.5,Clear
2021-07-24 13:00:00,2021-07-24T13:24:03,Saturday,49.08,404,Westside Hwy S GWB - 57th St,26.0,39.0,93.0,93.0,93.0,74.5,55.12,6.3,232.0,0.0,,,9.9,24.9,1014.5,Clear
2021-07-24 13:00:00,2021-07-24T13:24:03,Saturday,27.96,265,GWB E LOWER LEVEL PLAZA - CBE E LOWER LEVEL AMSTERDAM AVE,26.0,39.0,93.0,93.0,93.0,74.5,55.12,6.3,232.0,0.0,,,9.9,24.9,1014.5,Clear
2021-07-24 13:00:00,2021-07-24T13:24:03,Saturday,8.69,2235,Westside Hwy N 57th St - GWB,26.0,39.0,93.0,93.0,93.0,74.5,55.12,6.3,232.0,0.0,,,9.9,24.9,1014.5,Clear
2021-07-24 13:00:00,2021-07-24T13:24:04,Saturday,0.0,0,West St S Spring St - BBT Manhattan Portal outbound,26.0,39.0,93.0,93.0,93.0,74.5,55.12,6.3,232.0,0.0,,,9.9,24.9,1014.5,Clear
2021-07-24 13:00:00,2021-07-24T13:24:10,Saturday,2.48,797,12th Ave S 57th St - 45th St,26.0,39.0,93.0,93.0,93.0,74.5,55.12,6.3,232.0,0.0,,,9.9,24.9,1014.5,Clear
2021-07-24 13:00:00,2021-07-24T13:24:10,Saturday,10.56,575,12th ave @ 45th - 11 ave ganservoort st,26.0,39.0,93.0,93.0,93.0,74.5,55.12,6.3,232.0,0.0,,,9.9,24.9,1014.5,Clear
2021-07-24 13:00:00,2021-07-24T13:24:10,Saturday,0.0,0,11th ave s ganservoort - west st @ spring st,26.0,39.0,93.0,93.0,93.0,74.5,55.12,6.3,232.0,0.0,,,9.9,24.9,1014.5,Clear
2021-07-24 13:00:00,2021-07-24T13:24:10,Saturday,21.12,479,FDR N Catherine Slip - 25th St,26.0,39.0,93.0,93.0,93.0,74.5,55.12,6.3,232.0,0.0,,,9.9,24.9,1014.5,Clear
2021-07-24 13:00:00,2021-07-24T13:24:10,Saturday,21.12,321,FDR N 25th - 63rd St,26.0,39.0,93.0,93.0,93.0,74.5,55.12,6.3,232.0,0.0,,,9.9,24.9,1014.5,Clear
2021-07-24 13:00:00,2021-07-24T13:24:10,Saturday,31.68,215,FDR S 63rd - 25th St,26.0,39.0,93.0,93.0,93.0,74.5,55.12,6.3,232.0,0.0,,,9.9,24.9,1014.5,Clear
2021-07-24 13:00:00,2021-07-24T13:24:10,Saturday,31.68,320,FDR S 25th St - Catherine Slip,26.0,39.0,93.0,93.0,93.0,74.5,55.12,6.3,232.0,0.0,,,9.9,24.9,1014.5,Clear
2021-07-24 13:00:00,2021-07-24T13:24:10,Saturday,4.34,1119,11th ave n ganservoort - 12th ave @ 40th st,26.0,39.0,93.0,93.0,93.0,74.5,55.12,6.3,232.0,0.0,,,9.9,24.9,1014.5,Clear
2021-07-24 13:00:00,2021-07-24T13:24:10,Saturday,3.1,885,12th Ave N 40th - 57th St,26.0,39.0,93.0,93.0,93.0,74.5,55.12,6.3,232.0,0.0,,,9.9,24.9,1014.5,Clear
2021-07-24 13:00:00,2021-07-24T13:24:10,Saturday,31.68,83,FDR S Catherine Slip - BKN Bridge Manhattan Side,26.0,39.0,93.0,93.0,93.0,74.5,55.12,6.3,232.0,0.0,,,9.9,24.9,1014.5,Clear
2021-07-24 13:00:00,2021-07-24T13:24:10,Saturday,21.12,122,BKN Bridge Manhattan Side - FDR N Catherine Slip,26.0,39.0,93.0,93.0,93.0,74.5,55.12,6.3,232.0,0.0,,,9.9,24.9,1014.5,Clear
2021-07-24 13:00:00,2021-07-24T13:29:03,Saturday,15.53,319,LINCOLN TUNNEL W NORTH TUBE NY - NJ,26.0,39.0,93.0,93.0,93.0,74.5,55.12,6.3,232.0,0.0,,,9.9,24.9,1014.5,Clear
2021-07-24 13:00:00,2021-07-24T13:29:03,Saturday,35.41,66,FDR N - TBB E 116TH STREET - MANHATTAN TRUSS,26.0,39.0,93.0,93.0,93.0,74.5,55.12,6.3,232.0,0.0,,,9.9,24.9,1014.5,Clear
2021-07-24 13:00:00,2021-07-24T13:29:03,Saturday,41.01,172,BBT W Toll Plaza - Manhattan Portal,26.0,39.0,93.0,93.0,93.0,74.5,55.12,6.3,232.0,0.0,,,9.9,24.9,1014.5,Clear
2021-07-24 13:00:00,2021-07-24T13:29:03,Saturday,39.76,179,BBT E Manhattan Portal - Toll Plaza,26.0,39.0,93.0,93.0,93.0,74.5,55.12,6.3,232.0,0.0,,,9.9,24.9,1014.5,Clear
2021-07-24 13:00:00,2021-07-24T13:29:03,Saturday,32.93,165,QMT E Manhattan Side - Toll Plaza,26.0,39.0,93.0,93.0,93.0,74.5,55.12,6.3,232.0,0.0,,,9.9,24.9,1014.5,Clear
2021-07-24 13:00:00,2021-07-24T13:29:03,Saturday,23.61,314,GWB E LOWER LEVEL PLAZA - CBE E LOWER LEVEL AMSTERDAM AVE,26.0,39.0,93.0,93.0,93.0,74.5,55.12,6.3,232.0,0.0,,,9.9,24.9,1014.5,Clear
2021-07-24 13:00:00,2021-07-24T13:29:03,Saturday,8.69,2253,Westside Hwy N 57th St - GWB,26.0,39.0,93.0,93.0,93.0,74.5,55.12,6.3,232.0,0.0,,,9.9,24.9,1014.5,Clear
2021-07-24 13:00:00,2021-07-24T13:29:04,Saturday,21.74,111,TBB W - FDR S MANHATTAN TRUSS - E116TH STREET,26.0,39.0,93.0,93.0,93.0,74.5,55.12,6.3,232.0,0.0,,,9.9,24.9,1014.5,Clear
2021-07-24 13:00:00,2021-07-24T13:29:04,Saturday,15.53,456,BQE N Atlantic Ave - BKN Bridge Manhattan Side,26.0,39.0,93.0,93.0,93.0,74.5,55.12,6.3,232.0,0.0,,,9.9,24.9,1014.5,Clear
2021-07-24 13:00:00,2021-07-24T13:29:04,Saturday,23.61,401,BQE N Atlantic Ave - MAN Bridge Manhattan Side,26.0,39.0,93.0,93.0,93.0,74.5,55.12,6.3,232.0,0.0,,,9.9,24.9,1014.5,Clear
2021-07-24 13:00:00,2021-07-24T13:29:04,Saturday,48.46,409,Westside Hwy S GWB - 57th St,26.0,39.0,93.0,93.0,93.0,74.5,55.12,6.3,232.0,0.0,,,9.9,24.9,1014.5,Clear
2021-07-24 13:00:00,2021-07-24T13:29:05,Saturday,6.83,802,LINCOLN TUNNEL E SOUTH TUBE - NJ - NY,26.0,39.0,93.0,93.0,93.0,74.5,55.12,6.3,232.0,0.0,,,9.9,24.9,1014.5,Clear
2021-07-24 13:00:00,2021-07-24T13:29:05,Saturday,8.07,675,LINCOLN TUNNEL E CENTER TUBE NJ - NY,26.0,39.0,93.0,93.0,93.0,74.5,55.12,6.3,232.0,0.0,,,9.9,24.9,1014.5,Clear
2021-07-24 13:00:00,2021-07-24T13:29:05,Saturday,0.0,0,LINCOLN TUNNEL W CENTER TUBE NY - NJ,26.0,39.0,93.0,93.0,93.0,74.5,55.12,6.3,232.0,0.0,,,9.9,24.9,1014.5,Clear
2021-07-24 13:00:00,2021-07-24T13:29:05,Saturday,0.0,0,West St S Spring St - BBT Manhattan Portal outbound,26.0,39.0,93.0,93.0,93.0,74.5,55.12,6.3,232.0,0.0,,,9.9,24.9,1014.5,Clear
2021-07-24 13:00:00,2021-07-24T13:29:10,Saturday,2.48,747,12th Ave S 57th St - 45th St,26.0,39.0,93.0,93.0,93.0,74.5,55.12,6.3,232.0,0.0,,,9.9,24.9,1014.5,Clear
2021-07-24 13:00:00,2021-07-24T13:29:10,Saturday,7.45,844,12th ave @ 45th - 11 ave ganservoort st,26.0,39.0,93.0,93.0,93.0,74.5,55.12,6.3,232.0,0.0,,,9.9,24.9,1014.5,Clear
2021-07-24 13:00:00,2021-07-24T13:29:10,Saturday,0.0,0,11th ave s ganservoort - west st @ spring st,26.0,39.0,93.0,93.0,93.0,74.5,55.12,6.3,232.0,0.0,,,9.9,24.9,1014.5,Clear
2021-07-24 13:00:00,2021-07-24T13:29:10,Saturday,14.91,668,FDR N Catherine Slip - 25th St,26.0,39.0,93.0,93.0,93.0,74.5,55.12,6.3,232.0,0.0,,,9.9,24.9,1014.5,Clear
2021-07-24 13:00:00,2021-07-24T13:29:10,Saturday,14.91,449,FDR N 25th - 63rd St,26.0,39.0,93.0,93.0,93.0,74.5,55.12,6.3,232.0,0.0,,,9.9,24.9,1014.5,Clear
2021-07-24 13:00:00,2021-07-24T13:29:10,Saturday,37.28,184,FDR S 63rd - 25th St,26.0,39.0,93.0,93.0,93.0,74.5,55.12,6.3,232.0,0.0,,,9.9,24.9,1014.5,Clear
2021-07-24 13:00:00,2021-07-24T13:29:10,Saturday,37.28,275,FDR S 25th St - Catherine Slip,26.0,39.0,93.0,93.0,93.0,74.5,55.12,6.3,232.0,0.0,,,9.9,24.9,1014.5,Clear
2021-07-24 13:00:00,2021-07-24T13:29:10,Saturday,4.97,1003,11th ave n ganservoort - 12th ave @ 40th st,26.0,39.0,93.0,93.0,93.0,74.5,55.12,6.3,232.0,0.0,,,9.9,24.9,1014.5,Clear
2021-07-24 13:00:00,2021-07-24T13:29:10,Saturday,4.97,655,12th Ave N 40th - 57th St,26.0,39.0,93.0,93.0,93.0,74.5,55.12,6.3,232.0,0.0,,,9.9,24.9,1014.5,Clear
2021-07-24 13:00:00,2021-07-24T13:29:10,Saturday,37.28,71,FDR S Catherine Slip - BKN Bridge Manhattan Side,26.0,39.0,93.0,93.0,93.0,74.5,55.12,6.3,232.0,0.0,,,9.9,24.9,1014.5,Clear
2021-07-24 13:00:00,2021-07-24T13:29:10,Saturday,14.91,171,BKN Bridge Manhattan Side - FDR N Catherine Slip,26.0,39.0,93.0,93.0,93.0,74.5,55.12,6.3,232.0,0.0,,,9.9,24.9,1014.5,Clear
2021-07-24 13:00:00,2021-07-24T13:33:06,Saturday,6.83,776,LINCOLN TUNNEL E SOUTH TUBE - NJ - NY,26.0,39.0,93.0,93.0,93.0,74.5,55.12,6.3,232.0,0.0,,,9.9,24.9,1014.5,Clear
2021-07-24 13:00:00,2021-07-24T13:33:06,Saturday,7.45,703,LINCOLN TUNNEL E CENTER TUBE NJ - NY,26.0,39.0,93.0,93.0,93.0,74.5,55.12,6.3,232.0,0.0,,,9.9,24.9,1014.5,Clear
2021-07-24 13:00:00,2021-07-24T13:33:06,Saturday,0.0,0,LINCOLN TUNNEL W CENTER TUBE NY - NJ,26.0,39.0,93.0,93.0,93.0,74.5,55.12,6.3,232.0,0.0,,,9.9,24.9,1014.5,Clear
2021-07-24 13:00:00,2021-07-24T13:34:03,Saturday,15.53,321,LINCOLN TUNNEL W NORTH TUBE NY - NJ,26.0,39.0,93.0,93.0,93.0,74.5,55.12,6.3,232.0,0.0,,,9.9,24.9,1014.5,Clear
2021-07-24 13:00:00,2021-07-24T13:34:03,Saturday,36.03,66,FDR N - TBB E 116TH STREET - MANHATTAN TRUSS,26.0,39.0,93.0,93.0,93.0,74.5,55.12,6.3,232.0,0.0,,,9.9,24.9,1014.5,Clear
2021-07-24 13:00:00,2021-07-24T13:34:03,Saturday,41.01,174,BBT W Toll Plaza - Manhattan Portal,26.0,39.0,93.0,93.0,93.0,74.5,55.12,6.3,232.0,0.0,,,9.9,24.9,1014.5,Clear
2021-07-24 13:00:00,2021-07-24T13:34:03,Saturday,38.52,183,BBT E Manhattan Portal - Toll Plaza,26.0,39.0,93.0,93.0,93.0,74.5,55.12,6.3,232.0,0.0,,,9.9,24.9,1014.5,Clear
2021-07-24 13:00:00,2021-07-24T13:34:03,Saturday,33.55,163,QMT E Manhattan Side - Toll Plaza,26.0,39.0,93.0,93.0,93.0,74.5,55.12,6.3,232.0,0.0,,,9.9,24.9,1014.5,Clear
2021-07-24 13:00:00,2021-07-24T13:34:03,Saturday,20.5,360,GWB E LOWER LEVEL PLAZA - CBE E LOWER LEVEL AMSTERDAM AVE,26.0,39.0,93.0,93.0,93.0,74.5,55.12,6.3,232.0,0.0,,,9.9,24.9,1014.5,Clear
2021-07-24 13:00:00,2021-07-24T13:34:03,Saturday,8.69,2220,Westside Hwy N 57th St - GWB,26.0,39.0,93.0,93.0,93.0,74.5,55.12,6.3,232.0,0.0,,,9.9,24.9,1014.5,Clear
2021-07-24 13:00:00,2021-07-24T13:34:04,Saturday,22.99,105,TBB W - FDR S MANHATTAN TRUSS - E116TH STREET,26.0,39.0,93.0,93.0,93.0,74.5,55.12,6.3,232.0,0.0,,,9.9,24.9,1014.5,Clear
2021-07-24 13:00:00,2021-07-24T13:34:04,Saturday,0.0,0,West St S Spring St - BBT Manhattan Portal outbound,26.0,39.0,93.0,93.0,93.0,74.5,55.12,6.3,232.0,0.0,,,9.9,24.9,1014.5,Clear
2021-07-24 13:00:00,2021-07-24T13:34:04,Saturday,15.53,457,BQE N Atlantic Ave - BKN Bridge Manhattan Side,26.0,39.0,93.0,93.0,93.0,74.5,55.12,6.3,232.0,0.0,,,9.9,24.9,1014.5,Clear
2021-07-24 13:00:00,2021-07-24T13:34:04,Saturday,13.67,692,BQE N Atlantic Ave - MAN Bridge Manhattan Side,26.0,39.0,93.0,93.0,93.0,74.5,55.12,6.3,232.0,0.0,,,9.9,24.9,1014.5,Clear
2021-07-24 13:00:00,2021-07-24T13:34:04,Saturday,47.84,415,Westside Hwy S GWB - 57th St,26.0,39.0,93.0,93.0,93.0,74.5,55.12,6.3,232.0,0.0,,,9.9,24.9,1014.5,Clear
2021-07-24 13:00:00,2021-07-24T13:34:11,Saturday,2.48,832,12th Ave S 57th St - 45th St,26.0,39.0,93.0,93.0,93.0,74.5,55.12,6.3,232.0,0.0,,,9.9,24.9,1014.5,Clear
2021-07-24 13:00:00,2021-07-24T13:34:11,Saturday,5.59,1086,12th ave @ 45th - 11 ave ganservoort st,26.0,39.0,93.0,93.0,93.0,74.5,55.12,6.3,232.0,0.0,,,9.9,24.9,1014.5,Clear
2021-07-24 13:00:00,2021-07-24T13:34:11,Saturday,0.0,0,11th ave s ganservoort - west st @ spring st,26.0,39.0,93.0,93.0,93.0,74.5,55.12,6.3,232.0,0.0,,,9.9,24.9,1014.5,Clear
2021-07-24 13:00:00,2021-07-24T13:34:11,Saturday,23.61,427,FDR N Catherine Slip - 25th St,26.0,39.0,93.0,93.0,93.0,74.5,55.12,6.3,232.0,0.0,,,9.9,24.9,1014.5,Clear
2021-07-24 13:00:00,2021-07-24T13:34:11,Saturday,23.61,287,FDR N 25th - 63rd St,26.0,39.0,93.0,93.0,93.0,74.5,55.12,6.3,232.0,0.0,,,9.9,24.9,1014.5,Clear
2021-07-24 13:00:00,2021-07-24T13:34:11,Saturday,34.17,201,FDR S 63rd - 25th St,26.0,39.0,93.0,93.0,93.0,74.5,55.12,6.3,232.0,0.0,,,9.9,24.9,1014.5,Clear
2021-07-24 13:00:00,2021-07-24T13:34:11,Saturday,34.17,300,FDR S 25th St - Catherine Slip,26.0,39.0,93.0,93.0,93.0,74.5,55.12,6.3,232.0,0.0,,,9.9,24.9,1014.5,Clear
2021-07-24 13:00:00,2021-07-24T13:34:11,Saturday,3.72,1266,11th ave n ganservoort - 12th ave @ 40th st,26.0,39.0,93.0,93.0,93.0,74.5,55.12,6.3,232.0,0.0,,,9.9,24.9,1014.5,Clear
2021-07-24 13:00:00,2021-07-24T13:34:11,Saturday,3.72,766,12th Ave N 40th - 57th St,26.0,39.0,93.0,93.0,93.0,74.5,55.12,6.3,232.0,0.0,,,9.9,24.9,1014.5,Clear
2021-07-24 13:00:00,2021-07-24T13:34:11,Saturday,34.17,77,FDR S Catherine Slip - BKN Bridge Manhattan Side,26.0,39.0,93.0,93.0,93.0,74.5,55.12,6.3,232.0,0.0,,,9.9,24.9,1014.5,Clear
2021-07-24 13:00:00,2021-07-24T13:34:11,Saturday,23.61,109,BKN Bridge Manhattan Side - FDR N Catherine Slip,26.0,39.0,93.0,93.0,93.0,74.5,55.12,6.3,232.0,0.0,,,9.9,24.9,1014.5,Clear
2021-07-24 13:00:00,2021-07-24T13:38:03,Saturday,15.53,316,LINCOLN TUNNEL W NORTH TUBE NY - NJ,26.0,39.0,93.0,93.0,93.0,74.5,55.12,6.3,232.0,0.0,,,9.9,24.9,1014.5,Clear
2021-07-24 13:00:00,2021-07-24T13:38:07,Saturday,6.83,749,LINCOLN TUNNEL E SOUTH TUBE - NJ - NY,26.0,39.0,93.0,93.0,93.0,74.5,55.12,6.3,232.0,0.0,,,9.9,24.9,1014.5,Clear
2021-07-24 13:00:00,2021-07-24T13:38:07,Saturday,0.0,0,LINCOLN TUNNEL E CENTER TUBE NJ - NY,26.0,39.0,93.0,93.0,93.0,74.5,55.12,6.3,232.0,0.0,,,9.9,24.9,1014.5,Clear
2021-07-24 13:00:00,2021-07-24T13:38:07,Saturday,0.0,0,LINCOLN TUNNEL W CENTER TUBE NY - NJ,26.0,39.0,93.0,93.0,93.0,74.5,55.12,6.3,232.0,0.0,,,9.9,24.9,1014.5,Clear
2021-07-24 13:00:00,2021-07-24T13:39:03,Saturday,36.66,64,FDR N - TBB E 116TH STREET - MANHATTAN TRUSS,26.0,39.0,93.0,93.0,93.0,74.5,55.12,6.3,232.0,0.0,,,9.9,24.9,1014.5,Clear
2021-07-24 13:00:00,2021-07-24T13:39:03,Saturday,25.47,94,TBB W - FDR S MANHATTAN TRUSS - E116TH STREET,26.0,39.0,93.0,93.0,93.0,74.5,55.12,6.3,232.0,0.0,,,9.9,24.9,1014.5,Clear
2021-07-24 13:00:00,2021-07-24T13:39:03,Saturday,39.14,180,BBT W Toll Plaza - Manhattan Portal,26.0,39.0,93.0,93.0,93.0,74.5,55.12,6.3,232.0,0.0,,,9.9,24.9,1014.5,Clear
2021-07-24 13:00:00,2021-07-24T13:39:03,Saturday,37.9,186,BBT E Manhattan Portal - Toll Plaza,26.0,39.0,93.0,93.0,93.0,74.5,55.12,6.3,232.0,0.0,,,9.9,24.9,1014.5,Clear
2021-07-24 13:00:00,2021-07-24T13:39:03,Saturday,34.79,157,QMT E Manhattan Side - Toll Plaza,26.0,39.0,93.0,93.0,93.0,74.5,55.12,6.3,232.0,0.0,,,9.9,24.9,1014.5,Clear
2021-07-24 13:00:00,2021-07-24T13:39:03,Saturday,14.91,472,BQE N Atlantic Ave - BKN Bridge Manhattan Side,26.0,39.0,93.0,93.0,93.0,74.5,55.12,6.3,232.0,0.0,,,9.9,24.9,1014.5,Clear
2021-07-24 13:00:00,2021-07-24T13:39:03,Saturday,12.42,753,BQE N Atlantic Ave - MAN Bridge Manhattan Side,26.0,39.0,93.0,93.0,93.0,74.5,55.12,6.3,232.0,0.0,,,9.9,24.9,1014.5,Clear
2021-07-24 13:00:00,2021-07-24T13:39:03,Saturday,47.84,412,Westside Hwy S GWB - 57th St,26.0,39.0,93.0,93.0,93.0,74.5,55.12,6.3,232.0,0.0,,,9.9,24.9,1014.5,Clear
2021-07-24 13:00:00,2021-07-24T13:39:03,Saturday,18.64,391,GWB E LOWER LEVEL PLAZA - CBE E LOWER LEVEL AMSTERDAM AVE,26.0,39.0,93.0,93.0,93.0,74.5,55.12,6.3,232.0,0.0,,,9.9,24.9,1014.5,Clear
2021-07-24 13:00:00,2021-07-24T13:39:03,Saturday,9.32,2087,Westside Hwy N 57th St - GWB,26.0,39.0,93.0,93.0,93.0,74.5,55.12,6.3,232.0,0.0,,,9.9,24.9,1014.5,Clear
2021-07-24 13:00:00,2021-07-24T13:39:05,Saturday,0.0,0,West St S Spring St - BBT Manhattan Portal outbound,26.0,39.0,93.0,93.0,93.0,74.5,55.12,6.3,232.0,0.0,,,9.9,24.9,1014.5,Clear
2021-07-24 13:00:00,2021-07-24T13:39:10,Saturday,2.48,813,12th Ave S 57th St - 45th St,26.0,39.0,93.0,93.0,93.0,74.5,55.12,6.3,232.0,0.0,,,9.9,24.9,1014.5,Clear
2021-07-24 13:00:00,2021-07-24T13:39:10,Saturday,6.21,972,12th ave @ 45th - 11 ave ganservoort st,26.0,39.0,93.0,93.0,93.0,74.5,55.12,6.3,232.0,0.0,,,9.9,24.9,1014.5,Clear
2021-07-24 13:00:00,2021-07-24T13:39:10,Saturday,0.0,0,11th ave s ganservoort - west st @ spring st,26.0,39.0,93.0,93.0,93.0,74.5,55.12,6.3,232.0,0.0,,,9.9,24.9,1014.5,Clear
2021-07-24 13:00:00,2021-07-24T13:39:10,Saturday,19.26,520,FDR N Catherine Slip - 25th St,26.0,39.0,93.0,93.0,93.0,74.5,55.12,6.3,232.0,0.0,,,9.9,24.9,1014.5,Clear
2021-07-24 13:00:00,2021-07-24T13:39:10,Saturday,19.26,349,FDR N 25th - 63rd St,26.0,39.0,93.0,93.0,93.0,74.5,55.12,6.3,232.0,0.0,,,9.9,24.9,1014.5,Clear
2021-07-24 13:00:00,2021-07-24T13:39:10,Saturday,31.06,220,FDR S 63rd - 25th St,26.0,39.0,93.0,93.0,93.0,74.5,55.12,6.3,232.0,0.0,,,9.9,24.9,1014.5,Clear
2021-07-24 13:00:00,2021-07-24T13:39:10,Saturday,31.06,327,FDR S 25th St - Catherine Slip,26.0,39.0,93.0,93.0,93.0,74.5,55.12,6.3,232.0,0.0,,,9.9,24.9,1014.5,Clear
2021-07-24 13:00:00,2021-07-24T13:39:10,Saturday,3.1,1596,11th ave n ganservoort - 12th ave @ 40th st,26.0,39.0,93.0,93.0,93.0,74.5,55.12,6.3,232.0,0.0,,,9.9,24.9,1014.5,Clear
2021-07-24 13:00:00,2021-07-24T13:39:10,Saturday,3.1,966,12th Ave N 40th - 57th St,26.0,39.0,93.0,93.0,93.0,74.5,55.12,6.3,232.0,0.0,,,9.9,24.9,1014.5,Clear
2021-07-24 13:00:00,2021-07-24T13:39:10,Saturday,31.06,85,FDR S Catherine Slip - BKN Bridge Manhattan Side,26.0,39.0,93.0,93.0,93.0,74.5,55.12,6.3,232.0,0.0,,,9.9,24.9,1014.5,Clear
2021-07-24 13:00:00,2021-07-24T13:39:10,Saturday,19.26,133,BKN Bridge Manhattan Side - FDR N Catherine Slip,26.0,39.0,93.0,93.0,93.0,74.5,55.12,6.3,232.0,0.0,,,9.9,24.9,1014.5,Clear
2021-07-24 13:00:00,2021-07-24T13:43:07,Saturday,6.83,760,LINCOLN TUNNEL E SOUTH TUBE - NJ - NY,26.0,39.0,93.0,93.0,93.0,74.5,55.12,6.3,232.0,0.0,,,9.9,24.9,1014.5,Clear
2021-07-24 13:00:00,2021-07-24T13:43:07,Saturday,0.0,0,LINCOLN TUNNEL E CENTER TUBE NJ - NY,26.0,39.0,93.0,93.0,93.0,74.5,55.12,6.3,232.0,0.0,,,9.9,24.9,1014.5,Clear
2021-07-24 13:00:00,2021-07-24T13:43:07,Saturday,0.0,0,LINCOLN TUNNEL W CENTER TUBE NY - NJ,26.0,39.0,93.0,93.0,93.0,74.5,55.12,6.3,232.0,0.0,,,9.9,24.9,1014.5,Clear
2021-07-24 13:00:00,2021-07-24T13:44:02,Saturday,36.03,65,FDR N - TBB E 116TH STREET - MANHATTAN TRUSS,26.0,39.0,93.0,93.0,93.0,74.5,55.12,6.3,232.0,0.0,,,9.9,24.9,1014.5,Clear
2021-07-24 13:00:00,2021-07-24T13:44:02,Saturday,39.76,179,BBT W Toll Plaza - Manhattan Portal,26.0,39.0,93.0,93.0,93.0,74.5,55.12,6.3,232.0,0.0,,,9.9,24.9,1014.5,Clear
2021-07-24 13:00:00,2021-07-24T13:44:02,Saturday,38.52,185,BBT E Manhattan Portal - Toll Plaza,26.0,39.0,93.0,93.0,93.0,74.5,55.12,6.3,232.0,0.0,,,9.9,24.9,1014.5,Clear
2021-07-24 13:00:00,2021-07-24T13:44:02,Saturday,34.79,157,QMT E Manhattan Side - Toll Plaza,26.0,39.0,93.0,93.0,93.0,74.5,55.12,6.3,232.0,0.0,,,9.9,24.9,1014.5,Clear
2021-07-24 13:00:00,2021-07-24T13:44:03,Saturday,16.15,304,LINCOLN TUNNEL W NORTH TUBE NY - NJ,26.0,39.0,93.0,93.0,93.0,74.5,55.12,6.3,232.0,0.0,,,9.9,24.9,1014.5,Clear
2021-07-24 13:00:00,2021-07-24T13:44:03,Saturday,21.12,114,TBB W - FDR S MANHATTAN TRUSS - E116TH STREET,26.0,39.0,93.0,93.0,93.0,74.5,55.12,6.3,232.0,0.0,,,9.9,24.9,1014.5,Clear
2021-07-24 13:00:00,2021-07-24T13:44:03,Saturday,15.53,460,BQE N Atlantic Ave - BKN Bridge Manhattan Side,26.0,39.0,93.0,93.0,93.0,74.5,55.12,6.3,232.0,0.0,,,9.9,24.9,1014.5,Clear
2021-07-24 13:00:00,2021-07-24T13:44:03,Saturday,16.15,579,BQE N Atlantic Ave - MAN Bridge Manhattan Side,26.0,39.0,93.0,93.0,93.0,74.5,55.12,6.3,232.0,0.0,,,9.9,24.9,1014.5,Clear
2021-07-24 13:00:00,2021-07-24T13:44:03,Saturday,48.46,406,Westside Hwy S GWB - 57th St,26.0,39.0,93.0,93.0,93.0,74.5,55.12,6.3,232.0,0.0,,,9.9,24.9,1014.5,Clear
2021-07-24 13:00:00,2021-07-24T13:44:03,Saturday,18.64,389,GWB E LOWER LEVEL PLAZA - CBE E LOWER LEVEL AMSTERDAM AVE,26.0,39.0,93.0,93.0,93.0,74.5,55.12,6.3,232.0,0.0,,,9.9,24.9,1014.5,Clear
2021-07-24 13:00:00,2021-07-24T13:44:03,Saturday,9.94,1977,Westside Hwy N 57th St - GWB,26.0,39.0,93.0,93.0,93.0,74.5,55.12,6.3,232.0,0.0,,,9.9,24.9,1014.5,Clear
2021-07-24 13:00:00,2021-07-24T13:44:04,Saturday,0.0,0,West St S Spring St - BBT Manhattan Portal outbound,26.0,39.0,93.0,93.0,93.0,74.5,55.12,6.3,232.0,0.0,,,9.9,24.9,1014.5,Clear
2021-07-24 13:00:00,2021-07-24T13:44:10,Saturday,2.48,903,12th Ave S 57th St - 45th St,26.0,39.0,93.0,93.0,93.0,74.5,55.12,6.3,232.0,0.0,,,9.9,24.9,1014.5,Clear
2021-07-24 13:00:00,2021-07-24T13:44:10,Saturday,6.83,904,12th ave @ 45th - 11 ave ganservoort st,26.0,39.0,93.0,93.0,93.0,74.5,55.12,6.3,232.0,0.0,,,9.9,24.9,1014.5,Clear
2021-07-24 13:00:00,2021-07-24T13:44:10,Saturday,0.0,0,11th ave s ganservoort - west st @ spring st,26.0,39.0,93.0,93.0,93.0,74.5,55.12,6.3,232.0,0.0,,,9.9,24.9,1014.5,Clear
2021-07-24 13:00:00,2021-07-24T13:44:10,Saturday,32.93,309,FDR N Catherine Slip - 25th St,26.0,39.0,93.0,93.0,93.0,74.5,55.12,6.3,232.0,0.0,,,9.9,24.9,1014.5,Clear
2021-07-24 13:00:00,2021-07-24T13:44:10,Saturday,32.93,207,FDR N 25th - 63rd St,26.0,39.0,93.0,93.0,93.0,74.5,55.12,6.3,232.0,0.0,,,9.9,24.9,1014.5,Clear
2021-07-24 13:00:00,2021-07-24T13:44:10,Saturday,34.79,196,FDR S 63rd - 25th St,26.0,39.0,93.0,93.0,93.0,74.5,55.12,6.3,232.0,0.0,,,9.9,24.9,1014.5,Clear
2021-07-24 13:00:00,2021-07-24T13:44:10,Saturday,34.79,293,FDR S 25th St - Catherine Slip,26.0,39.0,93.0,93.0,93.0,74.5,55.12,6.3,232.0,0.0,,,9.9,24.9,1014.5,Clear
2021-07-24 13:00:00,2021-07-24T13:44:10,Saturday,3.72,1353,11th ave n ganservoort - 12th ave @ 40th st,26.0,39.0,93.0,93.0,93.0,74.5,55.12,6.3,232.0,0.0,,,9.9,24.9,1014.5,Clear
2021-07-24 13:00:00,2021-07-24T13:44:10,Saturday,3.72,819,12th Ave N 40th - 57th St,26.0,39.0,93.0,93.0,93.0,74.5,55.12,6.3,232.0,0.0,,,9.9,24.9,1014.5,Clear
2021-07-24 13:00:00,2021-07-24T13:44:10,Saturday,34.79,76,FDR S Catherine Slip - BKN Bridge Manhattan Side,26.0,39.0,93.0,93.0,93.0,74.5,55.12,6.3,232.0,0.0,,,9.9,24.9,1014.5,Clear
2021-07-24 13:00:00,2021-07-24T13:44:10,Saturday,32.93,79,BKN Bridge Manhattan Side - FDR N Catherine Slip,26.0,39.0,93.0,93.0,93.0,74.5,55.12,6.3,232.0,0.0,,,9.9,24.9,1014.5,Clear
2021-07-24 13:00:00,2021-07-24T13:48:07,Saturday,6.83,795,LINCOLN TUNNEL E CENTER TUBE NJ - NY,26.0,39.0,93.0,93.0,93.0,74.5,55.12,6.3,232.0,0.0,,,9.9,24.9,1014.5,Clear
2021-07-24 13:00:00,2021-07-24T13:49:03,Saturday,36.03,65,FDR N - TBB E 116TH STREET - MANHATTAN TRUSS,26.0,39.0,93.0,93.0,93.0,74.5,55.12,6.3,232.0,0.0,,,9.9,24.9,1014.5,Clear
2021-07-24 13:00:00,2021-07-24T13:49:03,Saturday,39.76,179,BBT W Toll Plaza - Manhattan Portal,26.0,39.0,93.0,93.0,93.0,74.5,55.12,6.3,232.0,0.0,,,9.9,24.9,1014.5,Clear
2021-07-24 13:00:00,2021-07-24T13:49:03,Saturday,39.14,181,BBT E Manhattan Portal - Toll Plaza,26.0,39.0,93.0,93.0,93.0,74.5,55.12,6.3,232.0,0.0,,,9.9,24.9,1014.5,Clear
2021-07-24 13:00:00,2021-07-24T13:49:03,Saturday,34.17,160,QMT E Manhattan Side - Toll Plaza,26.0,39.0,93.0,93.0,93.0,74.5,55.12,6.3,232.0,0.0,,,9.9,24.9,1014.5,Clear
2021-07-24 13:00:00,2021-07-24T13:49:04,Saturday,15.53,321,LINCOLN TUNNEL W NORTH TUBE NY - NJ,26.0,39.0,93.0,93.0,93.0,74.5,55.12,6.3,232.0,0.0,,,9.9,24.9,1014.5,Clear
2021-07-24 13:00:00,2021-07-24T13:49:04,Saturday,19.26,124,TBB W - FDR S MANHATTAN TRUSS - E116TH STREET,26.0,39.0,93.0,93.0,93.0,74.5,55.12,6.3,232.0,0.0,,,9.9,24.9,1014.5,Clear
2021-07-24 13:00:00,2021-07-24T13:49:04,Saturday,16.77,417,BQE N Atlantic Ave - BKN Bridge Manhattan Side,26.0,39.0,93.0,93.0,93.0,74.5,55.12,6.3,232.0,0.0,,,9.9,24.9,1014.5,Clear
2021-07-24 13:00:00,2021-07-24T13:49:04,Saturday,20.5,467,BQE N Atlantic Ave - MAN Bridge Manhattan Side,26.0,39.0,93.0,93.0,93.0,74.5,55.12,6.3,232.0,0.0,,,9.9,24.9,1014.5,Clear
2021-07-24 13:00:00,2021-07-24T13:49:04,Saturday,49.08,402,Westside Hwy S GWB - 57th St,26.0,39.0,93.0,93.0,93.0,74.5,55.12,6.3,232.0,0.0,,,9.9,24.9,1014.5,Clear
2021-07-24 13:00:00,2021-07-24T13:49:04,Saturday,19.88,369,GWB E LOWER LEVEL PLAZA - CBE E LOWER LEVEL AMSTERDAM AVE,26.0,39.0,93.0,93.0,93.0,74.5,55.12,6.3,232.0,0.0,,,9.9,24.9,1014.5,Clear
2021-07-24 13:00:00,2021-07-24T13:49:04,Saturday,9.94,1953,Westside Hwy N 57th St - GWB,26.0,39.0,93.0,93.0,93.0,74.5,55.12,6.3,232.0,0.0,,,9.9,24.9,1014.5,Clear
2021-07-24 13:00:00,2021-07-24T13:49:05,Saturday,0.0,0,West St S Spring St - BBT Manhattan Portal outbound,26.0,39.0,93.0,93.0,93.0,74.5,55.12,6.3,232.0,0.0,,,9.9,24.9,1014.5,Clear
2021-07-24 13:00:00,2021-07-24T13:49:06,Saturday,6.21,862,LINCOLN TUNNEL E SOUTH TUBE - NJ - NY,26.0,39.0,93.0,93.0,93.0,74.5,55.12,6.3,232.0,0.0,,,9.9,24.9,1014.5,Clear
2021-07-24 13:00:00,2021-07-24T13:49:06,Saturday,0.0,0,LINCOLN TUNNEL W CENTER TUBE NY - NJ,26.0,39.0,93.0,93.0,93.0,74.5,55.12,6.3,232.0,0.0,,,9.9,24.9,1014.5,Clear
2021-07-24 13:00:00,2021-07-24T13:49:11,Saturday,2.48,894,12th Ave S 57th St - 45th St,26.0,39.0,93.0,93.0,93.0,74.5,55.12,6.3,232.0,0.0,,,9.9,24.9,1014.5,Clear
2021-07-24 13:00:00,2021-07-24T13:49:11,Saturday,5.59,1037,12th ave @ 45th - 11 ave ganservoort st,26.0,39.0,93.0,93.0,93.0,74.5,55.12,6.3,232.0,0.0,,,9.9,24.9,1014.5,Clear
2021-07-24 13:00:00,2021-07-24T13:49:11,Saturday,0.0,0,11th ave s ganservoort - west st @ spring st,26.0,39.0,93.0,93.0,93.0,74.5,55.12,6.3,232.0,0.0,,,9.9,24.9,1014.5,Clear
2021-07-24 13:00:00,2021-07-24T13:49:11,Saturday,2.48,3671,FDR N Catherine Slip - 25th St,26.0,39.0,93.0,93.0,93.0,74.5,55.12,6.3,232.0,0.0,,,9.9,24.9,1014.5,Clear
2021-07-24 13:00:00,2021-07-24T13:49:11,Saturday,2.48,2465,FDR N 25th - 63rd St,26.0,39.0,93.0,93.0,93.0,74.5,55.12,6.3,232.0,0.0,,,9.9,24.9,1014.5,Clear
2021-07-24 13:00:00,2021-07-24T13:49:11,Saturday,30.44,224,FDR S 63rd - 25th St,26.0,39.0,93.0,93.0,93.0,74.5,55.12,6.3,232.0,0.0,,,9.9,24.9,1014.5,Clear
2021-07-24 13:00:00,2021-07-24T13:49:11,Saturday,30.44,334,FDR S 25th St - Catherine Slip,26.0,39.0,93.0,93.0,93.0,74.5,55.12,6.3,232.0,0.0,,,9.9,24.9,1014.5,Clear
2021-07-24 13:00:00,2021-07-24T13:49:11,Saturday,4.34,1221,11th ave n ganservoort - 12th ave @ 40th st,26.0,39.0,93.0,93.0,93.0,74.5,55.12,6.3,232.0,0.0,,,9.9,24.9,1014.5,Clear
2021-07-24 13:00:00,2021-07-24T13:49:11,Saturday,4.34,739,12th Ave N 40th - 57th St,26.0,39.0,93.0,93.0,93.0,74.5,55.12,6.3,232.0,0.0,,,9.9,24.9,1014.5,Clear
2021-07-24 13:00:00,2021-07-24T13:49:11,Saturday,30.44,86,FDR S Catherine Slip - BKN Bridge Manhattan Side,26.0,39.0,93.0,93.0,93.0,74.5,55.12,6.3,232.0,0.0,,,9.9,24.9,1014.5,Clear
2021-07-24 13:00:00,2021-07-24T13:49:11,Saturday,27.34,94,BKN Bridge Manhattan Side - FDR N Catherine Slip,26.0,39.0,93.0,93.0,93.0,74.5,55.12,6.3,232.0,0.0,,,9.9,24.9,1014.5,Clear
2021-07-24 13:00:00,2021-07-24T13:53:07,Saturday,6.21,852,LINCOLN TUNNEL E SOUTH TUBE - NJ - NY,26.0,39.0,93.0,93.0,93.0,74.5,55.12,6.3,232.0,0.0,,,9.9,24.9,1014.5,Clear
2021-07-24 13:00:00,2021-07-24T13:53:07,Saturday,6.83,755,LINCOLN TUNNEL E CENTER TUBE NJ - NY,26.0,39.0,93.0,93.0,93.0,74.5,55.12,6.3,232.0,0.0,,,9.9,24.9,1014.5,Clear
2021-07-24 13:00:00,2021-07-24T13:53:07,Saturday,0.0,0,LINCOLN TUNNEL W CENTER TUBE NY - NJ,26.0,39.0,93.0,93.0,93.0,74.5,55.12,6.3,232.0,0.0,,,9.9,24.9,1014.5,Clear
2021-07-24 13:00:00,2021-07-24T13:54:03,Saturday,39.14,182,BBT W Toll Plaza - Manhattan Portal,26.0,39.0,93.0,93.0,93.0,74.5,55.12,6.3,232.0,0.0,,,9.9,24.9,1014.5,Clear
2021-07-24 13:00:00,2021-07-24T13:54:03,Saturday,15.53,322,LINCOLN TUNNEL W NORTH TUBE NY - NJ,26.0,39.0,93.0,93.0,93.0,74.5,55.12,6.3,232.0,0.0,,,9.9,24.9,1014.5,Clear
2021-07-24 13:00:00,2021-07-24T13:54:03,Saturday,36.66,64,FDR N - TBB E 116TH STREET - MANHATTAN TRUSS,26.0,39.0,93.0,93.0,93.0,74.5,55.12,6.3,232.0,0.0,,,9.9,24.9,1014.5,Clear
2021-07-24 13:00:00,2021-07-24T13:54:03,Saturday,37.9,186,BBT E Manhattan Portal - Toll Plaza,26.0,39.0,93.0,93.0,93.0,74.5,55.12,6.3,232.0,0.0,,,9.9,24.9,1014.5,Clear
2021-07-24 13:00:00,2021-07-24T13:54:03,Saturday,32.93,167,QMT E Manhattan Side - Toll Plaza,26.0,39.0,93.0,93.0,93.0,74.5,55.12,6.3,232.0,0.0,,,9.9,24.9,1014.5,Clear
2021-07-24 13:00:00,2021-07-24T13:54:03,Saturday,18.64,389,GWB E LOWER LEVEL PLAZA - CBE E LOWER LEVEL AMSTERDAM AVE,26.0,39.0,93.0,93.0,93.0,74.5,55.12,6.3,232.0,0.0,,,9.9,24.9,1014.5,Clear
2021-07-24 13:00:00,2021-07-24T13:54:03,Saturday,11.18,1693,Westside Hwy N 57th St - GWB,26.0,39.0,93.0,93.0,93.0,74.5,55.12,6.3,232.0,0.0,,,9.9,24.9,1014.5,Clear
2021-07-24 13:00:00,2021-07-24T13:54:04,Saturday,18.64,126,TBB W - FDR S MANHATTAN TRUSS - E116TH STREET,26.0,39.0,93.0,93.0,93.0,74.5,55.12,6.3,232.0,0.0,,,9.9,24.9,1014.5,Clear
2021-07-24 13:00:00,2021-07-24T13:54:04,Saturday,0.0,0,West St S Spring St - BBT Manhattan Portal outbound,26.0,39.0,93.0,93.0,93.0,74.5,55.12,6.3,232.0,0.0,,,9.9,24.9,1014.5,Clear
2021-07-24 13:00:00,2021-07-24T13:54:04,Saturday,16.15,436,BQE N Atlantic Ave - BKN Bridge Manhattan Side,26.0,39.0,93.0,93.0,93.0,74.5,55.12,6.3,232.0,0.0,,,9.9,24.9,1014.5,Clear
2021-07-24 13:00:00,2021-07-24T13:54:04,Saturday,22.36,432,BQE N Atlantic Ave - MAN Bridge Manhattan Side,26.0,39.0,93.0,93.0,93.0,74.5,55.12,6.3,232.0,0.0,,,9.9,24.9,1014.5,Clear
2021-07-24 13:00:00,2021-07-24T13:54:04,Saturday,46.6,425,Westside Hwy S GWB - 57th St,26.0,39.0,93.0,93.0,93.0,74.5,55.12,6.3,232.0,0.0,,,9.9,24.9,1014.5,Clear
2021-07-24 13:00:00,2021-07-24T13:54:10,Saturday,2.48,899,12th Ave S 57th St - 45th St,26.0,39.0,93.0,93.0,93.0,74.5,55.12,6.3,232.0,0.0,,,9.9,24.9,1014.5,Clear
2021-07-24 13:00:00,2021-07-24T13:54:10,Saturday,2.48,2537,12th ave @ 45th - 11 ave ganservoort st,26.0,39.0,93.0,93.0,93.0,74.5,55.12,6.3,232.0,0.0,,,9.9,24.9,1014.5,Clear
2021-07-24 13:00:00,2021-07-24T13:54:10,Saturday,0.0,0,11th ave s ganservoort - west st @ spring st,26.0,39.0,93.0,93.0,93.0,74.5,55.12,6.3,232.0,0.0,,,9.9,24.9,1014.5,Clear
2021-07-24 13:00:00,2021-07-24T13:54:10,Saturday,2.48,4059,FDR N Catherine Slip - 25th St,26.0,39.0,93.0,93.0,93.0,74.5,55.12,6.3,232.0,0.0,,,9.9,24.9,1014.5,Clear
2021-07-24 13:00:00,2021-07-24T13:54:10,Saturday,2.48,2726,FDR N 25th - 63rd St,26.0,39.0,93.0,93.0,93.0,74.5,55.12,6.3,232.0,0.0,,,9.9,24.9,1014.5,Clear
2021-07-24 13:00:00,2021-07-24T13:54:10,Saturday,28.58,238,FDR S 63rd - 25th St,26.0,39.0,93.0,93.0,93.0,74.5,55.12,6.3,232.0,0.0,,,9.9,24.9,1014.5,Clear
2021-07-24 13:00:00,2021-07-24T13:54:10,Saturday,28.58,354,FDR S 25th St - Catherine Slip,26.0,39.0,93.0,93.0,93.0,74.5,55.12,6.3,232.0,0.0,,,9.9,24.9,1014.5,Clear
2021-07-24 13:00:00,2021-07-24T13:54:10,Saturday,2.48,1868,11th ave n ganservoort - 12th ave @ 40th st,26.0,39.0,93.0,93.0,93.0,74.5,55.12,6.3,232.0,0.0,,,9.9,24.9,1014.5,Clear
2021-07-24 13:00:00,2021-07-24T13:54:10,Saturday,2.48,1130,12th Ave N 40th - 57th St,26.0,39.0,93.0,93.0,93.0,74.5,55.12,6.3,232.0,0.0,,,9.9,24.9,1014.5,Clear
2021-07-24 13:00:00,2021-07-24T13:54:10,Saturday,28.58,92,FDR S Catherine Slip - BKN Bridge Manhattan Side,26.0,39.0,93.0,93.0,93.0,74.5,55.12,6.3,232.0,0.0,,,9.9,24.9,1014.5,Clear
2021-07-24 13:00:00,2021-07-24T13:54:10,Saturday,20.5,127,BKN Bridge Manhattan Side - FDR N Catherine Slip,26.0,39.0,93.0,93.0,93.0,74.5,55.12,6.3,232.0,0.0,,,9.9,24.9,1014.5,Clear
2021-07-24 13:00:00,2021-07-24T13:59:03,Saturday,15.53,314,LINCOLN TUNNEL W NORTH TUBE NY - NJ,26.0,39.0,93.0,93.0,93.0,74.5,55.12,6.3,232.0,0.0,,,9.9,24.9,1014.5,Clear
2021-07-24 13:00:00,2021-07-24T13:59:03,Saturday,37.28,63,FDR N - TBB E 116TH STREET - MANHATTAN TRUSS,26.0,39.0,93.0,93.0,93.0,74.5,55.12,6.3,232.0,0.0,,,9.9,24.9,1014.5,Clear
2021-07-24 13:00:00,2021-07-24T13:59:03,Saturday,32.93,165,QMT E Manhattan Side - Toll Plaza,26.0,39.0,93.0,93.0,93.0,74.5,55.12,6.3,232.0,0.0,,,9.9,24.9,1014.5,Clear
2021-07-24 13:00:00,2021-07-24T13:59:03,Saturday,22.99,104,TBB W - FDR S MANHATTAN TRUSS - E116TH STREET,26.0,39.0,93.0,93.0,93.0,74.5,55.12,6.3,232.0,0.0,,,9.9,24.9,1014.5,Clear
2021-07-24 13:00:00,2021-07-24T13:59:03,Saturday,39.14,181,BBT W Toll Plaza - Manhattan Portal,26.0,39.0,93.0,93.0,93.0,74.5,55.12,6.3,232.0,0.0,,,9.9,24.9,1014.5,Clear
2021-07-24 13:00:00,2021-07-24T13:59:03,Saturday,37.9,188,BBT E Manhattan Portal - Toll Plaza,26.0,39.0,93.0,93.0,93.0,74.5,55.12,6.3,232.0,0.0,,,9.9,24.9,1014.5,Clear
2021-07-24 13:00:00,2021-07-24T13:59:03,Saturday,14.29,495,BQE N Atlantic Ave - BKN Bridge Manhattan Side,26.0,39.0,93.0,93.0,93.0,74.5,55.12,6.3,232.0,0.0,,,9.9,24.9,1014.5,Clear
2021-07-24 13:00:00,2021-07-24T13:59:03,Saturday,21.12,446,BQE N Atlantic Ave - MAN Bridge Manhattan Side,26.0,39.0,93.0,93.0,93.0,74.5,55.12,6.3,232.0,0.0,,,9.9,24.9,1014.5,Clear
2021-07-24 13:00:00,2021-07-24T13:59:03,Saturday,45.36,436,Westside Hwy S GWB - 57th St,26.0,39.0,93.0,93.0,93.0,74.5,55.12,6.3,232.0,0.0,,,9.9,24.9,1014.5,Clear
2021-07-24 13:00:00,2021-07-24T13:59:03,Saturday,21.74,338,GWB E LOWER LEVEL PLAZA - CBE E LOWER LEVEL AMSTERDAM AVE,26.0,39.0,93.0,93.0,93.0,74.5,55.12,6.3,232.0,0.0,,,9.9,24.9,1014.5,Clear
2021-07-24 13:00:00,2021-07-24T13:59:03,Saturday,13.04,1519,Westside Hwy N 57th St - GWB,26.0,39.0,93.0,93.0,93.0,74.5,55.12,6.3,232.0,0.0,,,9.9,24.9,1014.5,Clear
2021-07-24 13:00:00,2021-07-24T13:59:05,Saturday,5.59,898,LINCOLN TUNNEL E SOUTH TUBE - NJ - NY,26.0,39.0,93.0,93.0,93.0,74.5,55.12,6.3,232.0,0.0,,,9.9,24.9,1014.5,Clear
2021-07-24 13:00:00,2021-07-24T13:59:05,Saturday,0.0,0,LINCOLN TUNNEL E CENTER TUBE NJ - NY,26.0,39.0,93.0,93.0,93.0,74.5,55.12,6.3,232.0,0.0,,,9.9,24.9,1014.5,Clear
2021-07-24 13:00:00,2021-07-24T13:59:05,Saturday,0.0,0,LINCOLN TUNNEL W CENTER TUBE NY - NJ,26.0,39.0,93.0,93.0,93.0,74.5,55.12,6.3,232.0,0.0,,,9.9,24.9,1014.5,Clear
2021-07-24 13:00:00,2021-07-24T13:59:05,Saturday,0.0,0,West St S Spring St - BBT Manhattan Portal outbound,26.0,39.0,93.0,93.0,93.0,74.5,55.12,6.3,232.0,0.0,,,9.9,24.9,1014.5,Clear
2021-07-24 13:00:00,2021-07-24T13:59:11,Saturday,2.48,857,12th Ave S 57th St - 45th St,26.0,39.0,93.0,93.0,93.0,74.5,55.12,6.3,232.0,0.0,,,9.9,24.9,1014.5,Clear
2021-07-24 13:00:00,2021-07-24T13:59:11,Saturday,2.48,2232,12th ave @ 45th - 11 ave ganservoort st,26.0,39.0,93.0,93.0,93.0,74.5,55.12,6.3,232.0,0.0,,,9.9,24.9,1014.5,Clear
2021-07-24 13:00:00,2021-07-24T13:59:11,Saturday,0.0,0,11th ave s ganservoort - west st @ spring st,26.0,39.0,93.0,93.0,93.0,74.5,55.12,6.3,232.0,0.0,,,9.9,24.9,1014.5,Clear
2021-07-24 13:00:00,2021-07-24T13:59:11,Saturday,9.94,998,FDR N Catherine Slip - 25th St,26.0,39.0,93.0,93.0,93.0,74.5,55.12,6.3,232.0,0.0,,,9.9,24.9,1014.5,Clear
2021-07-24 13:00:00,2021-07-24T13:59:11,Saturday,9.94,670,FDR N 25th - 63rd St,26.0,39.0,93.0,93.0,93.0,74.5,55.12,6.3,232.0,0.0,,,9.9,24.9,1014.5,Clear
2021-07-24 13:00:00,2021-07-24T13:59:11,Saturday,16.15,421,FDR S 63rd - 25th St,26.0,39.0,93.0,93.0,93.0,74.5,55.12,6.3,232.0,0.0,,,9.9,24.9,1014.5,Clear
2021-07-24 13:00:00,2021-07-24T13:59:11,Saturday,16.15,627,FDR S 25th St - Catherine Slip,26.0,39.0,93.0,93.0,93.0,74.5,55.12,6.3,232.0,0.0,,,9.9,24.9,1014.5,Clear
2021-07-24 13:00:00,2021-07-24T13:59:11,Saturday,3.72,1302,11th ave n ganservoort - 12th ave @ 40th st,26.0,39.0,93.0,93.0,93.0,74.5,55.12,6.3,232.0,0.0,,,9.9,24.9,1014.5,Clear
2021-07-24 13:00:00,2021-07-24T13:59:11,Saturday,3.72,788,12th Ave N 40th - 57th St,26.0,39.0,93.0,93.0,93.0,74.5,55.12,6.3,232.0,0.0,,,9.9,24.9,1014.5,Clear
2021-07-24 13:00:00,2021-07-24T13:59:11,Saturday,16.15,162,FDR S Catherine Slip - BKN Bridge Manhattan Side,26.0,39.0,93.0,93.0,93.0,74.5,55.12,6.3,232.0,0.0,,,9.9,24.9,1014.5,Clear
2021-07-24 13:00:00,2021-07-24T13:59:11,Saturday,9.94,255,BKN Bridge Manhattan Side - FDR N Catherine Slip,26.0,39.0,93.0,93.0,93.0,74.5,55.12,6.3,232.0,0.0,,,9.9,24.9,1014.5,Clear
