datetime,Minimum Temperature,Maximum Temperature,Temperature,Dew Point,Relative Humidity,Wind Speed,Wind Direction,Precipitation,Precipitation Cover,Snow Depth,Visibility,Cloud Cover,Sea Level Pressure,Conditions
2021-04-01T00:00:00,35.9,35.9,35.9,17.1,46.03,2.0,359.0,0.0,,0.0,9.9,0.0,1033.9,Clear
2021-04-01T01:00:00,29.8,29.8,29.8,17.6,60.12,1.2,8.0,0.0,,0.0,9.9,0.0,1034.5,Clear
2021-04-01T02:00:00,29.7,29.7,29.7,17.3,59.48,0.8,0.0,0.0,,0.0,9.9,0.0,1034.4,Clear
2021-04-01T03:00:00,28.2,28.2,28.2,18.5,66.54,1.9,20.0,0.0,,0.0,9.9,0.0,1034.4,Clear
2021-04-01T04:00:00,26.7,26.7,26.7,17.1,66.88,0.7,340.0,0.0,,0.0,9.9,0.0,1034.6,Clear
2021-04-01T05:00:00,25.1,25.1,25.1,17.2,71.63,0.8,342.0,0.0,,0.0,9.9,0.0,1034.8,Clear
2021-04-01T06:00:00,23.5,23.5,23.5,17.9,78.6,0.5,0.0,0.0,,0.0,9.9,0.0,1034.9,Clear
2021-04-01T07:00:00,22.1,22.1,22.1,17.9,83.35,1.3,20.0,0.0,,0.0,9.9,0.0,1035.6,Clear
2021-04-01T08:00:00,25.6,25.6,25.6,19.1,76.32,0.9,7.0,0.0,,0.0,9.9,0.0,1035.9,Clear
2021-04-01T09:00:00,33.4,33.4,33.4,22.4,63.68,1.8,66.0,0.0,,0.0,9.9,0.0,1036.1,Clear
2021-04-01T10:00:00,41.2,41.2,41.2,18.3,39.36,7.1,110.0,0.0,,0.0,9.9,0.0,1035.9,Clear
2021-04-01T11:00:00,46.1,46.1,46.1,17.7,31.79,8.8,130.0,0.0,,0.0,9.9,0.0,1035.6,Clear
2021-04-01T12:00:00,50.1,50.1,50.1,17.7,27.34,6.9,147.0,0.0,,0.0,9.9,0.0,1035.3,Clear
2021-04-01T13:00:00,53.4,53.4,53.4,17.1,23.62,7.2,183.0,0.0,,0.0,9.9,0.0,1034.4,Clear
2021-04-01T14:00:00,56.4,56.4,56.4,18.2,22.19,7.5,185.0,0.0,,0.0,9.9,0.0,1033.1,Clear
2021-04-01T15:00:00,58.2,58.2,58.2,19.5,22.06,7.8,173.0,0.0,,0.0,9.9,0.0,1031.7,Clear
2021-04-01T16:00:00,59.2,59.2,59.2,19.4,21.15,10.8,175.0,0.0,,0.0,9.9,0.0,1030.5,Clear
2021-04-01T17:00:00,59.4,59.4,59.4,19.4,20.93,11.7,150.0,0.0,,0.0,7.3,0.0,1029.3,Clear
2021-04-01T18:00:00,57.7,57.7,57.7,19.6,22.54,12.3,157.0,0.0,,0.0,6.0,39.5,1028.6,Partially cloudy
2021-04-01T19:00:00,55.5,55.5,55.5,20.2,24.97,12.4,150.0,0.0,,0.0,6.4,39.5,1028.3,Partially cloudy
2021-04-01T20:00:00,51.5,51.5,51.5,20.4,29.09,8.9,140.0,0.0,,0.0,8.4,51.8,1028.1,Partially cloudy
2021-04-01T21:00:00,48.4,48.4,48.4,20.3,32.52,12.3,141.0,0.0,,0.0,7.4,61.2,1027.9,Partially cloudy
2021-04-01T22:00:00,46.6,46.6,46.6,20.7,35.52,12.1,147.0,0.0,,0.0,7.5,19.8,1027.7,Clear
2021-04-01T23:00:00,45.5,45.5,45.5,21.4,38.13,11.3,157.0,0.0,,0.0,7.7,0.0,1027.0,Clear
2021-04-02T00:00:00,44.8,44.8,44.8,21.5,39.26,11.6,155.0,0.0,,0.0,8.7,0.0,1026.5,Clear
2021-04-02T01:00:00,43.8,43.8,43.8,21.5,40.81,10.7,160.0,0.0,,0.0,8.3,0.0,1026.3,Clear
2021-04-02T02:00:00,42.5,42.5,42.5,21.0,41.91,10.3,165.0,0.0,,0.0,9.9,0.0,1026.3,Clear
2021-04-02T03:00:00,41.4,41.4,41.4,21.0,43.79,8.3,172.0,0.0,,0.0,9.9,0.0,1025.9,Clear
2021-04-02T04:00:00,39.3,39.3,39.3,21.0,47.43,6.4,188.0,0.0,,0.0,9.9,0.0,1025.5,Clear
2021-04-02T05:00:00,40.2,40.2,40.2,20.8,45.58,8.1,175.0,0.0,,0.0,9.9,0.0,1025.2,Clear
2021-04-02T06:00:00,40.1,40.1,40.1,20.8,45.65,10.4,175.0,0.0,,0.0,9.9,0.0,1024.9,Clear
2021-04-02T07:00:00,40.8,40.8,40.8,19.8,42.58,11.0,181.0,0.0,,0.0,9.9,0.0,1024.9,Clear
2021-04-02T08:00:00,42.4,42.4,42.4,20.3,40.89,12.0,175.0,0.0,,0.0,9.9,0.0,1024.6,Clear
2021-04-02T09:00:00,47.7,47.7,47.7,21.3,34.91,17.0,187.0,0.0,,0.0,9.9,0.0,1024.2,Clear
2021-04-02T10:00:00,53.6,53.6,53.6,23.5,30.82,18.9,200.0,0.0,,0.0,9.9,0.0,1023.6,Clear
2021-04-02T11:00:00,60.9,60.9,60.9,27.2,27.64,20.7,207.0,0.0,,0.0,9.9,0.0,1023.2,Clear
2021-04-02T12:00:00,64.0,64.0,64.0,29.3,26.88,20.5,198.0,0.0,,0.0,9.9,0.0,1022.7,Clear
2021-04-02T13:00:00,69.1,69.1,69.1,30.4,23.64,24.4,207.0,0.0,,0.0,9.9,0.0,1021.3,Clear
2021-04-02T14:00:00,71.6,71.6,71.6,30.5,21.77,22.4,197.0,0.0,,0.0,9.9,0.0,1020.4,Clear
2021-04-02T15:00:00,72.3,72.3,72.3,31.0,21.73,23.8,211.0,0.0,,0.0,9.9,0.0,1019.7,Clear
2021-04-02T16:00:00,72.9,72.9,72.9,31.9,22.06,22.8,211.0,0.0,,0.0,9.9,0.0,1019.0,Clear
2021-04-02T17:00:00,72.5,72.5,72.5,32.5,22.93,19.6,201.0,0.0,,0.0,9.9,0.0,1018.6,Clear
2021-04-02T18:00:00,70.5,70.5,70.5,31.8,23.84,18.2,198.0,0.0,,0.0,9.9,0.0,1018.8,Clear
2021-04-02T19:00:00,68.0,68.0,68.0,32.4,26.61,19.2,207.0,0.0,,0.0,9.9,0.0,1018.8,Clear
2021-04-02T20:00:00,64.2,64.2,64.2,31.8,29.65,14.6,203.0,0.0,,0.0,9.9,0.0,1019.0,Clear
2021-04-02T21:00:00,60.7,60.7,60.7,32.4,34.36,11.7,205.0,0.0,,0.0,9.9,0.0,1019.6,Clear
2021-04-02T22:00:00,59.2,59.2,59.2,30.5,33.53,12.1,195.0,0.0,,0.0,9.9,0.0,1019.6,Clear
2021-04-02T23:00:00,57.6,57.6,57.6,29.9,34.62,13.4,195.0,0.0,,0.0,9.9,0.0,1019.3,Clear
2021-04-03T00:00:00,56.4,56.4,56.4,30.0,36.31,13.9,199.0,0.0,,0.0,9.9,0.0,1019.0,Clear
2021-04-03T01:00:00,54.7,54.7,54.7,30.7,39.74,12.1,209.0,0.0,,0.0,9.9,0.0,1019.2,Clear
2021-04-03T02:00:00,53.2,53.2,53.2,31.2,42.93,12.3,210.0,0.0,,0.0,9.9,0.0,1019.3,Clear
2021-04-03T03:00:00,52.0,52.0,52.0,32.0,46.34,12.2,212.0,0.0,,0.0,9.9,0.0,1019.4,Clear
2021-04-03T04:00:00,50.1,50.1,50.1,32.7,50.99,9.6,213.0,0.0,,0.0,9.9,0.0,1019.7,Clear
2021-04-03T05:00:00,48.5,48.5,48.5,32.7,54.11,8.5,203.0,0.0,,0.0,9.9,0.0,1019.9,Clear
2021-04-03T06:00:00,47.7,47.7,47.7,33.4,57.46,8.3,213.0,0.0,,0.0,9.9,0.0,1020.2,Clear
2021-04-03T07:00:00,47.3,47.3,47.3,33.4,58.19,9.4,225.0,0.0,,0.0,9.9,0.0,1020.6,Clear
2021-04-03T08:00:00,48.6,48.6,48.6,33.9,56.56,7.8,214.0,0.0,,0.0,9.9,0.0,1021.0,Clear
2021-04-03T09:00:00,54.1,54.1,54.1,35.2,48.73,11.8,220.0,0.0,,0.0,9.9,0.0,1021.1,Clear
2021-04-03T10:00:00,58.5,58.5,58.5,35.3,41.67,14.8,220.0,0.0,,0.0,9.9,0.0,1021.1,Clear
2021-04-03T11:00:00,62.9,62.9,62.9,37.1,38.25,13.0,223.0,0.0,,0.0,9.9,0.0,1021.2,Clear
2021-04-03T12:00:00,66.7,66.7,66.7,37.7,34.44,10.6,231.0,0.0,,0.0,9.9,0.0,1020.9,Clear
2021-04-03T13:00:00,69.3,69.3,69.3,38.4,32.25,4.9,265.0,0.0,,0.0,9.9,0.0,1020.5,Clear
2021-04-03T14:00:00,72.2,72.2,72.2,38.9,29.84,5.3,233.0,0.0,,0.0,9.9,0.0,1020.1,Clear
2021-04-03T15:00:00,74.8,74.8,74.8,39.7,28.23,6.0,267.0,0.0,,0.0,9.9,0.0,1019.6,Clear
2021-04-03T16:00:00,76.2,76.2,76.2,41.0,28.35,5.6,271.0,0.0,,0.0,9.9,0.0,1019.1,Clear
2021-04-03T17:00:00,77.5,77.5,77.5,41.0,27.08,7.2,234.0,0.0,,0.0,9.9,0.0,1019.0,Clear
2021-04-03T18:00:00,77.0,77.0,77.0,42.8,29.52,6.5,205.0,0.0,,0.0,9.9,0.0,1019.0,Clear
2021-04-03T19:00:00,74.4,74.4,74.4,43.0,32.48,8.3,210.0,0.0,,0.0,9.9,0.0,1019.0,Clear
2021-04-03T20:00:00,67.5,67.5,67.5,43.1,41.1,5.7,206.0,0.0,,0.0,9.9,0.0,1019.4,Clear
2021-04-03T21:00:00,63.8,63.8,63.8,43.1,46.84,4.2,211.0,0.0,,0.0,9.9,0.0,1019.8,Clear
2021-04-03T22:00:00,57.7,57.7,57.7,42.0,55.86,1.9,80.0,0.0,,0.0,9.9,0.0,1020.2,Clear
2021-04-03T23:00:00,56.3,56.3,56.3,42.7,60.37,2.8,90.0,0.0,,0.0,9.9,0.0,1020.2,Clear
2021-04-04T00:00:00,53.9,53.9,53.9,41.6,63.03,3.2,255.0,0.0,,0.0,9.9,0.0,1019.9,Clear
2021-04-04T01:00:00,53.9,53.9,53.9,42.9,66.28,3.3,48.0,0.0,,0.0,9.9,0.0,1019.8,Clear
2021-04-04T02:00:00,53.7,53.7,53.7,44.0,69.64,3.1,85.0,0.0,,0.0,9.9,0.0,1019.5,Clear
2021-04-04T03:00:00,56.3,56.3,56.3,46.3,69.07,5.8,209.0,0.0,,0.0,9.9,0.0,1019.3,Clear
2021-04-04T04:00:00,54.4,54.4,54.4,45.7,72.35,3.6,257.0,0.0,,0.0,9.9,0.0,1018.9,Clear
2021-04-04T05:00:00,55.3,55.3,55.3,47.5,74.95,7.3,202.0,0.0,,0.0,9.9,0.0,1018.5,Clear
2021-04-04T06:00:00,54.4,54.4,54.4,46.9,75.98,6.5,214.0,0.0,,0.0,9.9,0.0,1018.5,Clear
2021-04-04T07:00:00,53.6,53.6,53.6,46.9,78.06,6.2,203.0,0.0,,0.0,9.9,0.0,1018.5,Clear
2021-04-04T08:00:00,54.4,54.4,54.4,48.1,79.23,7.8,207.0,0.0,,0.0,9.9,0.0,1018.6,Clear
2021-04-04T09:00:00,59.5,59.5,59.5,50.0,70.67,10.7,213.0,0.0,,0.0,9.9,0.0,1018.6,Clear
2021-04-04T10:00:00,65.8,65.8,65.8,51.4,59.55,11.9,204.0,0.0,,0.0,9.9,0.0,1018.0,Clear
2021-04-04T11:00:00,71.0,71.0,71.0,52.0,51.16,12.9,202.0,0.0,,0.0,9.9,0.0,1017.8,Clear
2021-04-04T12:00:00,76.9,76.9,76.9,52.6,42.78,13.3,204.0,0.0,,0.0,9.9,0.0,1017.3,Clear
2021-04-04T13:00:00,80.9,80.9,80.9,50.6,34.88,17.5,207.0,0.0,,0.0,9.9,0.0,1016.3,Clear
2021-04-04T14:00:00,82.5,82.5,82.5,47.3,29.29,18.3,209.0,0.0,,0.0,9.9,0.0,1015.3,Clear
2021-04-04T15:00:00,82.9,82.9,82.9,47.3,28.84,20.1,207.0,0.0,,0.0,9.9,0.0,1014.5,Clear
2021-04-04T16:00:00,82.7,82.7,82.7,46.4,28.11,18.6,203.0,0.0,,0.0,9.9,0.0,1013.7,Clear
2021-04-04T17:00:00,82.7,82.7,82.7,46.7,28.49,18.1,200.0,0.0,,0.0,9.9,0.0,1013.1,Clear
2021-04-04T18:00:00,80.6,80.6,80.6,47.3,31.09,16.0,198.0,0.0,,0.0,9.9,0.0,1012.8,Clear
2021-04-04T19:00:00,77.9,77.9,77.9,47.5,34.22,13.2,195.0,0.0,,0.0,9.9,0.0,1012.8,Clear
2021-04-04T20:00:00,73.6,73.6,73.6,48.7,41.37,12.3,199.0,0.0,,0.0,9.9,0.0,1013.0,Clear
2021-04-04T21:00:00,70.7,70.7,70.7,50.9,49.44,12.3,197.0,0.0,,0.0,9.9,0.0,1013.4,Clear
2021-04-04T22:00:00,68.6,68.6,68.6,51.5,54.3,10.3,197.0,0.0,,0.0,9.9,0.0,1013.6,Clear
2021-04-04T23:00:00,67.3,67.3,67.3,51.5,56.94,10.8,195.0,0.0,,0.0,9.9,0.0,1013.2,Clear
2021-04-05T00:00:00,66.3,66.3,66.3,52.6,61.42,13.4,197.0,0.0,,0.0,9.9,0.0,1012.8,Clear
2021-04-05T01:00:00,65.2,65.2,65.2,52.6,63.78,12.8,202.0,0.0,,0.0,9.9,0.0,1012.3,Clear
2021-04-05T02:00:00,64.2,64.2,64.2,52.6,66.14,12.1,205.0,0.0,,0.0,9.9,0.0,1012.4,Clear
2021-04-05T03:00:00,63.0,63.0,63.0,52.7,68.87,10.2,209.0,0.0,,0.0,9.9,0.0,1012.2,Clear
2021-04-05T04:00:00,59.9,59.9,59.9,52.8,77.27,8.8,205.0,0.0,,0.0,9.9,7.9,1011.9,Clear
2021-04-05T05:00:00,59.1,59.1,59.1,52.8,79.65,8.0,205.0,0.0,,0.0,9.9,2.5,1011.6,Clear
2021-04-05T06:00:00,57.1,57.1,57.1,51.5,81.74,4.8,107.0,0.0,,0.0,9.9,4.4,1011.2,Clear
2021-04-05T07:00:00,56.2,56.2,56.2,51.5,84.1,7.0,185.0,0.0,,0.0,9.9,0.0,1010.9,Clear
2021-04-05T08:00:00,57.3,57.3,57.3,52.1,82.73,9.9,198.0,0.0,,0.0,9.9,0.0,1010.8,Clear
2021-04-05T09:00:00,61.5,61.5,61.5,53.3,74.56,11.9,194.0,0.0,,0.0,9.9,2.5,1010.4,Clear
2021-04-05T10:00:00,66.2,66.2,66.2,54.5,66.03,16.2,213.0,0.0,,0.0,9.9,12.3,1009.8,Clear
2021-04-05T11:00:00,71.6,71.6,71.6,55.3,56.41,18.8,199.0,0.0,,0.0,9.9,0.0,1009.0,Clear
2021-04-05T12:00:00,75.6,75.6,75.6,55.8,50.21,19.3,200.0,0.0,,0.0,9.9,0.0,1008.2,Clear
2021-04-05T13:00:00,79.7,79.7,79.7,55.2,42.97,20.2,191.0,0.0,,0.0,9.9,0.0,1007.3,Clear
2021-04-05T14:00:00,82.0,82.0,82.0,54.2,38.45,23.4,197.0,0.0,,0.0,9.9,0.0,1006.5,Clear
2021-04-05T15:00:00,82.5,82.5,82.5,52.5,35.47,22.1,206.0,0.0,,0.0,9.9,0.0,1005.5,Clear
2021-04-05T16:00:00,82.1,82.1,82.1,53.0,36.59,20.7,191.0,0.0,,0.0,9.9,0.0,1004.8,Clear
2021-04-05T17:00:00,81.5,81.5,81.5,52.7,37.0,19.5,187.0,0.0,,0.0,9.9,0.0,1004.3,Clear
2021-04-05T18:00:00,79.4,79.4,79.4,54.0,41.44,20.9,195.0,0.0,,0.0,9.9,0.0,1004.6,Clear
2021-04-05T19:00:00,77.4,77.4,77.4,53.9,44.21,16.3,195.0,0.0,,0.0,9.9,0.0,1004.7,Clear
2021-04-05T20:00:00,74.5,74.5,74.5,54.5,49.72,13.3,195.0,0.0,,0.0,9.9,0.0,1004.9,Clear
2021-04-05T21:00:00,73.0,73.0,73.0,53.8,51.04,10.1,183.0,0.0,,0.0,9.9,0.0,1005.0,Clear
2021-04-05T22:00:00,71.4,71.4,71.4,53.3,52.78,12.4,183.0,0.0,,0.0,9.9,2.5,1005.4,Clear
2021-04-05T23:00:00,70.1,70.1,70.1,53.2,55.14,12.4,180.0,0.0,,0.0,9.9,0.0,1005.5,Clear
2021-04-06T00:00:00,67.9,67.9,67.9,52.6,57.97,12.2,172.0,0.0,,0.0,9.9,0.0,1005.2,Clear
2021-04-06T01:00:00,67.6,67.6,67.6,51.3,55.88,14.8,183.0,0.0,,0.0,9.9,0.0,1005.0,Clear
2021-04-06T02:00:00,65.7,65.7,65.7,50.0,56.85,15.2,184.0,0.0,,0.0,9.9,0.0,1005.1,Clear
2021-04-06T03:00:00,65.2,65.2,65.2,50.0,57.9,12.9,185.0,0.0,,0.0,9.9,0.0,1005.0,Clear
2021-04-06T04:00:00,63.4,63.4,63.4,50.0,61.82,12.4,181.0,0.0,,0.0,9.9,4.4,1004.5,Clear
2021-04-06T05:00:00,62.2,62.2,62.2,50.7,65.86,13.7,177.0,0.0,,0.0,9.9,2.5,1004.3,Clear
2021-04-06T06:00:00,62.1,62.1,62.1,50.7,66.28,13.0,181.0,0.0,,0.0,9.9,0.0,1004.0,Clear
2021-04-06T07:00:00,62.1,62.1,62.1,51.5,68.26,13.2,173.0,0.0,,0.0,9.9,0.0,1003.8,Clear
2021-04-06T08:00:00,61.3,61.3,61.3,53.6,75.99,13.1,173.0,0.02,,0.0,7.0,48.9,1004.8,Rain Partially cloudy
2021-04-06T09:00:00,61.0,61.0,61.0,54.6,79.24,10.6,164.0,0.13,,0.0,9.9,67.7,1004.4,Rain Partially cloudy
2021-04-06T10:00:00,62.0,62.0,62.0,55.8,80.02,9.5,164.0,0.0,,0.0,9.9,55.8,1004.7,Partially cloudy
2021-04-06T11:00:00,63.3,63.3,63.3,56.5,78.55,10.4,164.0,0.01,,0.0,9.7,63.7,1004.8,Rain Partially cloudy
2021-04-06T12:00:00,64.4,64.4,64.4,57.7,79.05,16.0,165.0,0.05,,0.0,9.9,65.7,1004.4,Rain Partially cloudy
2021-04-06T13:00:00,65.9,65.9,65.9,58.3,76.43,18.3,173.0,0.0,,0.0,9.9,73.0,1003.8,Partially cloudy
2021-04-06T14:00:00,67.0,67.0,67.0,58.3,73.44,18.5,177.0,0.0,,0.0,9.9,73.0,1003.0,Partially cloudy
2021-04-06T15:00:00,68.9,68.9,68.9,57.8,67.61,18.4,183.0,0.0,,0.0,9.9,73.0,1002.5,Partially cloudy
2021-04-06T16:00:00,70.3,70.3,70.3,57.7,64.39,19.1,175.0,0.0,,0.0,9.9,73.0,1001.9,Partially cloudy
2021-04-06T17:00:00,70.6,70.6,70.6,57.6,63.55,18.3,173.0,0.0,,0.0,9.9,72.1,1001.9,Partially cloudy
2021-04-06T18:00:00,70.4,70.4,70.4,57.7,64.13,16.8,163.0,0.0,,0.0,9.9,72.1,1002.1,Partially cloudy
2021-04-06T19:00:00,70.0,70.0,70.0,57.1,63.78,15.5,153.0,0.0,,0.0,9.9,73.0,1001.7,Partially cloudy
2021-04-06T20:00:00,69.1,69.1,69.1,57.1,65.52,16.1,151.0,0.0,,0.0,9.9,23.1,1000.9,Clear
2021-04-06T21:00:00,67.9,67.9,67.9,57.1,68.35,13.3,151.0,0.0,,0.0,9.9,0.0,1001.3,Clear
2021-04-06T22:00:00,67.4,67.4,67.4,57.1,69.54,12.5,151.0,0.0,,0.0,9.9,0.0,1001.2,Clear
2021-04-06T23:00:00,64.1,64.1,64.1,52.8,66.76,17.5,221.0,0.0,,0.0,9.8,53.7,1003.2,Partially cloudy
2021-04-07T00:00:00,59.3,59.3,59.3,51.3,74.77,10.9,238.0,0.21,,0.0,7.8,56.6,1003.9,Rain Partially cloudy
2021-04-07T01:00:00,56.3,56.3,56.3,52.1,85.69,4.8,324.0,0.11,,0.0,5.5,73.0,1003.9,Rain Partially cloudy
2021-04-07T02:00:00,55.9,55.9,55.9,52.0,86.95,7.4,90.0,0.1,,0.0,9.9,72.1,1002.0,Rain Partially cloudy
2021-04-07T03:00:00,56.6,56.6,56.6,52.0,84.67,9.9,190.0,0.01,,0.0,9.9,67.7,1001.8,Rain Partially cloudy
2021-04-07T04:00:00,55.3,55.3,55.3,52.1,88.81,8.6,288.0,0.0,,0.0,9.9,70.1,1001.7,Partially cloudy
2021-04-07T05:00:00,54.3,54.3,54.3,51.6,90.32,4.4,248.0,0.0,,0.0,9.9,48.4,1001.6,Partially cloudy
2021-04-07T06:00:00,51.3,51.3,51.3,47.7,87.21,5.9,298.0,0.0,,0.0,9.9,70.1,1001.9,Partially cloudy
2021-04-07T07:00:00,50.1,50.1,50.1,45.6,84.43,3.7,335.0,0.0,,0.0,9.9,73.0,1002.3,Partially cloudy
2021-04-07T08:00:00,48.6,48.6,48.6,44.9,87.16,6.0,319.0,0.0,,0.0,9.9,73.0,1002.9,Partially cloudy
2021-04-07T09:00:00,47.9,47.9,47.9,44.9,89.54,8.8,299.0,0.0,,0.0,8.1,73.0,1003.2,Partially cloudy
2021-04-07T10:00:00,47.2,47.2,47.2,44.9,91.87,8.1,317.0,0.01,,0.0,4.2,73.0,1003.0,Rain Partially cloudy
2021-04-07T11:00:00,47.1,47.1,47.1,44.2,89.65,9.8,305.0,0.0,,0.0,3.2,70.4,1003.5,Partially cloudy
2021-04-07T12:00:00,47.6,47.6,47.6,45.5,92.3,9.7,304.0,0.01,,0.0,2.1,71.7,1003.8,Rain Partially cloudy
2021-04-07T13:00:00,47.8,47.8,47.8,44.9,89.5,10.6,297.0,0.0,,0.0,7.2,73.0,1003.7,Partially cloudy
2021-04-07T14:00:00,48.1,48.1,48.1,44.3,86.68,11.4,296.0,0.0,,0.0,7.1,71.8,1003.3,Partially cloudy
2021-04-07T15:00:00,48.1,48.1,48.1,43.6,84.43,10.8,299.0,0.0,,0.0,7.6,73.0,1002.7,Partially cloudy
2021-04-07T16:00:00,47.8,47.8,47.8,44.2,87.09,12.0,301.0,0.0,,0.0,7.8,73.0,1002.2,Partially cloudy
2021-04-07T17:00:00,47.3,47.3,47.3,44.2,88.83,11.4,290.0,0.0,,0.0,4.1,73.0,1002.4,Partially cloudy
2021-04-07T18:00:00,47.1,47.1,47.1,44.8,91.8,11.4,290.0,0.0,,0.0,4.1,73.0,1002.4,Partially cloudy
2021-04-07T19:00:00,46.4,46.4,46.4,44.3,92.23,11.3,282.0,0.02,,0.0,2.9,71.8,1002.1,Rain Partially cloudy
2021-04-07T20:00:00,46.0,46.0,46.0,43.8,91.92,12.1,293.0,0.02,,0.0,3.4,73.0,1002.3,Rain Partially cloudy
2021-04-07T21:00:00,46.0,46.0,46.0,43.8,91.96,14.9,291.0,0.02,,0.0,9.0,73.0,1002.9,Rain Partially cloudy
2021-04-07T22:00:00,45.8,45.8,45.8,43.7,92.31,14.0,297.0,0.02,,0.0,7.8,73.0,1003.3,Rain Partially cloudy
2021-04-07T23:00:00,45.3,45.3,45.3,43.1,91.96,12.7,298.0,0.04,,0.0,6.0,71.8,1002.7,Rain Partially cloudy
2021-04-08T00:00:00,45.3,45.3,45.3,43.2,92.22,12.3,288.0,0.01,,0.0,8.9,73.0,1002.0,Rain Partially cloudy
2021-04-08T01:00:00,45.1,45.1,45.1,44.1,96.25,13.2,298.0,0.05,,0.0,4.0,73.0,1001.9,Rain Partially cloudy
2021-04-08T02:00:00,44.4,44.4,44.4,42.8,94.02,12.9,298.0,0.09,,0.0,3.6,71.8,1001.4,Rain Partially cloudy
2021-04-08T03:00:00,44.4,44.4,44.4,42.8,93.81,11.6,294.0,0.09,,0.0,6.9,71.8,1001.0,Rain Partially cloudy
2021-04-08T04:00:00,44.6,44.6,44.6,42.8,93.59,12.0,289.0,0.09,,0.0,7.7,73.0,1000.8,Rain Partially cloudy
2021-04-08T05:00:00,45.1,45.1,45.1,43.5,93.95,13.2,293.0,0.08,,0.0,5.4,73.0,1000.9,Rain Partially cloudy
2021-04-08T06:00:00,45.3,45.3,45.3,43.1,91.89,10.7,295.0,0.09,,0.0,7.8,73.0,1000.9,Rain Partially cloudy
2021-04-08T07:00:00,45.5,45.5,45.5,43.1,91.39,9.8,300.0,0.05,,0.0,5.2,73.0,1001.3,Rain Partially cloudy
2021-04-08T08:00:00,46.0,46.0,46.0,43.6,91.45,9.7,300.0,0.01,,0.0,9.9,73.0,1001.7,Rain Partially cloudy
2021-04-08T09:00:00,46.1,46.1,46.1,44.2,92.78,11.3,299.0,0.02,,0.0,9.9,73.0,1002.0,Rain Partially cloudy
2021-04-08T10:00:00,46.6,46.6,46.6,42.9,86.83,12.7,298.0,0.0,,0.0,9.9,73.0,1002.4,Partially cloudy
2021-04-08T11:00:00,48.8,48.8,48.8,42.9,79.94,11.9,297.0,0.0,,0.0,8.9,73.0,1002.7,Partially cloudy
2021-04-08T12:00:00,51.5,51.5,51.5,44.1,75.85,12.7,302.0,0.01,,0.0,9.9,72.1,1002.5,Rain Partially cloudy
2021-04-08T13:00:00,53.5,53.5,53.5,44.8,72.34,12.8,295.0,0.01,,0.0,9.9,71.8,1002.4,Rain Partially cloudy
2021-04-08T14:00:00,55.5,55.5,55.5,46.0,70.38,9.4,295.0,0.0,,0.0,9.9,73.0,1002.2,Partially cloudy
2021-04-08T15:00:00,60.0,60.0,60.0,45.2,58.03,12.3,296.0,0.0,,0.0,9.9,73.0,1001.5,Partially cloudy
2021-04-08T16:00:00,63.1,63.1,63.1,44.1,49.89,15.5,291.0,0.0,,0.0,9.9,64.2,1001.0,Partially cloudy
2021-04-08T17:00:00,65.3,65.3,65.3,39.2,38.15,14.9,291.0,0.0,,0.0,9.9,24.6,1000.9,Clear
2021-04-08T18:00:00,66.0,66.0,66.0,37.7,35.28,12.3,299.0,0.0,,0.0,9.9,12.3,1000.9,Clear
2021-04-08T19:00:00,63.5,63.5,63.5,36.2,36.15,8.5,307.0,0.0,,0.0,9.9,0.0,1001.1,Clear
2021-04-08T20:00:00,58.3,58.3,58.3,38.4,47.37,5.2,178.0,0.0,,0.0,9.9,0.0,1001.0,Clear
2021-04-08T21:00:00,54.9,54.9,54.9,39.0,55.08,3.6,329.0,0.0,,0.0,9.9,0.0,1001.4,Clear
2021-04-08T22:00:00,49.2,49.2,49.2,41.4,74.34,1.8,75.0,0.0,,0.0,9.9,0.0,1002.1,Clear
2021-04-08T23:00:00,49.5,49.5,49.5,41.3,73.09,3.5,81.0,0.0,,0.0,9.9,0.0,1002.4,Clear
2021-04-09T00:00:00,46.4,46.4,46.4,41.7,83.73,1.9,92.0,0.0,,0.0,7.8,0.0,1002.1,Clear
2021-04-09T01:00:00,43.7,43.7,43.7,41.1,90.21,1.5,300.0,0.0,,0.0,9.9,0.0,1002.1,Clear
2021-04-09T02:00:00,42.3,42.3,42.3,40.4,92.89,2.4,295.0,0.0,,0.0,9.9,0.0,1002.2,Clear
2021-04-09T03:00:00,40.7,40.7,40.7,38.4,91.45,4.3,189.0,0.0,,0.0,6.6,0.0,1002.2,Clear
2021-04-09T04:00:00,38.0,38.0,38.0,37.5,98.02,1.6,313.0,0.0,,0.0,9.9,0.0,1002.1,Clear
2021-04-09T05:00:00,38.0,38.0,38.0,37.0,96.32,1.9,268.0,0.0,,0.0,8.3,0.0,1002.5,Clear
2021-04-09T06:00:00,37.9,37.9,37.9,36.4,94.26,0.4,0.0,0.0,,0.0,6.8,24.6,1003.0,Clear
2021-04-09T07:00:00,36.3,36.3,36.3,35.1,95.55,0.4,0.0,0.0,,0.0,6.8,24.6,1003.4,Clear
2021-04-09T08:00:00,38.8,38.8,38.8,37.0,93.41,1.6,360.0,0.0,,0.0,6.6,24.6,1004.5,Clear
2021-04-09T09:00:00,45.9,45.9,45.9,42.1,86.56,1.1,5.0,0.0,,0.0,9.9,0.0,1005.0,Clear
2021-04-09T10:00:00,54.7,54.7,54.7,44.5,68.3,2.7,360.0,0.0,,0.0,9.9,0.0,1005.5,Clear
2021-04-09T11:00:00,62.8,62.8,62.8,45.4,52.9,4.3,43.0,0.0,,0.0,9.9,0.0,1006.1,Clear
2021-04-09T12:00:00,67.3,67.3,67.3,38.7,34.98,7.4,6.0,0.0,,0.0,9.9,0.0,1006.5,Clear
2021-04-09T13:00:00,68.9,68.9,68.9,39.7,34.47,11.9,20.0,0.0,,0.0,9.9,4.4,1006.1,Clear
2021-04-09T14:00:00,69.8,69.8,69.8,39.9,33.59,9.4,12.0,0.0,,0.0,9.9,8.9,1006.4,Clear
2021-04-09T15:00:00,69.9,69.9,69.9,39.2,32.62,10.2,357.0,0.0,,0.0,9.9,20.2,1007.0,Clear
2021-04-09T16:00:00,67.7,67.7,67.7,42.6,40.28,10.2,1.0,0.0,,0.0,9.9,40.0,1007.4,Partially cloudy
2021-04-09T17:00:00,67.6,67.6,67.6,44.2,42.82,12.2,348.0,0.0,,0.0,9.9,28.7,1006.9,Partially cloudy
2021-04-09T18:00:00,60.4,60.4,60.4,44.0,54.59,16.6,318.0,0.0,,0.0,9.9,69.1,1008.2,Partially cloudy
2021-04-09T19:00:00,52.6,52.6,52.6,43.6,71.58,15.9,313.0,0.0,,0.0,9.9,73.0,1010.1,Partially cloudy
2021-04-09T20:00:00,47.3,47.3,47.3,44.6,90.33,12.2,308.0,0.06,,0.0,7.9,73.0,1011.7,Rain Partially cloudy
2021-04-09T21:00:00,47.7,47.7,47.7,45.5,91.8,6.6,47.0,0.17,,0.0,9.1,73.0,1010.8,Rain Partially cloudy
2021-04-09T22:00:00,47.4,47.4,47.4,44.8,90.64,6.9,307.0,0.02,,0.0,9.9,68.7,1011.4,Rain Partially cloudy
2021-04-09T23:00:00,46.5,46.5,46.5,44.1,91.43,6.8,331.0,0.0,,0.0,9.9,73.0,1010.8,Partially cloudy
2021-04-10T00:00:00,46.0,46.0,46.0,43.5,90.76,6.6,310.0,0.0,,0.0,9.9,68.7,1009.8,Partially cloudy
2021-04-10T01:00:00,44.9,44.9,44.9,41.5,87.81,9.4,316.0,0.0,,0.0,9.9,68.7,1008.9,Partially cloudy
2021-04-10T02:00:00,44.1,44.1,44.1,40.8,88.06,7.8,315.0,0.0,,0.0,9.9,73.0,1009.3,Partially cloudy
2021-04-10T03:00:00,43.4,43.4,43.4,40.7,90.24,8.4,313.0,0.0,,0.0,9.9,73.0,1009.0,Partially cloudy
2021-04-10T04:00:00,43.2,43.2,43.2,40.7,90.92,9.1,310.0,0.02,,0.0,8.3,73.0,1008.7,Rain Partially cloudy
2021-04-10T05:00:00,43.9,43.9,43.9,41.5,91.32,5.3,343.0,0.0,,0.0,9.9,73.0,1008.4,Partially cloudy
2021-04-10T06:00:00,45.2,45.2,45.2,42.4,89.96,8.2,343.0,0.02,,0.0,8.9,73.0,1008.3,Rain Partially cloudy
2021-04-10T07:00:00,45.3,45.3,45.3,41.8,87.29,6.7,342.0,0.0,,0.0,9.9,68.7,1008.7,Partially cloudy
2021-04-10T08:00:00,45.7,45.7,45.7,41.6,85.46,8.3,339.0,0.0,,0.0,9.9,68.7,1009.2,Partially cloudy
2021-04-10T09:00:00,46.7,46.7,46.7,41.6,82.28,8.5,337.0,0.0,,0.0,9.9,72.1,1009.6,Partially cloudy
2021-04-10T10:00:00,49.5,49.5,49.5,42.2,75.9,8.3,347.0,0.0,,0.0,9.9,48.4,1009.5,Partially cloudy
2021-04-10T11:00:00,54.3,54.3,54.3,44.1,68.34,10.7,328.0,0.0,,0.0,9.9,0.0,1009.8,Clear
2021-04-10T12:00:00,56.5,56.5,56.5,43.0,60.45,10.7,322.0,0.0,,0.0,9.9,34.5,1009.8,Partially cloudy
2021-04-10T13:00:00,59.2,59.2,59.2,41.5,51.95,14.0,335.0,0.0,,0.0,9.9,34.9,1009.2,Partially cloudy
2021-04-10T14:00:00,59.8,59.8,59.8,40.2,48.23,13.1,329.0,0.0,,0.0,9.9,63.5,1008.7,Partially cloudy
2021-04-10T15:00:00,61.8,61.8,61.8,39.1,43.03,14.6,329.0,0.0,,0.0,9.9,23.1,1008.1,Clear
2021-04-10T16:00:00,62.7,62.7,62.7,39.5,42.36,12.1,325.0,0.0,,0.0,9.9,22.2,1007.5,Clear
2021-04-10T17:00:00,62.9,62.9,62.9,36.4,37.32,12.5,313.0,0.0,,0.0,9.9,10.8,1006.8,Clear
2021-04-10T18:00:00,62.7,62.7,62.7,34.9,35.35,11.8,313.0,0.0,,0.0,9.9,0.0,1006.3,Clear
2021-04-10T19:00:00,60.8,60.8,60.8,31.2,32.66,9.9,321.0,0.0,,0.0,9.9,0.0,1006.0,Clear
2021-04-10T20:00:00,56.2,56.2,56.2,33.2,41.6,4.2,323.0,0.0,,0.0,9.9,0.0,1005.9,Clear
2021-04-10T21:00:00,50.7,50.7,50.7,33.7,51.93,1.6,320.0,0.0,,0.0,9.9,0.0,1006.1,Clear
2021-04-10T22:00:00,48.7,48.7,48.7,34.1,56.72,3.0,277.0,0.0,,0.0,9.9,0.0,1006.2,Clear
2021-04-10T23:00:00,44.0,44.0,44.0,34.4,68.89,0.9,0.0,0.0,,0.0,9.9,0.0,1005.9,Clear
2021-04-11T00:00:00,40.8,40.8,40.8,33.8,76.04,1.3,340.0,0.0,,0.0,9.9,0.0,1005.4,Clear
2021-04-11T01:00:00,39.2,39.2,39.2,33.2,78.99,2.3,261.0,0.0,,0.0,9.9,0.0,1005.0,Clear
2021-04-11T02:00:00,35.4,35.4,35.4,31.5,85.52,0.7,0.0,0.0,,0.0,9.9,0.0,1004.7,Clear
2021-04-11T03:00:00,36.8,36.8,36.8,32.5,84.37,0.5,0.0,0.0,,0.0,9.9,0.0,1004.4,Clear
2021-04-11T04:00:00,34.4,34.4,34.4,31.3,88.37,0.5,0.0,0.0,,0.0,9.9,0.0,1004.4,Clear
2021-04-11T05:00:00,33.8,33.8,33.8,31.8,92.36,1.1,85.0,0.0,,0.0,9.9,0.0,1004.5,Clear
2021-04-11T06:00:00,33.5,33.5,33.5,31.1,90.54,1.2,60.0,0.0,,0.0,9.9,0.0,1004.2,Clear
2021-04-11T07:00:00,32.9,32.9,32.9,30.0,89.19,0.8,3.0,0.0,,0.0,9.9,0.0,1004.1,Clear
2021-04-11T08:00:00,36.0,36.0,36.0,32.8,88.16,1.4,69.0,0.0,,0.0,9.9,0.0,1004.1,Clear
2021-04-11T09:00:00,45.4,45.4,45.4,36.7,71.44,2.2,67.0,0.0,,0.0,9.9,0.0,1003.4,Clear
2021-04-11T10:00:00,57.4,57.4,57.4,36.6,45.71,4.9,33.0,0.0,,0.0,9.9,0.0,1002.3,Clear
2021-04-11T11:00:00,63.9,63.9,63.9,35.7,34.98,10.7,180.0,0.0,,0.0,9.9,0.0,1001.9,Clear
2021-04-11T12:00:00,67.7,67.7,67.7,37.3,32.7,8.2,216.0,0.0,,0.0,9.9,0.0,1001.8,Clear
2021-04-11T13:00:00,70.9,70.9,70.9,38.5,30.68,10.9,256.0,0.0,,0.0,9.9,0.0,1001.6,Clear
2021-04-11T14:00:00,72.0,72.0,72.0,37.6,28.6,13.1,280.0,0.0,,0.0,9.9,0.0,1001.9,Clear
2021-04-11T15:00:00,73.3,73.3,73.3,37.7,27.46,14.4,300.0,0.0,,0.0,9.9,0.0,1002.1,Clear
2021-04-11T16:00:00,72.3,72.3,72.3,39.1,29.99,14.5,318.0,0.0,,0.0,9.9,0.0,1002.7,Clear
2021-04-11T17:00:00,70.8,70.8,70.8,39.4,31.9,16.5,324.0,0.0,,0.0,9.9,0.0,1003.2,Clear
2021-04-11T18:00:00,69.3,69.3,69.3,37.8,31.49,12.0,335.0,0.0,,0.0,9.9,0.0,1004.2,Clear
2021-04-11T19:00:00,65.5,65.5,65.5,37.3,35.18,14.7,337.0,0.0,,0.0,9.9,0.0,1005.5,Clear
2021-04-11T20:00:00,61.6,61.6,61.6,37.7,41.07,12.2,331.0,0.0,,0.0,9.9,0.0,1006.5,Clear
2021-04-11T21:00:00,57.9,57.9,57.9,37.6,46.67,13.4,335.0,0.0,,0.0,9.9,0.0,1007.8,Clear
2021-04-11T22:00:00,55.2,55.2,55.2,37.0,50.29,9.1,339.0,0.0,,0.0,9.9,0.0,1009.1,Clear
2021-04-11T23:00:00,53.6,53.6,53.6,36.5,52.39,8.5,343.0,0.0,,0.0,9.9,0.0,1010.5,Clear
2021-04-12T00:00:00,51.6,51.6,51.6,32.9,48.66,8.1,344.0,0.0,,0.0,9.9,0.0,1011.6,Clear
2021-04-12T01:00:00,50.4,50.4,50.4,32.5,50.19,7.9,340.0,0.0,,0.0,9.9,2.5,1012.1,Clear
2021-04-12T02:00:00,49.6,49.6,49.6,32.5,51.77,8.1,343.0,0.0,,0.0,9.9,7.9,1012.8,Clear
2021-04-12T03:00:00,48.9,48.9,48.9,30.7,49.22,12.3,354.0,0.0,,0.0,9.9,7.9,1012.8,Clear
2021-04-12T04:00:00,47.2,47.2,47.2,31.2,53.39,11.9,357.0,0.0,,0.0,9.9,7.9,1013.3,Clear
2021-04-12T05:00:00,45.7,45.7,45.7,31.9,58.19,9.6,348.0,0.0,,0.0,9.9,40.0,1014.1,Partially cloudy
2021-04-12T06:00:00,45.6,45.6,45.6,32.6,60.32,8.8,353.0,0.0,,0.0,9.9,60.7,1014.8,Partially cloudy
2021-04-12T07:00:00,45.4,45.4,45.4,33.3,62.36,9.0,354.0,0.0,,0.0,9.9,73.0,1015.9,Partially cloudy
2021-04-12T08:00:00,45.4,45.4,45.4,32.7,60.86,9.2,354.0,0.0,,0.0,9.9,60.7,1017.0,Partially cloudy
2021-04-12T09:00:00,45.5,45.5,45.5,32.0,58.9,9.6,345.0,0.0,,0.0,9.9,64.7,1017.7,Partially cloudy
2021-04-12T10:00:00,46.1,46.1,46.1,30.2,53.51,10.3,351.0,0.0,,0.0,9.9,72.1,1018.3,Partially cloudy
2021-04-12T11:00:00,48.2,48.2,48.2,28.0,45.3,13.4,1.0,0.0,,0.0,9.9,67.7,1018.5,Partially cloudy
2021-04-12T12:00:00,50.1,50.1,50.1,28.1,42.36,11.5,334.0,0.0,,0.0,9.9,72.1,1018.6,Partially cloudy
2021-04-12T13:00:00,51.3,51.3,51.3,27.5,39.64,9.5,346.0,0.0,,0.0,9.9,72.1,1018.4,Partially cloudy
2021-04-12T14:00:00,53.7,53.7,53.7,27.4,36.11,11.0,357.0,0.0,,0.0,9.9,69.1,1017.8,Partially cloudy
2021-04-12T15:00:00,55.6,55.6,55.6,27.5,33.68,10.4,19.0,0.0,,0.0,9.9,60.7,1017.4,Partially cloudy
2021-04-12T16:00:00,56.5,56.5,56.5,27.4,32.63,9.1,345.0,0.0,,0.0,9.9,59.8,1017.2,Partially cloudy
2021-04-12T17:00:00,57.7,57.7,57.7,26.8,30.37,8.2,336.0,0.0,,0.0,9.9,47.5,1016.9,Partially cloudy
2021-04-12T18:00:00,58.6,58.6,58.6,25.0,27.33,8.1,344.0,0.0,,0.0,9.9,48.4,1017.1,Partially cloudy
2021-04-12T19:00:00,57.8,57.8,57.8,26.0,29.31,5.5,349.0,0.0,,0.0,9.9,48.4,1017.5,Partially cloudy
2021-04-12T20:00:00,55.0,55.0,55.0,26.3,32.92,1.7,355.0,0.0,,0.0,9.9,48.4,1017.8,Partially cloudy
2021-04-12T21:00:00,50.4,50.4,50.4,27.3,40.53,1.7,343.0,0.0,,0.0,9.9,10.8,1018.5,Clear
2021-04-12T22:00:00,44.6,44.6,44.6,29.9,56.11,0.7,0.0,0.0,,0.0,9.9,43.1,1019.3,Partially cloudy
2021-04-12T23:00:00,40.9,40.9,40.9,29.8,64.32,2.4,355.0,0.0,,0.0,9.9,0.0,1020.0,Clear
2021-04-13T00:00:00,39.2,39.2,39.2,30.1,69.4,2.6,355.0,0.0,,0.0,9.9,7.9,1020.9,Clear
2021-04-13T01:00:00,37.4,37.4,37.4,29.4,72.49,2.5,360.0,0.0,,0.0,9.9,0.0,1021.8,Clear
2021-04-13T02:00:00,39.1,39.1,39.1,29.0,66.92,2.1,355.0,0.0,,0.0,9.9,4.4,1022.4,Clear
2021-04-13T03:00:00,39.9,39.9,39.9,28.5,63.58,1.8,355.0,0.0,,0.0,9.9,7.9,1022.6,Clear
2021-04-13T04:00:00,40.5,40.5,40.5,29.1,63.62,1.8,350.0,0.0,,0.0,9.9,8.9,1022.7,Clear
2021-04-13T05:00:00,39.9,39.9,39.9,28.1,62.39,2.9,350.0,0.0,,0.0,9.9,8.9,1022.9,Clear
2021-04-13T06:00:00,38.5,38.5,38.5,28.6,67.3,2.3,345.0,0.0,,0.0,9.9,7.9,1023.5,Clear
2021-04-13T07:00:00,37.7,37.7,37.7,27.5,66.33,4.7,328.0,0.0,,0.0,9.9,4.4,1024.2,Clear
2021-04-13T08:00:00,40.0,40.0,40.0,28.3,62.9,4.7,277.0,0.0,,0.0,9.9,0.0,1025.5,Clear
2021-04-13T09:00:00,45.3,45.3,45.3,27.0,48.65,6.4,338.0,0.0,,0.0,9.9,0.0,1025.8,Clear
2021-04-13T10:00:00,48.5,48.5,48.5,27.3,43.49,9.9,7.0,0.0,,0.0,9.9,0.0,1025.9,Clear
2021-04-13T11:00:00,50.8,50.8,50.8,26.2,38.26,10.5,3.0,0.0,,0.0,9.9,0.0,1025.7,Clear
2021-04-13T12:00:00,52.9,52.9,52.9,25.6,34.42,9.5,354.0,0.0,,0.0,9.9,0.0,1025.6,Clear
2021-04-13T13:00:00,55.4,55.4,55.4,26.7,33.02,8.2,321.0,0.0,,0.0,9.9,0.0,1024.8,Clear
2021-04-13T14:00:00,56.7,56.7,56.7,25.7,30.11,9.1,322.0,0.0,,0.0,9.9,4.4,1024.2,Clear
2021-04-13T15:00:00,58.5,58.5,58.5,26.1,28.75,8.7,337.0,0.0,,0.0,9.9,0.0,1023.5,Clear
2021-04-13T16:00:00,58.7,58.7,58.7,26.2,28.68,7.9,346.0,0.0,,0.0,9.9,0.0,1022.7,Clear
2021-04-13T17:00:00,57.7,57.7,57.7,26.6,30.18,7.9,339.0,0.0,,0.0,9.9,0.0,1022.0,Clear
2021-04-13T18:00:00,57.6,57.6,57.6,27.2,31.05,6.5,345.0,0.0,,0.0,9.9,4.4,1021.6,Clear
2021-04-13T19:00:00,57.0,57.0,57.0,26.9,31.24,5.6,328.0,0.0,,0.0,9.9,10.8,1021.4,Clear
2021-04-13T20:00:00,53.9,53.9,53.9,27.4,35.88,1.4,330.0,0.0,,0.0,9.9,0.0,1021.6,Clear
2021-04-13T21:00:00,49.7,49.7,49.7,31.0,48.4,0.2,0.0,0.0,,0.0,9.9,0.0,1021.8,Clear
2021-04-13T22:00:00,47.7,47.7,47.7,30.7,51.55,1.9,279.0,0.0,,0.0,9.9,42.0,1022.4,Partially cloudy
2021-04-13T23:00:00,45.9,45.9,45.9,33.2,60.96,0.6,0.0,0.0,,0.0,9.9,35.2,1023.2,Partially cloudy
2021-04-14T00:00:00,44.1,44.1,44.1,33.7,66.67,0.6,0.0,0.0,,0.0,9.9,44.1,1023.6,Partially cloudy
2021-04-14T01:00:00,41.8,41.8,41.8,32.4,69.1,1.7,342.0,0.0,,0.0,9.9,13.3,1023.7,Clear
2021-04-14T02:00:00,38.3,38.3,38.3,32.7,80.18,2.5,348.0,0.0,,0.0,8.9,0.0,1023.9,Clear
2021-04-14T03:00:00,36.9,36.9,36.9,30.1,76.27,4.8,6.0,0.0,,0.0,7.3,0.0,1024.2,Clear
2021-04-14T04:00:00,38.8,38.8,38.8,29.5,69.07,4.8,12.0,0.0,,0.0,9.9,0.0,1024.6,Clear
2021-04-14T05:00:00,38.3,38.3,38.3,27.6,65.14,5.2,18.0,0.0,,0.0,9.9,0.0,1024.7,Clear
2021-04-14T06:00:00,37.0,37.0,37.0,27.6,68.46,5.1,14.0,0.0,,0.0,9.9,0.0,1025.0,Clear
2021-04-14T07:00:00,34.9,34.9,34.9,26.3,70.51,5.5,23.0,0.0,,0.0,9.9,0.0,1025.4,Clear
2021-04-14T08:00:00,38.2,38.2,38.2,28.2,67.04,5.4,37.0,0.0,,0.0,9.9,0.0,1026.2,Clear
2021-04-14T09:00:00,41.8,41.8,41.8,25.6,52.29,10.2,31.0,0.0,,0.0,9.9,0.0,1026.3,Clear
2021-04-14T10:00:00,45.9,45.9,45.9,26.1,45.73,10.0,44.0,0.0,,0.0,9.9,0.0,1026.2,Clear
2021-04-14T11:00:00,47.7,47.7,47.7,25.6,41.75,11.4,18.0,0.0,,0.0,9.9,0.0,1026.2,Clear
2021-04-14T12:00:00,50.9,50.9,50.9,26.3,38.21,8.9,10.0,0.0,,0.0,9.9,0.0,1026.0,Clear
2021-04-14T13:00:00,52.3,52.3,52.3,26.9,37.12,10.1,7.0,0.0,,0.0,9.9,12.3,1025.7,Clear
2021-04-14T14:00:00,54.7,54.7,54.7,27.3,34.67,10.3,343.0,0.0,,0.0,9.9,49.9,1025.1,Partially cloudy
2021-04-14T15:00:00,55.8,55.8,55.8,28.0,34.25,10.6,333.0,0.0,,0.0,9.9,0.0,1024.2,Clear
2021-04-14T16:00:00,56.3,56.3,56.3,26.4,31.43,10.6,326.0,0.0,,0.0,9.9,44.4,1023.3,Partially cloudy
2021-04-14T17:00:00,55.7,55.7,55.7,26.9,32.85,11.1,357.0,0.0,,0.0,9.6,24.1,1022.8,Clear
2021-04-14T18:00:00,55.9,55.9,55.9,26.9,32.55,10.8,9.0,0.0,,0.0,9.6,2.5,1022.4,Clear
2021-04-14T19:00:00,53.5,53.5,53.5,26.9,35.55,8.6,4.0,0.0,,0.0,9.9,0.0,1022.4,Clear
2021-04-14T20:00:00,49.9,49.9,49.9,27.5,41.58,6.6,359.0,0.0,,0.0,9.9,0.0,1022.2,Clear
2021-04-14T21:00:00,46.8,46.8,46.8,27.9,47.61,5.1,360.0,0.0,,0.0,9.9,12.3,1022.9,Clear
2021-04-14T22:00:00,44.6,44.6,44.6,28.8,53.44,4.6,360.0,0.0,,0.0,9.9,24.6,1023.3,Clear
2021-04-14T23:00:00,42.2,42.2,42.2,28.2,57.35,4.0,353.0,0.0,,0.0,9.9,4.4,1023.9,Clear
2021-04-15T00:00:00,40.7,40.7,40.7,28.8,62.13,4.1,1.0,0.0,,0.0,9.9,13.3,1024.4,Clear
2021-04-15T01:00:00,39.1,39.1,39.1,29.4,67.73,2.8,330.0,0.0,,0.0,9.9,37.6,1024.8,Partially cloudy
2021-04-15T02:00:00,38.3,38.3,38.3,29.3,69.84,1.5,345.0,0.0,,0.0,9.9,35.2,1024.8,Partially cloudy
2021-04-15T03:00:00,36.2,36.2,36.2,28.3,72.66,2.9,356.0,0.0,,0.0,9.9,4.4,1024.3,Clear
2021-04-15T04:00:00,33.7,33.7,33.7,28.8,82.07,1.4,358.0,0.0,,0.0,9.9,4.4,1024.3,Clear
2021-04-15T05:00:00,32.5,32.5,32.5,27.4,81.54,2.0,353.0,0.0,,0.0,9.9,0.0,1024.1,Clear
2021-04-15T06:00:00,33.2,33.2,33.2,28.0,81.18,1.8,355.0,0.0,,0.0,9.9,2.5,1023.8,Clear
2021-04-15T07:00:00,31.1,31.1,31.1,28.0,88.27,1.3,340.0,0.0,,0.0,9.9,0.0,1024.3,Clear
2021-04-15T08:00:00,35.2,35.2,35.2,30.5,82.8,3.0,19.0,0.0,,0.0,9.9,0.0,1024.3,Clear
2021-04-15T09:00:00,41.3,41.3,41.3,32.5,70.85,7.1,40.0,0.0,,0.0,9.9,0.0,1024.3,Clear
2021-04-15T10:00:00,45.9,45.9,45.9,32.0,58.11,8.4,47.0,0.0,,0.0,9.9,0.0,1024.0,Clear
2021-04-15T11:00:00,48.5,48.5,48.5,31.9,52.58,5.7,67.0,0.0,,0.0,9.9,2.5,1023.8,Clear
2021-04-15T12:00:00,51.7,51.7,51.7,32.7,48.2,5.2,38.0,0.0,,0.0,9.9,0.0,1022.8,Clear
2021-04-15T13:00:00,53.2,53.2,53.2,31.4,43.23,5.3,76.0,0.0,,0.0,9.9,2.5,1022.2,Clear
2021-04-15T14:00:00,55.0,55.0,55.0,31.0,39.77,7.0,15.0,0.0,,0.0,9.9,0.0,1020.5,Clear
2021-04-15T15:00:00,56.0,56.0,56.0,32.6,40.9,5.9,6.0,0.0,,0.0,9.9,4.4,1019.4,Clear
2021-04-15T16:00:00,56.0,56.0,56.0,32.6,40.91,6.7,39.0,0.0,,0.0,9.9,0.0,1018.7,Clear
2021-04-15T17:00:00,56.7,56.7,56.7,32.0,38.95,6.3,36.0,0.0,,0.0,9.3,0.0,1018.1,Clear
2021-04-15T18:00:00,56.5,56.5,56.5,32.7,40.36,6.4,54.0,0.0,,0.0,8.3,69.1,1017.9,Partially cloudy
2021-04-15T19:00:00,54.9,54.9,54.9,32.0,41.74,6.9,67.0,0.0,,0.0,9.9,73.0,1017.8,Partially cloudy
2021-04-15T20:00:00,53.9,53.9,53.9,31.9,43.1,6.0,59.0,0.0,,0.0,9.9,73.0,1017.9,Partially cloudy
2021-04-15T21:00:00,52.1,52.1,52.1,33.2,48.25,5.8,41.0,0.0,,0.0,9.9,73.0,1018.2,Partially cloudy
2021-04-15T22:00:00,50.6,50.6,50.6,33.2,51.16,7.2,39.0,0.0,,0.0,9.3,73.0,1018.3,Partially cloudy
2021-04-15T23:00:00,49.9,49.9,49.9,33.4,52.77,6.4,54.0,0.0,,0.0,9.9,70.1,1017.8,Partially cloudy
