datetime,Minimum Temperature,Maximum Temperature,Temperature,Dew Point,Relative Humidity,Heat Index,Wind Speed,Wind Gust,Wind Direction,Wind Chill,Precipitation,Precipitation Cover,Snow Depth,Visibility,Cloud Cover,Sea Level Pressure,Conditions
2019-01-01T00:00:00,15.7,15.7,15.7,7.9,70.86,,13.7,23.1,347.0,1.4,0.0,,0.0,9.9,72.5,1027.2,Partially cloudy
2019-01-01T01:00:00,15.2,15.2,15.2,6.8,68.68,,10.6,21.4,1.0,2.5,0.0,,0.0,9.9,72.5,1027.5,Partially cloudy
2019-01-01T02:00:00,15.0,15.0,15.0,6.7,69.28,,10.4,24.2,357.0,2.4,0.0,,0.0,9.9,72.5,1029.1,Partially cloudy
2019-01-01T03:00:00,14.6,14.6,14.6,6.7,70.25,,9.3,18.3,357.0,2.7,0.0,,0.0,9.9,73.0,1030.0,Partially cloudy
2019-01-01T04:00:00,14.1,14.1,14.1,6.1,70.0,,10.6,19.7,347.0,1.1,0.0,,0.0,9.9,69.8,1029.9,Partially cloudy
2019-01-01T05:00:00,12.9,12.9,12.9,5.5,71.6,,9.9,,352.0,0.2,0.0,,0.0,9.9,73.0,1030.2,Partially cloudy
2019-01-01T06:00:00,12.7,12.7,12.7,4.8,69.96,,9.9,18.3,357.0,-0.1,0.0,,0.0,9.9,70.9,1030.9,Partially cloudy
2019-01-01T07:00:00,12.1,12.1,12.1,3.4,67.61,,10.8,17.2,351.0,-1.5,0.0,,0.0,9.9,69.8,1032.3,Partially cloudy
2019-01-01T08:00:00,11.9,11.9,11.9,3.5,68.38,,9.1,,358.0,-0.5,0.0,,0.0,9.9,55.7,1033.2,Partially cloudy
2019-01-01T09:00:00,12.1,12.1,12.1,3.4,67.72,,9.1,,359.0,-0.3,0.0,,0.0,9.9,67.4,1034.2,Partially cloudy
2019-01-01T10:00:00,12.8,12.8,12.8,4.0,67.17,,9.7,,352.0,0.2,0.0,,0.0,9.9,73.0,1033.8,Partially cloudy
2019-01-01T11:00:00,14.0,14.0,14.0,4.6,65.5,,9.5,,330.0,1.8,0.0,,0.0,9.9,69.8,1034.1,Partially cloudy
2019-01-01T12:00:00,14.6,14.6,14.6,5.4,66.14,,9.2,,1.0,2.7,0.0,,0.0,9.9,67.4,1032.7,Partially cloudy
2019-01-01T13:00:00,15.3,15.3,15.3,5.5,64.52,,6.9,,335.0,5.4,0.0,,0.0,9.9,70.1,1032.1,Partially cloudy
2019-01-01T14:00:00,15.9,15.9,15.9,7.3,68.19,,5.7,,347.0,7.4,0.0,,0.0,9.9,70.9,1031.5,Partially cloudy
2019-01-01T15:00:00,16.4,16.4,16.4,8.0,68.74,,4.6,,24.0,9.3,0.0,,0.0,9.9,72.5,1031.7,Partially cloudy
2019-01-01T16:00:00,16.5,16.5,16.5,7.4,66.89,,2.8,,357.0,,0.0,,0.0,9.9,73.0,1031.1,Partially cloudy
2019-01-01T17:00:00,17.1,17.1,17.1,8.5,68.72,,5.7,,7.0,8.8,0.0,,0.0,9.9,73.0,1030.8,Partially cloudy
2019-01-01T18:00:00,16.6,16.6,16.6,8.6,70.07,,4.0,,356.0,10.4,0.0,,0.0,9.9,57.1,1030.7,Partially cloudy
2019-01-01T19:00:00,16.6,16.6,16.6,8.6,70.05,,0.0,,0.0,,0.0,,0.0,9.9,73.0,1030.6,Partially cloudy
2019-01-01T20:00:00,16.7,16.7,16.7,8.6,69.86,,0.0,,0.0,,0.0,,0.0,9.9,72.5,1030.4,Partially cloudy
2019-01-01T21:00:00,17.7,17.7,17.7,9.3,69.03,,0.0,,0.0,,0.0,,0.0,9.9,73.0,1030.1,Partially cloudy
2019-01-01T22:00:00,17.7,17.7,17.7,9.3,69.17,,3.8,,252.0,11.9,0.0,,0.0,9.9,72.5,1029.5,Partially cloudy
2019-01-01T23:00:00,17.9,17.9,17.9,9.4,68.77,,3.1,,284.0,13.2,0.0,,0.0,9.9,73.0,1029.1,Partially cloudy
2019-01-02T00:00:00,18.8,18.8,18.8,10.7,70.01,,6.6,,229.0,10.0,0.0,,0.0,9.9,73.0,1028.8,Partially cloudy
2019-01-02T01:00:00,18.9,18.9,18.9,11.1,71.1,,7.4,,214.0,9.4,0.0,,0.0,9.9,73.0,1028.3,Partially cloudy
2019-01-02T02:00:00,19.0,19.0,19.0,12.4,74.81,,7.8,,231.0,9.2,0.0,,0.0,9.9,70.1,1027.6,Partially cloudy
2019-01-02T03:00:00,19.6,19.6,19.6,12.3,72.84,,7.9,,227.0,9.8,0.0,,0.0,9.9,73.0,1027.3,Partially cloudy
2019-01-02T04:00:00,20.2,20.2,20.2,12.3,71.2,,9.7,,230.0,9.3,0.0,,0.0,9.9,73.0,1026.4,Partially cloudy
2019-01-02T05:00:00,20.3,20.3,20.3,11.8,69.1,,10.2,,235.0,9.1,0.0,,0.0,9.9,72.5,1025.9,Partially cloudy
2019-01-02T06:00:00,21.4,21.4,21.4,12.4,67.72,,10.3,16.1,235.0,10.4,0.0,,0.0,9.9,73.0,1025.7,Partially cloudy
2019-01-02T07:00:00,21.0,21.0,21.0,11.8,67.09,,9.9,,227.0,10.2,0.0,,0.0,9.9,47.5,1025.9,Partially cloudy
2019-01-02T08:00:00,18.6,18.6,18.6,12.3,76.03,,8.4,,210.0,8.2,0.0,,0.0,9.9,0.0,1025.5,Clear
2019-01-02T09:00:00,22.3,22.3,22.3,13.9,69.51,,12.1,,221.0,10.5,0.0,,0.0,9.9,0.0,1025.6,Clear
2019-01-02T10:00:00,26.2,26.2,26.2,12.4,55.38,,12.5,18.3,241.0,15.3,0.0,,0.0,9.9,0.0,1024.4,Clear
2019-01-02T11:00:00,28.9,28.9,28.9,14.4,53.96,,10.5,19.0,253.0,19.7,0.0,,0.0,9.9,0.0,1024.3,Clear
2019-01-02T12:00:00,31.5,31.5,31.5,13.7,47.27,,13.1,20.5,253.0,21.7,0.0,,0.0,9.9,0.0,1022.5,Clear
2019-01-02T13:00:00,33.7,33.7,33.7,14.4,44.49,,9.9,,247.0,25.9,0.0,,0.0,9.9,0.0,1021.3,Clear
2019-01-02T14:00:00,35.6,35.6,35.6,14.6,41.66,,11.3,,241.0,27.6,0.0,,0.0,9.9,0.0,1019.9,Clear
2019-01-02T15:00:00,37.2,37.2,37.2,15.5,40.6,,9.4,,245.0,30.5,0.0,,0.0,9.9,0.0,1019.8,Clear
2019-01-02T16:00:00,37.2,37.2,37.2,15.1,40.13,,8.1,,255.0,31.1,0.0,,0.0,9.9,0.0,1019.9,Clear
2019-01-02T17:00:00,34.4,34.4,34.4,15.8,46.1,,6.1,,222.0,29.0,0.0,,0.0,9.9,0.0,1020.6,Clear
2019-01-02T18:00:00,31.8,31.8,31.8,15.2,49.82,,1.6,,295.0,,0.0,,0.0,9.9,0.0,1020.1,Clear
2019-01-02T19:00:00,26.9,26.9,26.9,16.5,64.36,,3.4,,214.0,23.0,0.0,,0.0,9.9,0.0,1020.8,Clear
2019-01-02T20:00:00,26.7,26.7,26.7,17.0,66.34,,4.0,,214.0,22.0,0.0,,0.0,9.9,0.0,1021.1,Clear
2019-01-02T21:00:00,23.8,23.8,23.8,16.4,72.92,,0.0,,0.0,,0.0,,0.0,9.9,0.0,1021.2,Clear
2019-01-02T22:00:00,24.0,24.0,24.0,17.5,75.9,,3.7,,271.0,19.2,0.0,,0.0,9.9,0.0,1021.0,Clear
2019-01-02T23:00:00,25.0,25.0,25.0,18.3,75.39,,1.1,,85.0,,0.0,,0.0,9.9,0.0,1020.7,Clear
2019-01-03T00:00:00,23.4,23.4,23.4,17.1,76.7,,1.1,,280.0,,0.0,,0.0,9.9,0.0,1020.3,Clear
2019-01-03T01:00:00,23.3,23.3,23.3,17.0,76.42,,6.0,,228.0,15.9,0.0,,0.0,9.9,0.0,1020.4,Clear
2019-01-03T02:00:00,24.5,24.5,24.5,18.6,77.99,,6.3,,232.0,17.1,0.0,,0.0,9.9,0.0,1020.5,Clear
2019-01-03T03:00:00,23.6,23.6,23.6,17.5,77.25,,2.5,,285.0,,0.0,,0.0,9.9,0.0,1020.5,Clear
2019-01-03T04:00:00,21.6,21.6,21.6,16.2,79.48,,0.0,,0.0,,0.0,,0.0,9.9,0.0,1019.5,Clear
2019-01-03T05:00:00,19.8,19.8,19.8,14.6,79.83,,3.8,,218.0,14.3,0.0,,0.0,9.9,0.0,1019.5,Clear
2019-01-03T06:00:00,19.0,19.0,19.0,15.3,85.27,,0.0,,0.0,,0.0,,0.0,9.9,0.0,1019.4,Clear
2019-01-03T07:00:00,19.5,19.5,19.5,15.8,85.27,,2.0,,90.0,,0.0,,0.0,9.9,0.0,1019.4,Clear
2019-01-03T08:00:00,20.3,20.3,20.3,16.2,83.72,,6.0,,216.0,12.3,0.0,,0.0,9.9,0.0,1020.3,Clear
2019-01-03T09:00:00,25.8,25.8,25.8,20.1,78.73,,4.4,,279.0,20.4,0.0,,0.0,9.9,0.0,1021.1,Clear
2019-01-03T10:00:00,30.4,30.4,30.4,22.1,71.02,,4.2,,219.0,26.0,0.0,,0.0,9.9,0.0,1020.3,Clear
2019-01-03T11:00:00,36.5,36.5,36.5,24.0,60.38,,6.2,,247.0,31.4,0.0,,0.0,9.9,0.0,1019.5,Clear
2019-01-03T12:00:00,41.8,41.8,41.8,25.1,51.11,,2.9,,275.0,,0.0,,0.0,9.9,0.0,1017.6,Clear
2019-01-03T13:00:00,48.3,48.3,48.3,24.0,38.11,,6.7,,227.0,45.3,0.0,,0.0,9.9,0.0,1016.7,Clear
2019-01-03T14:00:00,49.5,49.5,49.5,23.2,35.38,,7.8,,212.0,46.3,0.0,,0.0,9.9,0.0,1016.3,Clear
2019-01-03T15:00:00,50.2,50.2,50.2,23.4,34.75,,7.2,,211.0,,0.0,,0.0,9.9,0.0,1015.5,Clear
2019-01-03T16:00:00,49.6,49.6,49.6,23.4,35.5,,6.2,,44.0,47.0,0.0,,0.0,9.9,0.0,1015.7,Clear
2019-01-03T17:00:00,43.5,43.5,43.5,24.8,47.33,,7.4,,205.0,39.2,0.0,,0.0,9.9,0.0,1015.7,Clear
2019-01-03T18:00:00,36.9,36.9,36.9,24.1,59.45,,0.7,,337.0,,0.0,,0.0,9.9,0.0,1015.7,Clear
2019-01-03T19:00:00,33.4,33.4,33.4,22.9,64.86,,2.0,,90.0,,0.0,,0.0,9.9,0.0,1016.4,Clear
2019-01-03T20:00:00,32.4,32.4,32.4,24.1,71.19,,5.3,,289.0,27.3,0.0,,0.0,9.9,0.0,1016.5,Clear
2019-01-03T21:00:00,28.1,28.1,28.1,22.8,80.18,,1.6,,285.0,,0.0,,0.0,9.9,0.0,1016.0,Clear
2019-01-03T22:00:00,27.3,27.3,27.3,21.7,79.31,,1.1,,285.0,,0.0,,0.0,9.9,0.0,1015.6,Clear
2019-01-03T23:00:00,25.2,25.2,25.2,21.5,85.62,,2.9,,334.0,,0.0,,0.0,9.9,0.0,1014.7,Clear
2019-01-04T00:00:00,25.3,25.3,25.3,21.3,84.56,,2.9,,163.0,,0.0,,0.0,9.9,0.0,1014.2,Clear
2019-01-04T01:00:00,23.2,23.2,23.2,19.7,86.19,,1.8,,104.0,,0.0,,0.0,9.9,0.0,1013.9,Clear
2019-01-04T02:00:00,22.1,22.1,22.1,18.6,86.24,,1.1,,90.0,,0.0,,0.0,9.9,0.0,1013.7,Clear
2019-01-04T03:00:00,22.4,22.4,22.4,19.6,88.73,,3.1,,253.0,18.2,0.0,,0.0,9.9,0.0,1013.3,Clear
2019-01-04T04:00:00,22.2,22.2,22.2,19.6,89.76,,1.8,,253.0,,0.0,,0.0,9.9,0.0,1012.8,Clear
2019-01-04T05:00:00,22.3,22.3,22.3,19.4,88.26,,0.4,,344.0,,0.0,,0.0,9.9,0.0,1012.9,Clear
2019-01-04T06:00:00,20.3,20.3,20.3,17.7,89.39,,2.2,,260.0,,0.0,,0.0,9.9,0.0,1012.9,Clear
2019-01-04T07:00:00,21.9,21.9,21.9,18.4,86.17,,4.1,,233.0,16.3,0.0,,0.0,9.9,0.0,1013.3,Clear
2019-01-04T08:00:00,23.9,23.9,23.9,20.1,85.43,,2.4,,274.0,,0.0,,0.0,9.9,0.0,1013.4,Clear
2019-01-04T09:00:00,28.3,28.3,28.3,23.3,81.42,,4.4,,236.0,23.3,0.0,,0.0,9.9,0.0,1014.3,Clear
2019-01-04T10:00:00,33.5,33.5,33.5,26.6,75.54,,5.0,,219.0,28.9,0.0,,0.0,9.9,0.0,1014.4,Clear
2019-01-04T11:00:00,39.0,39.0,39.0,29.2,67.56,,7.4,,234.0,33.6,0.0,,0.0,9.9,0.0,1013.8,Clear
2019-01-04T12:00:00,45.4,45.4,45.4,29.8,54.22,,5.0,,259.0,42.9,0.0,,0.0,9.9,0.0,1012.5,Clear
2019-01-04T13:00:00,50.5,50.5,50.5,29.3,43.9,,8.4,,250.0,,0.0,,0.0,9.9,0.0,1011.6,Clear
2019-01-04T14:00:00,52.8,52.8,52.8,31.5,43.91,,9.3,,271.0,,0.0,,0.0,9.9,0.0,1011.3,Clear
2019-01-04T15:00:00,55.2,55.2,55.2,33.0,42.9,,7.8,,257.0,,0.0,,0.0,9.9,0.0,1011.4,Clear
2019-01-04T16:00:00,55.6,55.6,55.6,33.2,42.47,,5.0,,262.0,,0.0,,0.0,9.9,0.0,1011.5,Clear
2019-01-04T17:00:00,50.4,50.4,50.4,33.1,51.26,,4.2,,251.0,,0.0,,0.0,9.9,0.0,1012.0,Clear
2019-01-04T18:00:00,44.1,44.1,44.1,31.8,61.85,,0.4,,342.0,,0.0,,0.0,9.9,0.0,1012.6,Clear
2019-01-04T19:00:00,39.9,39.9,39.9,31.0,70.29,,2.5,,308.0,,0.0,,0.0,9.9,0.0,1012.9,Clear
2019-01-04T20:00:00,35.8,35.8,35.8,30.0,79.08,,0.0,,0.0,,0.0,,0.0,9.9,0.0,1013.8,Clear
2019-01-04T21:00:00,37.4,37.4,37.4,30.7,76.43,,1.5,,303.0,,0.0,,0.0,9.9,0.0,1014.0,Clear
2019-01-04T22:00:00,35.2,35.2,35.2,29.8,80.58,,1.6,,325.0,,0.0,,0.0,9.9,0.0,1014.7,Clear
2019-01-04T23:00:00,34.6,34.6,34.6,29.1,80.13,,1.5,,310.0,,0.0,,0.0,9.9,0.0,1014.7,Clear
2019-01-05T00:00:00,32.4,32.4,32.4,29.5,88.63,,0.7,,340.0,,0.0,,0.0,9.9,0.0,1014.7,Clear
2019-01-05T01:00:00,31.1,31.1,31.1,27.9,87.88,,0.4,,340.0,,0.0,,0.0,9.9,0.0,1014.5,Clear
2019-01-05T02:00:00,30.3,30.3,30.3,27.2,87.98,,1.6,,290.0,,0.0,,0.0,9.9,0.0,1015.0,Clear
2019-01-05T03:00:00,30.1,30.1,30.1,28.1,92.1,,3.7,,227.0,26.3,0.0,,0.0,9.9,0.0,1015.5,Clear
2019-01-05T04:00:00,31.1,31.1,31.1,27.8,87.34,,4.5,,227.0,26.5,0.0,,0.0,9.9,0.0,1015.5,Clear
2019-01-05T05:00:00,31.1,31.1,31.1,28.2,88.59,,3.4,,235.0,27.9,0.0,,0.0,9.9,0.0,1015.4,Clear
2019-01-05T06:00:00,29.0,29.0,29.0,26.2,88.88,,1.1,,90.0,,0.0,,0.0,9.9,0.0,1015.7,Clear
2019-01-05T07:00:00,28.5,28.5,28.5,24.6,85.33,,1.5,,270.0,,0.0,,0.0,9.9,0.0,1016.3,Clear
2019-01-05T08:00:00,28.0,28.0,28.0,25.3,89.5,,1.6,,280.0,,0.0,,0.0,9.9,0.0,1017.6,Clear
2019-01-05T09:00:00,32.1,32.1,32.1,29.1,88.31,,1.6,,280.0,,0.0,,0.0,9.9,0.0,1018.2,Clear
2019-01-05T10:00:00,38.6,38.6,38.6,31.8,76.44,,4.1,,206.0,35.6,0.0,,0.0,9.9,0.0,1017.9,Clear
2019-01-05T11:00:00,45.8,45.8,45.8,33.4,61.51,,1.8,,279.0,,0.0,,0.0,9.9,0.0,1017.5,Clear
2019-01-05T12:00:00,52.4,52.4,52.4,34.4,50.24,,4.3,,267.0,,0.0,,0.0,9.9,0.0,1016.9,Clear
2019-01-05T13:00:00,57.2,57.2,57.2,35.0,43.23,,4.5,,232.0,,0.0,,0.0,9.9,0.0,1016.2,Clear
2019-01-05T14:00:00,60.4,60.4,60.4,35.1,38.61,,4.6,,243.0,,0.0,,0.0,9.9,0.0,1015.9,Clear
2019-01-05T15:00:00,62.4,62.4,62.4,36.3,37.77,,5.7,,236.0,,0.0,,0.0,9.9,0.0,1015.7,Clear
2019-01-05T16:00:00,61.9,61.9,61.9,35.6,37.44,,5.4,,234.0,,0.0,,0.0,9.9,0.0,1015.5,Clear
2019-01-05T17:00:00,55.6,55.6,55.6,35.6,46.81,,1.1,,290.0,,0.0,,0.0,9.9,0.0,1016.1,Clear
2019-01-05T18:00:00,47.4,47.4,47.4,33.6,58.45,,0.0,,0.0,,0.0,,0.0,9.9,0.0,1016.7,Clear
2019-01-05T19:00:00,39.9,39.9,39.9,30.4,68.54,,2.0,,89.0,,0.0,,0.0,9.9,0.0,1017.1,Clear
2019-01-05T20:00:00,39.8,39.8,39.8,32.4,74.71,,1.1,,275.0,,0.0,,0.0,9.9,0.0,1017.3,Clear
2019-01-05T21:00:00,39.3,39.3,39.3,30.6,70.73,,0.0,,0.0,,0.0,,0.0,9.9,0.0,1017.4,Clear
2019-01-05T22:00:00,36.8,36.8,36.8,30.5,77.78,,0.6,,5.0,,0.0,,0.0,9.9,0.0,1017.3,Clear
2019-01-05T23:00:00,38.2,38.2,38.2,31.5,76.44,,2.0,,64.0,,0.0,,0.0,9.9,0.0,1017.0,Clear
2019-01-06T00:00:00,36.7,36.7,36.7,30.9,79.47,,2.3,,69.0,,0.0,,0.0,9.9,2.5,1016.3,Clear
2019-01-06T01:00:00,36.1,36.1,36.1,30.3,79.21,,2.0,,72.0,,0.0,,0.0,9.9,4.4,1015.8,Clear
2019-01-06T02:00:00,36.3,36.3,36.3,31.1,80.93,,1.8,,68.0,,0.0,,0.0,9.9,0.0,1016.0,Clear
2019-01-06T03:00:00,39.1,39.1,39.1,33.5,80.04,,2.2,,72.0,,0.0,,0.0,9.9,0.0,1015.7,Clear
2019-01-06T04:00:00,39.1,39.1,39.1,33.6,80.63,,5.1,,60.0,35.3,0.0,,0.0,9.9,4.4,1014.4,Clear
2019-01-06T05:00:00,40.8,40.8,40.8,33.7,75.57,,6.6,,65.0,36.3,0.0,,0.0,9.9,7.9,1013.6,Clear
2019-01-06T06:00:00,41.1,41.1,41.1,34.3,76.65,,7.9,,64.0,35.9,0.0,,0.0,9.9,8.4,1012.7,Clear
2019-01-06T07:00:00,44.4,44.4,44.4,35.7,71.33,,7.1,,82.0,40.4,0.0,,0.0,9.9,8.9,1011.9,Clear
2019-01-06T08:00:00,45.7,45.7,45.7,36.4,69.63,,6.5,,88.0,42.3,0.0,,0.0,9.9,7.9,1011.2,Clear
2019-01-06T09:00:00,46.7,46.7,46.7,36.9,68.63,,9.0,21.5,112.0,42.3,0.0,,0.0,9.9,6.3,1009.8,Clear
2019-01-06T10:00:00,49.1,49.1,49.1,37.6,64.44,,13.8,22.2,175.0,43.8,0.0,,0.0,9.9,5.2,1010.2,Clear
2019-01-06T11:00:00,51.9,51.9,51.9,38.1,59.33,,11.5,23.7,172.0,,0.0,,0.0,9.9,18.7,1009.0,Clear
2019-01-06T12:00:00,53.4,53.4,53.4,38.1,56.03,,14.8,23.6,173.0,,0.0,,0.0,9.9,3.4,1007.3,Clear
2019-01-06T13:00:00,55.8,55.8,55.8,38.8,52.63,,18.1,28.7,171.0,,0.0,,0.0,9.9,7.9,1005.2,Clear
2019-01-06T14:00:00,57.6,57.6,57.6,40.1,52.1,,17.1,27.1,187.0,,0.0,,0.0,9.9,5.2,1004.4,Clear
2019-01-06T15:00:00,60.0,60.0,60.0,39.5,46.57,,17.2,30.3,189.0,,0.0,,0.0,9.9,5.2,1003.6,Clear
2019-01-06T16:00:00,60.6,60.6,60.6,38.9,44.58,,15.6,34.7,187.0,,0.0,,0.0,9.9,43.1,1003.5,Partially cloudy
2019-01-06T17:00:00,59.0,59.0,59.0,38.9,47.08,,15.0,25.6,192.0,,0.0,,0.0,9.9,19.7,1003.9,Clear
2019-01-06T18:00:00,57.2,57.2,57.2,40.4,53.37,,13.0,26.4,195.0,,0.0,,0.0,9.9,18.7,1004.0,Clear
2019-01-06T19:00:00,57.5,57.5,57.5,42.8,58.0,,18.9,28.5,200.0,,0.0,,0.0,9.9,19.1,1003.3,Clear
2019-01-06T20:00:00,57.8,57.8,57.8,44.2,60.42,,17.0,26.8,210.0,,0.0,,0.0,9.9,19.1,1003.0,Clear
2019-01-06T21:00:00,57.9,57.9,57.9,44.9,61.97,,17.6,33.8,210.0,,0.0,,0.0,9.9,5.2,1002.8,Clear
2019-01-06T22:00:00,58.0,58.0,58.0,46.6,65.85,,18.6,35.5,207.0,,0.0,,0.0,9.9,22.2,1003.0,Clear
2019-01-06T23:00:00,58.2,58.2,58.2,47.9,68.5,,17.0,29.9,208.0,,0.0,,0.0,9.9,50.2,1002.5,Partially cloudy
2019-01-07T00:00:00,56.7,56.7,56.7,49.3,76.26,,15.8,31.5,199.0,,0.0,,0.0,9.9,36.5,1001.5,Partially cloudy
2019-01-07T01:00:00,56.5,56.5,56.5,49.4,76.94,,12.3,29.9,227.0,,0.0,,0.0,9.9,47.5,1001.2,Partially cloudy
2019-01-07T02:00:00,55.2,55.2,55.2,48.2,77.42,,8.7,23.0,255.0,,0.0,,0.0,9.9,30.0,1000.7,Partially cloudy
2019-01-07T03:00:00,55.1,55.1,55.1,48.7,79.06,,10.4,27.7,268.0,,0.0,,0.0,9.9,18.0,1000.9,Clear
2019-01-07T04:00:00,54.5,54.5,54.5,48.1,78.93,,9.5,21.9,265.0,,0.0,,0.0,9.9,38.2,1000.7,Partially cloudy
2019-01-07T05:00:00,51.4,51.4,51.4,45.6,80.53,,5.8,,255.0,,0.0,,0.0,9.9,0.0,1001.5,Clear
2019-01-07T06:00:00,47.7,47.7,47.7,42.8,83.15,,6.9,,287.0,44.4,0.0,,0.0,9.9,21.7,1003.8,Clear
2019-01-07T07:00:00,45.3,45.3,45.3,37.6,74.42,,6.6,,282.0,41.7,0.0,,0.0,9.9,12.3,1005.2,Clear
2019-01-07T08:00:00,45.2,45.2,45.2,36.3,71.02,,10.8,22.3,263.0,39.7,0.0,,0.0,9.9,22.2,1006.4,Clear
2019-01-07T09:00:00,45.5,45.5,45.5,35.0,66.55,,9.8,19.7,257.0,40.6,0.0,,0.0,9.9,0.0,1008.3,Clear
2019-01-07T10:00:00,49.1,49.1,49.1,34.3,56.41,,10.6,18.3,273.0,44.7,0.0,,0.0,9.9,0.0,1008.8,Clear
2019-01-07T11:00:00,52.2,52.2,52.2,34.2,50.11,,9.5,,298.0,,0.0,,0.0,9.9,0.0,1009.1,Clear
2019-01-07T12:00:00,55.0,55.0,55.0,33.6,44.13,,11.5,18.3,296.0,,0.0,,0.0,9.9,0.0,1009.2,Clear
2019-01-07T13:00:00,55.6,55.6,55.6,33.1,42.32,,9.8,,275.0,,0.0,,0.0,9.9,0.0,1008.6,Clear
2019-01-07T14:00:00,56.4,56.4,56.4,32.9,40.93,,7.0,,272.0,,0.0,,0.0,9.9,4.4,1008.9,Clear
2019-01-07T15:00:00,56.7,56.7,56.7,33.0,40.66,,10.6,,246.0,,0.0,,0.0,9.9,4.4,1009.5,Clear
2019-01-07T16:00:00,54.7,54.7,54.7,34.3,46.1,,10.0,,243.0,,0.0,,0.0,9.9,4.4,1010.0,Clear
2019-01-07T17:00:00,53.6,53.6,53.6,33.0,45.47,,8.6,,238.0,,0.0,,0.0,9.9,2.5,1010.4,Clear
2019-01-07T18:00:00,47.4,47.4,47.4,33.1,57.31,,6.3,,233.0,44.4,0.0,,0.0,9.9,0.0,1011.5,Clear
2019-01-07T19:00:00,45.1,45.1,45.1,33.0,62.2,,6.0,,232.0,41.9,0.0,,0.0,9.9,0.0,1012.0,Clear
2019-01-07T20:00:00,39.4,39.4,39.4,30.1,69.17,,1.1,,285.0,,0.0,,0.0,9.9,0.0,1012.7,Clear
2019-01-07T21:00:00,39.8,39.8,39.8,31.1,70.92,,5.1,,227.0,36.1,0.0,,0.0,9.9,0.0,1013.1,Clear
2019-01-07T22:00:00,37.6,37.6,37.6,28.4,69.05,,3.1,,258.0,35.5,0.0,,0.0,9.9,0.0,1013.1,Clear
2019-01-07T23:00:00,40.7,40.7,40.7,30.4,66.28,,6.0,,236.0,36.7,0.0,,0.0,9.9,0.0,1013.1,Clear
2019-01-08T00:00:00,40.2,40.2,40.2,29.2,64.54,,7.7,17.2,248.0,35.0,0.0,,0.0,9.9,0.0,1014.2,Clear
2019-01-08T01:00:00,45.4,45.4,45.4,28.6,51.61,,12.5,21.5,273.0,39.5,0.0,,0.0,9.9,0.0,1015.4,Clear
2019-01-08T02:00:00,45.7,45.7,45.7,27.2,48.17,,11.6,18.3,270.0,40.2,0.0,,0.0,9.9,0.0,1016.6,Clear
2019-01-08T03:00:00,45.2,45.2,45.2,29.1,53.02,,12.9,25.6,303.0,39.1,0.0,,0.0,9.9,0.0,1018.7,Clear
2019-01-08T04:00:00,43.4,43.4,43.4,30.4,59.92,,14.3,25.9,303.0,36.3,0.0,,0.0,9.9,0.0,1019.9,Clear
2019-01-08T05:00:00,41.1,41.1,41.1,31.0,67.07,,9.5,18.5,310.0,35.2,0.0,,0.0,9.9,0.0,1021.1,Clear
2019-01-08T06:00:00,39.8,39.8,39.8,30.9,70.36,,9.6,20.8,298.0,33.6,0.0,,0.0,9.9,0.0,1023.0,Clear
2019-01-08T07:00:00,39.1,39.1,39.1,30.5,70.81,,8.2,,308.0,33.4,0.0,,0.0,9.9,0.0,1024.5,Clear
2019-01-08T08:00:00,36.4,36.4,36.4,29.8,76.64,,6.1,,290.0,31.4,0.0,,0.0,9.9,0.0,1025.4,Clear
2019-01-08T09:00:00,38.6,38.6,38.6,30.4,72.22,,8.2,,314.0,32.7,0.0,,0.0,9.9,0.0,1026.5,Clear
2019-01-08T10:00:00,43.3,43.3,43.3,30.9,61.4,,9.7,17.8,341.0,37.8,0.0,,0.0,9.9,0.0,1027.4,Clear
2019-01-08T11:00:00,47.5,47.5,47.5,29.0,48.45,,12.0,,342.0,42.3,0.0,,0.0,9.9,0.0,1028.0,Clear
2019-01-08T12:00:00,49.7,49.7,49.7,27.8,42.48,,13.9,30.3,327.0,44.5,0.0,,0.0,9.9,0.0,1028.2,Clear
2019-01-08T13:00:00,51.0,51.0,51.0,25.8,37.28,,13.8,24.4,324.0,,0.0,,0.0,9.9,0.0,1028.0,Clear
2019-01-08T14:00:00,51.2,51.2,51.2,22.9,32.8,,16.2,26.7,315.0,,0.0,,0.0,9.9,0.0,1028.1,Clear
2019-01-08T15:00:00,51.6,51.6,51.6,20.5,29.27,,13.8,23.2,333.0,,0.0,,0.0,9.9,0.0,1028.6,Clear
2019-01-08T16:00:00,49.4,49.4,49.4,19.3,30.04,,15.3,25.6,325.0,43.8,0.0,,0.0,9.9,0.0,1029.5,Clear
2019-01-08T17:00:00,46.7,46.7,46.7,19.9,34.22,,9.7,18.6,332.0,42.0,0.0,,0.0,9.9,0.0,1030.2,Clear
2019-01-08T18:00:00,42.0,42.0,42.0,20.6,42.04,,4.3,,331.0,39.4,0.0,,0.0,9.9,0.0,1030.9,Clear
2019-01-08T19:00:00,38.2,38.2,38.2,21.2,49.95,,2.9,,324.0,,0.0,,0.0,9.9,0.0,1031.5,Clear
2019-01-08T20:00:00,34.7,34.7,34.7,20.6,55.95,,5.3,,292.0,30.0,0.0,,0.0,9.9,0.0,1032.2,Clear
2019-01-08T21:00:00,33.4,33.4,33.4,21.4,61.09,,6.0,,275.0,27.9,0.0,,0.0,9.9,0.0,1032.5,Clear
2019-01-08T22:00:00,33.4,33.4,33.4,21.9,62.5,,9.0,,292.0,26.0,0.0,,0.0,9.9,0.0,1032.9,Clear
2019-01-08T23:00:00,33.3,33.3,33.3,21.4,61.39,,9.0,,290.0,25.8,0.0,,0.0,9.9,0.0,1033.4,Clear
2019-01-09T00:00:00,31.8,31.8,31.8,20.6,62.77,,6.9,,283.0,25.4,0.0,,0.0,9.9,0.0,1033.6,Clear
2019-01-09T01:00:00,31.5,31.5,31.5,20.6,63.87,,8.6,,290.0,23.8,0.0,,0.0,9.9,0.0,1033.6,Clear
2019-01-09T02:00:00,31.5,31.5,31.5,20.1,62.26,,7.4,,301.0,24.6,0.0,,0.0,9.9,0.0,1034.0,Clear
2019-01-09T03:00:00,28.8,28.8,28.8,20.1,69.41,,3.3,,315.0,25.3,0.0,,0.0,9.9,0.0,1034.7,Clear
2019-01-09T04:00:00,29.6,29.6,29.6,20.7,68.86,,6.0,,310.0,23.4,0.0,,0.0,9.9,0.0,1034.9,Clear
2019-01-09T05:00:00,27.2,27.2,27.2,20.2,74.57,,6.3,,291.0,20.2,0.0,,0.0,9.9,0.0,1034.7,Clear
2019-01-09T06:00:00,27.5,27.5,27.5,19.3,70.96,,3.4,,341.0,23.6,0.0,,0.0,9.9,0.0,1034.9,Clear
2019-01-09T07:00:00,24.9,24.9,24.9,18.1,75.15,,2.0,,335.0,,0.0,,0.0,9.9,0.0,1035.4,Clear
2019-01-09T08:00:00,23.5,23.5,23.5,18.1,79.5,,4.2,,296.0,18.1,0.0,,0.0,9.9,0.0,1036.2,Clear
2019-01-09T09:00:00,28.8,28.8,28.8,19.7,68.41,,3.2,,345.0,25.4,0.0,,0.0,9.9,0.0,1036.5,Clear
2019-01-09T10:00:00,33.0,33.0,33.0,17.9,53.34,,9.0,,359.0,25.5,0.0,,0.0,9.9,0.0,1037.0,Clear
2019-01-09T11:00:00,35.6,35.6,35.6,13.7,40.1,,11.2,,357.0,27.6,0.0,,0.0,9.9,0.0,1037.0,Clear
2019-01-09T12:00:00,37.0,37.0,37.0,13.6,37.77,,10.2,,3.0,29.8,0.0,,0.0,9.9,0.0,1035.8,Clear
2019-01-09T13:00:00,39.6,39.6,39.6,13.7,34.32,,4.2,,3.0,36.7,0.0,,0.0,9.9,0.0,1034.5,Clear
2019-01-09T14:00:00,40.2,40.2,40.2,13.7,33.39,,9.9,,357.0,34.0,0.0,,0.0,9.9,0.0,1033.6,Clear
2019-01-09T15:00:00,40.8,40.8,40.8,13.3,32.15,,8.9,,12.0,35.1,0.0,,0.0,9.9,0.0,1033.4,Clear
2019-01-09T16:00:00,40.5,40.5,40.5,12.2,31.01,,4.0,,10.0,37.9,0.0,,0.0,9.9,0.0,1033.0,Clear
2019-01-09T17:00:00,38.3,38.3,38.3,12.3,33.88,,0.0,,0.0,,0.0,,0.0,9.9,0.0,1032.6,Clear
2019-01-09T18:00:00,33.9,33.9,33.9,13.9,43.43,,1.6,,45.0,,0.0,,0.0,9.9,0.0,1031.8,Clear
2019-01-09T19:00:00,31.5,31.5,31.5,15.4,51.02,,1.1,,45.0,,0.0,,0.0,9.9,0.0,1031.8,Clear
2019-01-09T20:00:00,28.8,28.8,28.8,16.3,59.2,,0.0,,0.0,,0.0,,0.0,9.9,0.0,1031.7,Clear
2019-01-09T21:00:00,27.8,27.8,27.8,17.3,64.3,,1.5,,60.0,,0.0,,0.0,9.9,0.0,1031.6,Clear
2019-01-09T22:00:00,26.0,26.0,26.0,16.5,66.64,,2.4,,61.0,,0.0,,0.0,9.9,0.0,1031.4,Clear
2019-01-09T23:00:00,25.2,25.2,25.2,16.4,68.81,,1.5,,63.0,,0.0,,0.0,9.9,0.0,1031.0,Clear
2019-01-10T00:00:00,26.2,26.2,26.2,16.3,65.87,,1.1,,65.0,,0.0,,0.0,9.9,0.0,1030.5,Clear
2019-01-10T01:00:00,26.5,26.5,26.5,17.0,67.0,,2.5,,73.0,,0.0,,0.0,9.9,0.0,1030.1,Clear
2019-01-10T02:00:00,26.3,26.3,26.3,16.9,67.23,,2.7,,69.0,,0.0,,0.0,9.9,0.0,1029.8,Clear
2019-01-10T03:00:00,25.4,25.4,25.4,17.0,70.13,,1.7,,60.0,,0.0,,0.0,9.9,0.0,1029.3,Clear
2019-01-10T04:00:00,25.9,25.9,25.9,16.9,68.44,,2.3,,65.0,,0.0,,0.0,9.9,0.0,1028.7,Clear
2019-01-10T05:00:00,25.5,25.5,25.5,17.0,69.76,,3.1,,72.0,21.8,0.0,,0.0,9.9,0.0,1027.8,Clear
2019-01-10T06:00:00,26.0,26.0,26.0,17.1,68.7,,5.7,,75.0,19.4,0.0,,0.0,9.9,0.0,1027.6,Clear
2019-01-10T07:00:00,25.5,25.5,25.5,18.3,73.93,,6.3,,75.0,18.2,0.0,,0.0,9.9,0.0,1027.7,Clear
2019-01-10T08:00:00,26.2,26.2,26.2,18.9,73.73,,6.2,,74.0,19.1,0.0,,0.0,9.9,2.5,1027.6,Clear
2019-01-10T09:00:00,29.0,29.0,29.0,20.0,68.73,,7.3,16.1,138.0,21.7,0.0,,0.0,9.9,0.0,1027.4,Clear
2019-01-10T10:00:00,33.9,33.9,33.9,21.0,58.99,,9.5,17.2,148.0,26.3,0.0,,0.0,9.9,7.9,1027.4,Clear
2019-01-10T11:00:00,36.2,36.2,36.2,20.1,51.75,,11.0,19.7,151.0,28.5,0.0,,0.0,9.9,0.0,1027.0,Clear
2019-01-10T12:00:00,40.4,40.4,40.4,20.7,44.95,,11.9,,136.0,33.4,0.0,,0.0,9.9,0.0,1025.4,Clear
2019-01-10T13:00:00,43.6,43.6,43.6,22.0,42.13,,13.0,18.3,158.0,37.0,0.0,,0.0,9.9,0.0,1023.6,Clear
2019-01-10T14:00:00,46.4,46.4,46.4,23.4,40.15,,12.6,19.7,153.0,40.7,0.0,,0.0,9.9,0.0,1022.5,Clear
2019-01-10T15:00:00,47.7,47.7,47.7,23.3,38.04,,14.7,19.7,151.0,41.7,0.0,,0.0,9.9,0.0,1021.6,Clear
2019-01-10T16:00:00,46.4,46.4,46.4,24.0,41.06,,11.1,,161.0,41.2,0.0,,0.0,9.9,0.0,1021.6,Clear
2019-01-10T17:00:00,45.0,45.0,45.0,23.8,42.83,,11.5,,160.0,39.3,0.0,,0.0,9.9,0.0,1021.1,Clear
2019-01-10T18:00:00,41.1,41.1,41.1,23.8,49.97,,7.3,,159.0,36.3,0.0,,0.0,9.9,48.4,1021.8,Partially cloudy
2019-01-10T19:00:00,39.4,39.4,39.4,24.4,54.72,,6.8,19.7,137.0,34.5,0.0,,0.0,9.9,39.6,1021.8,Partially cloudy
2019-01-10T20:00:00,37.3,37.3,37.3,24.0,58.32,,6.0,,108.0,32.6,0.0,,0.0,9.9,0.0,1021.5,Clear
2019-01-10T21:00:00,35.8,35.8,35.8,24.6,63.59,,2.7,,75.0,,0.0,,0.0,9.9,0.0,1021.2,Clear
2019-01-10T22:00:00,35.6,35.6,35.6,25.2,65.51,,3.8,,94.0,32.5,0.0,,0.0,9.9,0.0,1021.0,Clear
2019-01-10T23:00:00,35.5,35.5,35.5,24.7,64.55,,2.0,,70.0,,0.0,,0.0,9.9,0.0,1020.4,Clear
2019-01-11T00:00:00,36.1,36.1,36.1,24.9,63.52,,1.8,,76.0,,0.0,,0.0,9.9,38.6,1020.0,Partially cloudy
2019-01-11T01:00:00,35.5,35.5,35.5,24.9,65.15,,1.3,,87.0,,0.0,,0.0,9.9,0.0,1019.7,Clear
2019-01-11T02:00:00,34.4,34.4,34.4,24.9,68.03,,3.9,,86.0,31.0,0.0,,0.0,9.9,0.0,1020.2,Clear
2019-01-11T03:00:00,34.0,34.0,34.0,25.6,71.04,,1.8,,82.0,,0.0,,0.0,9.9,0.0,1020.4,Clear
2019-01-11T04:00:00,33.7,33.7,33.7,26.2,73.71,,2.2,,82.0,,0.0,,0.0,9.9,0.0,1019.8,Clear
2019-01-11T05:00:00,34.1,34.1,34.1,26.0,71.67,,2.0,,75.0,,0.0,,0.0,9.9,0.0,1019.3,Clear
2019-01-11T06:00:00,34.4,34.4,34.4,27.4,75.35,,2.0,,75.0,,0.0,,0.0,9.9,0.0,1019.4,Clear
2019-01-11T07:00:00,34.9,34.9,34.9,28.0,75.46,,2.7,,65.0,,0.0,,0.0,9.9,5.2,1019.2,Clear
2019-01-11T08:00:00,35.4,35.4,35.4,28.9,77.06,,2.9,,77.0,,0.0,,0.0,9.7,43.5,1019.4,Partially cloudy
2019-01-11T09:00:00,36.5,36.5,36.5,31.4,81.55,,6.1,,141.0,31.5,0.0,,0.08,9.9,44.8,1019.3,Partially cloudy
2019-01-11T10:00:00,37.7,37.7,37.7,32.6,81.89,,6.6,,145.0,32.6,0.0,,0.16,9.9,42.9,1019.2,Partially cloudy
2019-01-11T11:00:00,38.6,38.6,38.6,33.3,80.88,,3.2,,98.0,36.6,0.0,,0.25,9.9,40.6,1019.6,Partially cloudy
2019-01-11T12:00:00,38.1,38.1,38.1,34.4,86.4,,7.0,,151.0,32.8,0.03,,0.33,8.5,64.6,1018.7,Rain Partially cloudy
2019-01-11T13:00:00,38.0,38.0,38.0,34.4,86.67,,4.9,,156.0,34.3,0.04,,0.41,8.5,69.8,1018.2,Rain Partially cloudy
2019-01-11T14:00:00,37.9,37.9,37.9,35.1,89.45,,4.7,,90.0,34.3,0.07,,0.49,7.9,60.7,1017.7,Rain Partially cloudy
2019-01-11T15:00:00,37.8,37.8,37.8,35.8,92.23,,6.2,,76.0,33.0,0.03,,0.57,9.8,60.7,1017.5,Rain Partially cloudy
2019-01-11T16:00:00,37.3,37.3,37.3,35.7,93.77,,6.2,,83.0,32.4,0.02,,0.66,9.9,69.6,1017.4,Rain Partially cloudy
2019-01-11T17:00:00,36.2,36.2,36.2,34.9,95.03,,8.1,,77.0,29.9,0.01,,0.74,9.9,70.1,1017.0,Rain Partially cloudy
2019-01-11T18:00:00,34.7,34.7,34.7,33.8,96.51,,7.4,,88.0,28.5,0.01,,0.82,8.9,70.1,1017.8,Rain Partially cloudy
2019-01-11T19:00:00,33.0,33.0,33.0,32.9,99.57,,5.4,,66.0,27.9,0.03,,0.9,2.0,60.7,1018.1,Rain Partially cloudy
2019-01-11T20:00:00,32.9,32.9,32.9,32.5,98.15,,6.9,,52.0,26.7,0.03,,0.98,2.4,60.7,1017.5,Rain Partially cloudy
2019-01-11T21:00:00,32.9,32.9,32.9,32.5,98.15,,4.8,,47.0,28.3,0.03,,1.07,2.4,70.1,1017.6,Rain Partially cloudy
2019-01-11T22:00:00,32.9,32.9,32.9,32.5,98.15,,5.6,,46.0,27.7,0.02,,1.15,2.5,60.7,1017.6,Rain Partially cloudy
2019-01-11T23:00:00,33.0,33.0,33.0,32.6,98.3,,7.3,,43.0,26.5,0.02,,1.23,2.6,70.1,1017.3,Rain Partially cloudy
2019-01-12T00:00:00,33.0,33.0,33.0,32.4,97.44,,6.8,,45.0,26.9,0.02,,1.31,2.6,73.0,1017.4,Rain Partially cloudy
2019-01-12T01:00:00,33.0,33.0,33.0,32.7,98.93,,7.2,,36.0,26.5,0.04,,1.39,2.2,67.2,1017.1,Rain Partially cloudy
2019-01-12T02:00:00,33.0,33.0,33.0,32.7,98.93,,8.5,,36.0,25.7,0.03,,1.48,2.3,67.7,1017.1,Rain Partially cloudy
2019-01-12T03:00:00,33.0,33.0,33.0,32.7,98.93,,8.7,,30.0,25.6,0.01,,1.56,3.0,70.4,1017.3,Rain Partially cloudy
2019-01-12T04:00:00,32.9,32.9,32.9,32.0,96.3,,9.9,,30.0,24.9,0.02,,1.64,2.2,67.7,1017.3,Rain Partially cloudy
2019-01-12T05:00:00,32.8,32.8,32.8,32.0,96.71,,10.5,,24.0,24.5,0.02,,1.72,3.0,67.7,1017.3,Rain Partially cloudy
2019-01-12T06:00:00,32.7,32.7,32.7,31.2,94.35,,11.2,20.8,26.0,24.0,0.0,,1.8,4.8,67.7,1017.4,Partially cloudy
2019-01-12T07:00:00,32.2,32.2,32.2,30.6,93.4,,11.0,,30.0,23.6,0.0,,1.89,7.6,64.5,1018.1,Partially cloudy
2019-01-12T08:00:00,31.5,31.5,31.5,30.0,93.93,,12.5,23.0,30.0,22.0,0.0,,1.97,6.8,55.9,1018.5,Partially cloudy
2019-01-12T09:00:00,31.5,31.5,31.5,30.0,93.93,,7.6,,20.0,24.5,0.0,,1.9,7.3,67.7,1019.5,Partially cloudy
2019-01-12T10:00:00,32.1,32.1,32.1,29.4,89.66,,11.2,18.3,24.0,23.3,0.0,,1.91,7.1,70.4,1020.5,Partially cloudy
2019-01-12T11:00:00,32.0,32.0,32.0,29.4,90.05,,11.8,16.1,20.0,22.9,0.0,,1.91,7.6,70.4,1021.4,Partially cloudy
2019-01-12T12:00:00,32.1,32.1,32.1,29.4,89.66,,11.4,,23.0,23.2,0.0,,1.91,3.3,50.3,1021.2,Partially cloudy
2019-01-12T13:00:00,32.1,32.1,32.1,29.7,90.72,,11.2,,13.0,23.3,0.0,,1.91,5.6,67.7,1020.6,Partially cloudy
2019-01-12T14:00:00,32.9,32.9,32.9,28.8,84.66,,14.0,20.8,6.0,23.0,0.0,,1.92,6.4,67.7,1020.8,Partially cloudy
2019-01-12T15:00:00,33.0,33.0,33.0,28.8,84.3,,11.8,19.7,16.0,24.1,0.0,,1.92,8.0,67.7,1021.7,Partially cloudy
2019-01-12T16:00:00,32.6,32.6,32.6,28.8,85.45,,10.0,19.7,10.0,24.5,0.0,,1.92,7.6,70.4,1022.5,Partially cloudy
2019-01-12T17:00:00,31.9,31.9,31.9,28.2,85.91,,9.6,,360.0,23.9,0.0,,1.93,8.0,70.4,1023.6,Partially cloudy
2019-01-12T18:00:00,31.9,31.9,31.9,28.8,87.88,,8.7,,360.0,24.4,0.0,,1.93,8.0,70.4,1025.1,Partially cloudy
2019-01-12T19:00:00,31.9,31.9,31.9,28.8,87.88,,9.3,,360.0,24.0,0.0,,1.93,8.0,70.4,1025.9,Partially cloudy
2019-01-12T20:00:00,31.9,31.9,31.9,28.8,87.88,,10.3,,360.0,23.5,0.0,,1.93,7.6,70.4,1026.3,Partially cloudy
2019-01-12T21:00:00,31.9,31.9,31.9,28.8,87.88,,9.2,,10.0,24.1,0.0,,1.94,6.9,70.4,1026.7,Partially cloudy
2019-01-12T22:00:00,31.9,31.9,31.9,29.4,90.4,,8.7,,10.0,24.4,0.0,,1.94,6.9,70.4,1027.5,Partially cloudy
2019-01-12T23:00:00,31.9,31.9,31.9,28.8,87.88,,8.9,,6.0,24.2,0.0,,1.94,6.1,70.4,1027.7,Partially cloudy
2019-01-13T00:00:00,31.9,31.9,31.9,28.8,88.07,,8.7,18.3,20.0,24.3,0.0,,1.95,7.3,70.4,1028.1,Partially cloudy
2019-01-13T01:00:00,31.3,31.3,31.3,28.2,88.22,,12.2,,28.0,21.8,0.0,,1.95,7.6,70.4,1028.5,Partially cloudy
2019-01-13T02:00:00,31.1,31.1,31.1,28.2,88.79,,10.3,,18.0,22.5,0.0,,1.95,8.7,70.4,1028.8,Partially cloudy
2019-01-13T03:00:00,31.3,31.3,31.3,28.2,88.22,,8.1,,16.0,23.9,0.0,,1.95,8.0,70.4,1029.5,Partially cloudy
2019-01-13T04:00:00,31.3,31.3,31.3,28.8,90.25,,6.2,,360.0,25.2,0.0,,1.96,7.6,70.4,1029.9,Partially cloudy
2019-01-13T05:00:00,31.1,31.1,31.1,28.2,88.79,,8.9,,10.0,23.2,0.0,,1.96,8.0,70.4,1030.0,Partially cloudy
2019-01-13T06:00:00,31.0,31.0,31.0,26.8,84.15,,10.3,,22.0,22.4,0.0,,1.96,8.0,70.4,1030.3,Partially cloudy
2019-01-13T07:00:00,30.6,30.6,30.6,26.8,85.46,,7.8,,16.0,23.3,0.0,,1.97,8.0,70.4,1031.1,Partially cloudy
2019-01-13T08:00:00,30.6,30.6,30.6,27.5,87.92,,5.8,,14.0,24.8,0.0,,1.97,6.4,70.4,1031.4,Partially cloudy
2019-01-13T09:00:00,31.0,31.0,31.0,27.5,86.58,,5.8,,22.0,25.2,0.0,,1.94,6.4,70.4,1031.9,Partially cloudy
2019-01-13T10:00:00,30.5,30.5,30.5,27.5,88.39,,7.1,,30.0,23.6,0.0,,1.91,6.4,70.4,1032.6,Partially cloudy
2019-01-13T11:00:00,31.1,31.1,31.1,28.2,88.79,,6.9,,22.0,24.5,0.0,,1.88,8.0,70.4,1033.1,Partially cloudy
2019-01-13T12:00:00,31.1,31.1,31.1,27.5,86.31,,6.7,,12.0,24.7,0.0,,1.85,6.9,70.4,1032.6,Partially cloudy
2019-01-13T13:00:00,30.5,30.5,30.5,26.8,85.91,,6.1,,28.0,24.4,0.0,,1.82,6.8,70.4,1031.9,Partially cloudy
2019-01-13T14:00:00,31.1,31.1,31.1,26.8,83.79,,4.9,,26.0,26.2,0.0,,1.79,6.5,70.4,1031.7,Partially cloudy
2019-01-13T15:00:00,31.7,31.7,31.7,27.5,84.41,,1.3,,22.0,,0.0,,1.76,6.8,70.4,1031.6,Partially cloudy
2019-01-13T16:00:00,31.1,31.1,31.1,27.5,86.21,,3.6,,25.0,27.5,0.0,,1.73,6.8,70.4,1031.9,Partially cloudy
2019-01-13T17:00:00,31.0,31.0,31.0,26.7,83.69,,3.3,,322.0,27.9,0.0,,1.7,6.5,73.0,1031.9,Partially cloudy
2019-01-13T18:00:00,30.5,30.5,30.5,26.6,85.25,,3.4,,310.0,27.2,0.0,,1.67,7.7,73.0,1031.9,Partially cloudy
2019-01-13T19:00:00,29.9,29.9,29.9,26.5,87.06,,2.4,,8.0,,0.0,,1.64,7.7,73.0,1032.4,Partially cloudy
2019-01-13T20:00:00,29.9,29.9,29.9,26.1,85.61,,0.4,,12.0,,0.0,,1.61,7.7,73.0,1032.5,Partially cloudy
2019-01-13T21:00:00,29.8,29.8,29.8,26.6,87.69,,2.0,,310.0,,0.0,,1.58,6.9,73.0,1032.4,Partially cloudy
2019-01-13T22:00:00,29.8,29.8,29.8,26.6,87.73,,2.3,,284.0,,0.0,,1.55,6.2,73.0,1032.3,Partially cloudy
2019-01-13T23:00:00,29.3,29.3,29.3,26.5,89.33,,5.5,,261.0,23.5,0.0,,1.52,7.0,73.0,1032.2,Partially cloudy
2019-01-14T00:00:00,29.2,29.2,29.2,26.5,89.8,,8.1,,237.0,21.4,0.0,,1.49,8.1,73.0,1032.1,Partially cloudy
2019-01-14T01:00:00,29.2,29.2,29.2,26.6,89.99,,7.5,,252.0,21.8,0.0,,1.46,6.9,73.0,1031.5,Partially cloudy
2019-01-14T02:00:00,28.6,28.6,28.6,26.5,91.61,,9.7,,236.0,19.7,0.0,,1.43,6.5,73.0,1031.3,Partially cloudy
2019-01-14T03:00:00,27.5,27.5,27.5,26.1,94.3,,7.2,,243.0,20.0,0.0,,1.4,6.0,71.8,1031.7,Partially cloudy
2019-01-14T04:00:00,27.3,27.3,27.3,25.9,94.28,,8.7,,257.0,18.7,0.0,,1.37,7.0,73.0,1031.5,Partially cloudy
2019-01-14T05:00:00,27.6,27.6,27.6,26.0,93.26,,9.5,,241.0,18.6,0.0,,1.34,9.7,73.0,1030.9,Partially cloudy
2019-01-14T06:00:00,27.8,27.8,27.8,27.1,97.27,,7.4,,235.0,20.1,0.0,,1.31,8.6,73.0,1030.4,Partially cloudy
2019-01-14T07:00:00,28.3,28.3,28.3,27.1,95.19,,8.6,,239.0,20.0,0.0,,1.28,9.9,73.0,1030.6,Partially cloudy
2019-01-14T08:00:00,29.0,29.0,29.0,27.2,93.04,,7.4,,232.0,21.6,0.0,,1.25,9.9,73.0,1030.4,Partially cloudy
2019-01-14T09:00:00,29.7,29.7,29.7,28.4,95.05,,8.5,,223.0,21.7,0.0,,1.24,8.9,73.0,1030.2,Partially cloudy
2019-01-14T10:00:00,30.6,30.6,30.6,29.2,94.19,,8.6,,223.0,22.8,0.0,,1.23,8.9,73.0,1030.4,Partially cloudy
2019-01-14T11:00:00,31.5,31.5,31.5,29.7,93.18,,10.2,,233.0,23.0,0.0,,1.22,8.3,73.0,1030.6,Partially cloudy
2019-01-14T12:00:00,32.6,32.6,32.6,29.8,89.51,,10.6,,233.0,24.1,0.0,,1.2,7.5,73.0,1029.4,Partially cloudy
2019-01-14T13:00:00,32.8,32.8,32.8,30.4,90.81,,10.2,,232.0,24.6,0.0,,1.19,8.3,73.0,1028.3,Partially cloudy
2019-01-14T14:00:00,33.3,33.3,33.3,31.0,91.09,,11.1,17.2,230.0,24.8,0.0,,1.18,9.9,73.0,1027.5,Partially cloudy
2019-01-14T15:00:00,33.4,33.4,33.4,31.1,91.2,,10.1,16.1,233.0,25.4,0.0,,1.17,8.9,73.0,1027.1,Partially cloudy
2019-01-14T16:00:00,33.5,33.5,33.5,31.7,92.98,,11.0,,234.0,25.1,0.0,,1.16,8.3,73.0,1026.9,Partially cloudy
2019-01-14T17:00:00,33.5,33.5,33.5,31.7,93.23,,8.5,,231.0,26.4,0.0,,1.15,8.3,73.0,1026.4,Partially cloudy
2019-01-14T18:00:00,33.5,33.5,33.5,31.8,93.3,,8.7,,235.0,26.2,0.0,,1.14,8.9,73.0,1026.6,Partially cloudy
2019-01-14T19:00:00,33.5,33.5,33.5,32.4,95.64,,9.1,,245.0,26.1,0.0,,1.12,8.2,73.0,1027.2,Partially cloudy
2019-01-14T20:00:00,33.5,33.5,33.5,32.4,95.81,,7.3,,236.0,27.1,0.0,,1.11,7.4,73.0,1027.0,Partially cloudy
2019-01-14T21:00:00,33.5,33.5,33.5,32.6,96.4,,5.5,,214.0,28.4,0.0,,1.1,2.9,71.8,1026.3,Partially cloudy
2019-01-14T22:00:00,33.5,33.5,33.5,32.9,97.96,,2.9,,279.0,,0.0,,1.09,1.6,54.0,1026.5,Partially cloudy
2019-01-14T23:00:00,33.7,33.7,33.7,33.0,97.47,,7.2,,221.0,27.4,0.0,,1.08,2.5,73.0,1026.4,Partially cloudy
2019-01-15T00:00:00,33.7,33.7,33.7,32.5,95.41,,6.6,,234.0,27.8,0.0,,1.07,3.7,73.0,1026.3,Partially cloudy
2019-01-15T01:00:00,33.6,33.6,33.6,32.5,95.51,,9.9,,221.0,25.8,0.0,,1.06,2.8,73.0,1025.5,Partially cloudy
2019-01-15T02:00:00,33.6,33.6,33.6,32.5,95.38,,7.7,,221.0,27.0,0.0,,1.05,3.1,73.0,1025.4,Partially cloudy
2019-01-15T03:00:00,33.4,33.4,33.4,32.4,95.91,,9.9,,218.0,25.5,0.0,,1.03,3.4,73.0,1024.7,Partially cloudy
2019-01-15T04:00:00,32.8,32.8,32.8,31.6,95.26,,8.7,,212.0,25.5,0.0,,1.02,3.6,73.0,1024.0,Partially cloudy
2019-01-15T05:00:00,32.5,32.5,32.5,30.9,93.69,,9.9,,220.0,24.5,0.0,,1.01,4.1,73.0,1024.0,Partially cloudy
2019-01-15T06:00:00,31.9,31.9,31.9,30.9,95.91,,8.0,,217.0,24.7,0.0,,1.0,4.0,73.0,1023.6,Partially cloudy
2019-01-15T07:00:00,31.2,31.2,31.2,30.9,98.52,,8.5,,207.0,23.6,0.0,,0.99,2.0,73.0,1023.6,Partially cloudy
2019-01-15T08:00:00,31.0,31.0,31.0,30.8,99.31,,8.3,,210.0,23.4,0.0,,1.18,2.2,73.0,1023.6,Partially cloudy
2019-01-15T09:00:00,31.0,31.0,31.0,30.3,97.51,,8.2,,217.0,23.5,0.0,,1.13,0.8,68.4,1023.8,Partially cloudy
2019-01-15T10:00:00,30.9,30.9,30.9,30.3,97.85,,8.6,,218.0,23.1,0.0,,1.08,1.3,73.0,1024.1,Partially cloudy
2019-01-15T11:00:00,30.9,30.9,30.9,30.4,97.83,,8.6,,211.0,23.2,0.0,,1.03,2.1,73.0,1024.3,Partially cloudy
2019-01-15T12:00:00,31.4,31.4,31.4,30.9,98.02,,9.1,,226.0,23.5,0.0,,0.98,2.9,73.0,1023.3,Partially cloudy
2019-01-15T13:00:00,32.2,32.2,32.2,31.0,95.13,,9.7,,220.0,24.2,0.0,,0.94,4.5,73.0,1021.9,Partially cloudy
2019-01-15T14:00:00,32.8,32.8,32.8,31.7,95.9,,8.7,,229.0,25.4,0.0,,0.89,5.5,73.0,1020.9,Partially cloudy
2019-01-15T15:00:00,32.9,32.9,32.9,31.7,95.47,,9.3,,224.0,25.2,0.0,,0.84,7.7,73.0,1020.7,Partially cloudy
2019-01-15T16:00:00,33.3,33.3,33.3,31.7,93.89,,8.7,,231.0,26.0,0.0,,0.79,7.4,73.0,1020.9,Partially cloudy
2019-01-15T17:00:00,32.8,32.8,32.8,31.7,95.52,,11.1,,218.0,24.2,0.0,,0.74,5.0,73.0,1020.6,Partially cloudy
2019-01-15T18:00:00,32.7,32.7,32.7,31.7,96.02,,8.6,,222.0,25.3,0.0,,0.69,5.4,73.0,1020.8,Partially cloudy
2019-01-15T19:00:00,32.6,32.6,32.6,31.7,96.4,,6.7,,259.0,26.5,0.0,,0.64,5.4,73.0,1021.6,Partially cloudy
2019-01-15T20:00:00,32.3,32.3,32.3,31.7,97.9,,10.6,,243.0,23.8,0.0,,0.59,4.2,68.4,1021.3,Partially cloudy
2019-01-15T21:00:00,32.2,32.2,32.2,31.9,98.46,,4.3,,265.0,28.0,0.0,,0.54,3.4,67.0,1022.0,Partially cloudy
2019-01-15T22:00:00,32.2,32.2,32.2,31.7,98.11,,1.6,,310.0,,0.0,,0.49,2.4,68.4,1022.5,Partially cloudy
2019-01-15T23:00:00,32.7,32.7,32.7,32.4,99.07,,1.1,,320.0,,0.0,,0.44,1.0,49.4,1022.7,Partially cloudy
